{"type":"FeatureCollection","name":"baggage_flows","features":[{"type":"Feature","id":"baggage-flow-syn-ap-cdg","properties":{"airport_id":"SYN-AP-CDG","flow_type":"IllustrativeOutboundBaggage","illustrative_only":true,"is_synthetic":true,"data_classification":"Synthetic master data","geometry_disclaimer":"Illustrative synthetic geometry; not a real airport layout, boundary, route, or operational location.","generator_version":"4.0.0","random_seed":42},"geometry":{"type":"LineString","coordinates":[[2.551117,49.00996],[2.554117,49.00896],[2.5571170000000003,49.007960000000004]]}},{"type":"Feature","id":"baggage-flow-syn-ap-ory","properties":{"airport_id":"SYN-AP-ORY","flow_type":"IllustrativeOutboundBaggage","illustrative_only":true,"is_synthetic":true,"data_classification":"Synthetic master data","geometry_disclaimer":"Illustrative synthetic geometry; not a real airport layout, boundary, route, or operational location.","generator_version":"4.0.0","random_seed":42},"geometry":{"type":"LineString","coordinates":[[2.355963,48.730498999999995],[2.358963,48.729499],[2.3619630000000003,48.728499]]}},{"type":"Feature","id":"baggage-flow-syn-ap-nce","properties":{"airport_id":"SYN-AP-NCE","flow_type":"IllustrativeOutboundBaggage","illustrative_only":true,"is_synthetic":true,"data_classification":"Synthetic master data","geometry_disclaimer":"Illustrative synthetic geometry; not a real airport layout, boundary, route, or operational location.","generator_version":"4.0.0","random_seed":42},"geometry":{"type":"LineString","coordinates":[[7.21287,43.659400999999995],[7.21587,43.658401],[7.21887,43.657401]]}},{"type":"Feature","id":"baggage-flow-syn-ap-lys","properties":{"airport_id":"SYN-AP-LYS","flow_type":"IllustrativeOutboundBaggage","illustrative_only":true,"is_synthetic":true,"data_classification":"Synthetic master data","geometry_disclaimer":"Illustrative synthetic geometry; not a real airport layout, boundary, route, or operational location.","generator_version":"4.0.0","random_seed":42},"geometry":{"type":"LineString","coordinates":[[5.087139,45.726996],[5.090139,45.725996],[5.093139,45.724996000000004]]}},{"type":"Feature","id":"baggage-flow-syn-ap-mrs","properties":{"airport_id":"SYN-AP-MRS","flow_type":"IllustrativeOutboundBaggage","illustrative_only":true,"is_synthetic":true,"data_classification":"Synthetic master data","geometry_disclaimer":"Illustrative synthetic geometry; not a real airport layout, boundary, route, or operational location.","generator_version":"4.0.0","random_seed":42},"geometry":{"type":"LineString","coordinates":[[5.2095,43.439088],[5.2125,43.438088],[5.2155000000000005,43.437088]]}},{"type":"Feature","id":"baggage-flow-syn-ap-tls","properties":{"airport_id":"SYN-AP-TLS","flow_type":"IllustrativeOutboundBaggage","illustrative_only":true,"is_synthetic":true,"data_classification":"Synthetic master data","geometry_disclaimer":"Illustrative synthetic geometry; not a real airport layout, boundary, route, or operational location.","generator_version":"4.0.0","random_seed":42},"geometry":{"type":"LineString","coordinates":[[1.3608200000000001,43.630100999999996],[1.36382,43.629101],[1.36682,43.628101]]}},{"type":"Feature","id":"baggage-flow-syn-ap-fco","properties":{"airport_id":"SYN-AP-FCO","flow_type":"IllustrativeOutboundBaggage","illustrative_only":true,"is_synthetic":true,"data_classification":"Synthetic master data","geometry_disclaimer":"Illustrative synthetic geometry; not a real airport layout, boundary, route, or operational location.","generator_version":"4.0.0","random_seed":42},"geometry":{"type":"LineString","coordinates":[[12.248998,41.805532],[12.251998,41.804532],[12.254998,41.803532000000004]]}},{"type":"Feature","id":"baggage-flow-syn-ap-mxp","properties":{"airport_id":"SYN-AP-MXP","flow_type":"IllustrativeOutboundBaggage","illustrative_only":true,"is_synthetic":true,"data_classification":"Synthetic master data","geometry_disclaimer":"Illustrative synthetic geometry; not a real airport layout, boundary, route, or operational location.","generator_version":"4.0.0","random_seed":42},"geometry":{"type":"LineString","coordinates":[[8.725109999999999,45.6316],[8.72811,45.6306],[8.73111,45.6296]]}},{"type":"Feature","id":"baggage-flow-syn-ap-vce","properties":{"airport_id":"SYN-AP-VCE","flow_type":"IllustrativeOutboundBaggage","illustrative_only":true,"is_synthetic":true,"data_classification":"Synthetic master data","geometry_disclaimer":"Illustrative synthetic geometry; not a real airport layout, boundary, route, or operational location.","generator_version":"4.0.0","random_seed":42},"geometry":{"type":"LineString","coordinates":[[12.3489,45.506299],[12.3519,45.505299],[12.3549,45.504299]]}},{"type":"Feature","id":"baggage-flow-syn-ap-nap","properties":{"airport_id":"SYN-AP-NAP","flow_type":"IllustrativeOutboundBaggage","illustrative_only":true,"is_synthetic":true,"data_classification":"Synthetic master data","geometry_disclaimer":"Illustrative synthetic geometry; not a real airport layout, boundary, route, or operational location.","generator_version":"4.0.0","random_seed":42},"geometry":{"type":"LineString","coordinates":[[14.2878,40.887001999999995],[14.2908,40.886002],[14.293800000000001,40.885002]]}},{"type":"Feature","id":"baggage-flow-syn-ap-blq","properties":{"airport_id":"SYN-AP-BLQ","flow_type":"IllustrativeOutboundBaggage","illustrative_only":true,"is_synthetic":true,"data_classification":"Synthetic master data","geometry_disclaimer":"Illustrative synthetic geometry; not a real airport layout, boundary, route, or operational location.","generator_version":"4.0.0","random_seed":42},"geometry":{"type":"LineString","coordinates":[[11.2857,44.5364],[11.2887,44.5354],[11.2917,44.534400000000005]]}},{"type":"Feature","id":"baggage-flow-syn-ap-lis","properties":{"airport_id":"SYN-AP-LIS","flow_type":"IllustrativeOutboundBaggage","illustrative_only":true,"is_synthetic":true,"data_classification":"Synthetic master data","geometry_disclaimer":"Illustrative synthetic geometry; not a real airport layout, boundary, route, or operational location.","generator_version":"4.0.0","random_seed":42},"geometry":{"type":"LineString","coordinates":[[-9.13892,38.7823],[-9.13592,38.7813],[-9.13292,38.780300000000004]]}},{"type":"Feature","id":"baggage-flow-syn-ap-opo","properties":{"airport_id":"SYN-AP-OPO","flow_type":"IllustrativeOutboundBaggage","illustrative_only":true,"is_synthetic":true,"data_classification":"Synthetic master data","geometry_disclaimer":"Illustrative synthetic geometry; not a real airport layout, boundary, route, or operational location.","generator_version":"4.0.0","random_seed":42},"geometry":{"type":"LineString","coordinates":[[-8.68438980865,41.2491002808],[-8.68138980865,41.2481002808],[-8.67838980865,41.247100280800005]]}},{"type":"Feature","id":"baggage-flow-syn-ap-fao","properties":{"airport_id":"SYN-AP-FAO","flow_type":"IllustrativeOutboundBaggage","illustrative_only":true,"is_synthetic":true,"data_classification":"Synthetic master data","geometry_disclaimer":"Illustrative synthetic geometry; not a real airport layout, boundary, route, or operational location.","generator_version":"4.0.0","random_seed":42},"geometry":{"type":"LineString","coordinates":[[-7.9739390000000006,37.016909],[-7.970939,37.015909],[-7.967939,37.014909]]}},{"type":"Feature","id":"baggage-flow-syn-ap-fnc","properties":{"airport_id":"SYN-AP-FNC","flow_type":"IllustrativeOutboundBaggage","illustrative_only":true,"is_synthetic":true,"data_classification":"Synthetic master data","geometry_disclaimer":"Illustrative synthetic geometry; not a real airport layout, boundary, route, or operational location.","generator_version":"4.0.0","random_seed":42},"geometry":{"type":"LineString","coordinates":[[-16.777613,32.698812],[-16.774613,32.697812],[-16.771613,32.696812]]}},{"type":"Feature","id":"baggage-flow-syn-ap-pdl","properties":{"airport_id":"SYN-AP-PDL","flow_type":"IllustrativeOutboundBaggage","illustrative_only":true,"is_synthetic":true,"data_classification":"Synthetic master data","geometry_disclaimer":"Illustrative synthetic geometry; not a real airport layout, boundary, route, or operational location.","generator_version":"4.0.0","random_seed":42},"geometry":{"type":"LineString","coordinates":[[-25.7009007721,37.7421994934],[-25.6979007721,37.7411994934],[-25.6949007721,37.740199493400006]]}},{"type":"Feature","id":"baggage-flow-syn-ap-amm","properties":{"airport_id":"SYN-AP-AMM","flow_type":"IllustrativeOutboundBaggage","illustrative_only":true,"is_synthetic":true,"data_classification":"Synthetic master data","geometry_disclaimer":"Illustrative synthetic geometry; not a real airport layout, boundary, route, or operational location.","generator_version":"4.0.0","random_seed":42},"geometry":{"type":"LineString","coordinates":[[35.9901983948,31.723600936900002],[35.9931983948,31.7226009369],[35.9961983948,31.7216009369]]}},{"type":"Feature","id":"baggage-flow-syn-ap-aqj","properties":{"airport_id":"SYN-AP-AQJ","flow_type":"IllustrativeOutboundBaggage","illustrative_only":true,"is_synthetic":true,"data_classification":"Synthetic master data","geometry_disclaimer":"Illustrative synthetic geometry; not a real airport layout, boundary, route, or operational location.","generator_version":"4.0.0","random_seed":42},"geometry":{"type":"LineString","coordinates":[[35.015101,29.612601],[35.018101,29.611601],[35.021101,29.610601]]}}]}
