{"type":"FeatureCollection","name":"energy","features":[{"type":"Feature","id":"energy-syn-ap-cdg-g1","properties":{"airport_id":"SYN-AP-CDG","terminal_id":"SYN-AP-CDG-T1","gate_id":"SYN-AP-CDG-G1","feature_type":"EnergyHeatPoint","synthetic_intensity":0.68,"unit":"normalized proxy","is_synthetic":true,"data_classification":"Synthetic master data","geometry_disclaimer":"Illustrative synthetic geometry; not a real airport layout, boundary, route, or operational location.","generator_version":"4.0.0","random_seed":42},"geometry":{"type":"Point","coordinates":[2.5514170000000003,49.008085]}},{"type":"Feature","id":"energy-syn-ap-cdg-g2","properties":{"airport_id":"SYN-AP-CDG","terminal_id":"SYN-AP-CDG-T1","gate_id":"SYN-AP-CDG-G2","feature_type":"EnergyHeatPoint","synthetic_intensity":0.79,"unit":"normalized proxy","is_synthetic":true,"data_classification":"Synthetic master data","geometry_disclaimer":"Illustrative synthetic geometry; not a real airport layout, boundary, route, or operational location.","generator_version":"4.0.0","random_seed":42},"geometry":{"type":"Point","coordinates":[2.5514170000000003,49.008435]}},{"type":"Feature","id":"energy-syn-ap-cdg-g3","properties":{"airport_id":"SYN-AP-CDG","terminal_id":"SYN-AP-CDG-T1","gate_id":"SYN-AP-CDG-G3","feature_type":"EnergyHeatPoint","synthetic_intensity":0.9,"unit":"normalized proxy","is_synthetic":true,"data_classification":"Synthetic master data","geometry_disclaimer":"Illustrative synthetic geometry; not a real airport layout, boundary, route, or operational location.","generator_version":"4.0.0","random_seed":42},"geometry":{"type":"Point","coordinates":[2.5514170000000003,49.008785]}},{"type":"Feature","id":"energy-syn-ap-cdg-g4","properties":{"airport_id":"SYN-AP-CDG","terminal_id":"SYN-AP-CDG-T2","gate_id":"SYN-AP-CDG-G4","feature_type":"EnergyHeatPoint","synthetic_intensity":0.61,"unit":"normalized proxy","is_synthetic":true,"data_classification":"Synthetic master data","geometry_disclaimer":"Illustrative synthetic geometry; not a real airport layout, boundary, route, or operational location.","generator_version":"4.0.0","random_seed":42},"geometry":{"type":"Point","coordinates":[2.5574170000000005,49.009135]}},{"type":"Feature","id":"energy-syn-ap-cdg-g5","properties":{"airport_id":"SYN-AP-CDG","terminal_id":"SYN-AP-CDG-T2","gate_id":"SYN-AP-CDG-G5","feature_type":"EnergyHeatPoint","synthetic_intensity":0.72,"unit":"normalized proxy","is_synthetic":true,"data_classification":"Synthetic master data","geometry_disclaimer":"Illustrative synthetic geometry; not a real airport layout, boundary, route, or operational location.","generator_version":"4.0.0","random_seed":42},"geometry":{"type":"Point","coordinates":[2.5574170000000005,49.009485000000005]}},{"type":"Feature","id":"energy-syn-ap-cdg-g6","properties":{"airport_id":"SYN-AP-CDG","terminal_id":"SYN-AP-CDG-T2","gate_id":"SYN-AP-CDG-G6","feature_type":"EnergyHeatPoint","synthetic_intensity":0.83,"unit":"normalized proxy","is_synthetic":true,"data_classification":"Synthetic master data","geometry_disclaimer":"Illustrative synthetic geometry; not a real airport layout, boundary, route, or operational location.","generator_version":"4.0.0","random_seed":42},"geometry":{"type":"Point","coordinates":[2.5574170000000005,49.009835]}},{"type":"Feature","id":"energy-syn-ap-ory-g1","properties":{"airport_id":"SYN-AP-ORY","terminal_id":"SYN-AP-ORY-T1","gate_id":"SYN-AP-ORY-G1","feature_type":"EnergyHeatPoint","synthetic_intensity":0.75,"unit":"normalized proxy","is_synthetic":true,"data_classification":"Synthetic master data","geometry_disclaimer":"Illustrative synthetic geometry; not a real airport layout, boundary, route, or operational location.","generator_version":"4.0.0","random_seed":42},"geometry":{"type":"Point","coordinates":[2.356263,48.728623999999996]}},{"type":"Feature","id":"energy-syn-ap-ory-g2","properties":{"airport_id":"SYN-AP-ORY","terminal_id":"SYN-AP-ORY-T1","gate_id":"SYN-AP-ORY-G2","feature_type":"EnergyHeatPoint","synthetic_intensity":0.86,"unit":"normalized proxy","is_synthetic":true,"data_classification":"Synthetic master data","geometry_disclaimer":"Illustrative synthetic geometry; not a real airport layout, boundary, route, or operational location.","generator_version":"4.0.0","random_seed":42},"geometry":{"type":"Point","coordinates":[2.356263,48.728973999999994]}},{"type":"Feature","id":"energy-syn-ap-ory-g3","properties":{"airport_id":"SYN-AP-ORY","terminal_id":"SYN-AP-ORY-T1","gate_id":"SYN-AP-ORY-G3","feature_type":"EnergyHeatPoint","synthetic_intensity":0.57,"unit":"normalized proxy","is_synthetic":true,"data_classification":"Synthetic master data","geometry_disclaimer":"Illustrative synthetic geometry; not a real airport layout, boundary, route, or operational location.","generator_version":"4.0.0","random_seed":42},"geometry":{"type":"Point","coordinates":[2.356263,48.729324]}},{"type":"Feature","id":"energy-syn-ap-ory-g4","properties":{"airport_id":"SYN-AP-ORY","terminal_id":"SYN-AP-ORY-T2","gate_id":"SYN-AP-ORY-G4","feature_type":"EnergyHeatPoint","synthetic_intensity":0.68,"unit":"normalized proxy","is_synthetic":true,"data_classification":"Synthetic master data","geometry_disclaimer":"Illustrative synthetic geometry; not a real airport layout, boundary, route, or operational location.","generator_version":"4.0.0","random_seed":42},"geometry":{"type":"Point","coordinates":[2.3622630000000004,48.729673999999996]}},{"type":"Feature","id":"energy-syn-ap-ory-g5","properties":{"airport_id":"SYN-AP-ORY","terminal_id":"SYN-AP-ORY-T2","gate_id":"SYN-AP-ORY-G5","feature_type":"EnergyHeatPoint","synthetic_intensity":0.79,"unit":"normalized proxy","is_synthetic":true,"data_classification":"Synthetic master data","geometry_disclaimer":"Illustrative synthetic geometry; not a real airport layout, boundary, route, or operational location.","generator_version":"4.0.0","random_seed":42},"geometry":{"type":"Point","coordinates":[2.3622630000000004,48.730024]}},{"type":"Feature","id":"energy-syn-ap-ory-g6","properties":{"airport_id":"SYN-AP-ORY","terminal_id":"SYN-AP-ORY-T2","gate_id":"SYN-AP-ORY-G6","feature_type":"EnergyHeatPoint","synthetic_intensity":0.9,"unit":"normalized proxy","is_synthetic":true,"data_classification":"Synthetic master data","geometry_disclaimer":"Illustrative synthetic geometry; not a real airport layout, boundary, route, or operational location.","generator_version":"4.0.0","random_seed":42},"geometry":{"type":"Point","coordinates":[2.3622630000000004,48.730374]}},{"type":"Feature","id":"energy-syn-ap-nce-g1","properties":{"airport_id":"SYN-AP-NCE","terminal_id":"SYN-AP-NCE-T1","gate_id":"SYN-AP-NCE-G1","feature_type":"EnergyHeatPoint","synthetic_intensity":0.82,"unit":"normalized proxy","is_synthetic":true,"data_classification":"Synthetic master data","geometry_disclaimer":"Illustrative synthetic geometry; not a real airport layout, boundary, route, or operational location.","generator_version":"4.0.0","random_seed":42},"geometry":{"type":"Point","coordinates":[7.21317,43.657526]}},{"type":"Feature","id":"energy-syn-ap-nce-g2","properties":{"airport_id":"SYN-AP-NCE","terminal_id":"SYN-AP-NCE-T1","gate_id":"SYN-AP-NCE-G2","feature_type":"EnergyHeatPoint","synthetic_intensity":0.93,"unit":"normalized proxy","is_synthetic":true,"data_classification":"Synthetic master data","geometry_disclaimer":"Illustrative synthetic geometry; not a real airport layout, boundary, route, or operational location.","generator_version":"4.0.0","random_seed":42},"geometry":{"type":"Point","coordinates":[7.21317,43.657875999999995]}},{"type":"Feature","id":"energy-syn-ap-nce-g3","properties":{"airport_id":"SYN-AP-NCE","terminal_id":"SYN-AP-NCE-T1","gate_id":"SYN-AP-NCE-G3","feature_type":"EnergyHeatPoint","synthetic_intensity":0.64,"unit":"normalized proxy","is_synthetic":true,"data_classification":"Synthetic master data","geometry_disclaimer":"Illustrative synthetic geometry; not a real airport layout, boundary, route, or operational location.","generator_version":"4.0.0","random_seed":42},"geometry":{"type":"Point","coordinates":[7.21317,43.658226]}},{"type":"Feature","id":"energy-syn-ap-nce-g4","properties":{"airport_id":"SYN-AP-NCE","terminal_id":"SYN-AP-NCE-T2","gate_id":"SYN-AP-NCE-G4","feature_type":"EnergyHeatPoint","synthetic_intensity":0.75,"unit":"normalized proxy","is_synthetic":true,"data_classification":"Synthetic master data","geometry_disclaimer":"Illustrative synthetic geometry; not a real airport layout, boundary, route, or operational location.","generator_version":"4.0.0","random_seed":42},"geometry":{"type":"Point","coordinates":[7.21917,43.658576]}},{"type":"Feature","id":"energy-syn-ap-nce-g5","properties":{"airport_id":"SYN-AP-NCE","terminal_id":"SYN-AP-NCE-T2","gate_id":"SYN-AP-NCE-G5","feature_type":"EnergyHeatPoint","synthetic_intensity":0.86,"unit":"normalized proxy","is_synthetic":true,"data_classification":"Synthetic master data","geometry_disclaimer":"Illustrative synthetic geometry; not a real airport layout, boundary, route, or operational location.","generator_version":"4.0.0","random_seed":42},"geometry":{"type":"Point","coordinates":[7.21917,43.658926]}},{"type":"Feature","id":"energy-syn-ap-nce-g6","properties":{"airport_id":"SYN-AP-NCE","terminal_id":"SYN-AP-NCE-T2","gate_id":"SYN-AP-NCE-G6","feature_type":"EnergyHeatPoint","synthetic_intensity":0.57,"unit":"normalized proxy","is_synthetic":true,"data_classification":"Synthetic master data","geometry_disclaimer":"Illustrative synthetic geometry; not a real airport layout, boundary, route, or operational location.","generator_version":"4.0.0","random_seed":42},"geometry":{"type":"Point","coordinates":[7.21917,43.659276]}},{"type":"Feature","id":"energy-syn-ap-lys-g1","properties":{"airport_id":"SYN-AP-LYS","terminal_id":"SYN-AP-LYS-T1","gate_id":"SYN-AP-LYS-G1","feature_type":"EnergyHeatPoint","synthetic_intensity":0.89,"unit":"normalized proxy","is_synthetic":true,"data_classification":"Synthetic master data","geometry_disclaimer":"Illustrative synthetic geometry; not a real airport layout, boundary, route, or operational location.","generator_version":"4.0.0","random_seed":42},"geometry":{"type":"Point","coordinates":[5.087439,45.725121]}},{"type":"Feature","id":"energy-syn-ap-lys-g2","properties":{"airport_id":"SYN-AP-LYS","terminal_id":"SYN-AP-LYS-T1","gate_id":"SYN-AP-LYS-G2","feature_type":"EnergyHeatPoint","synthetic_intensity":0.6,"unit":"normalized proxy","is_synthetic":true,"data_classification":"Synthetic master data","geometry_disclaimer":"Illustrative synthetic geometry; not a real airport layout, boundary, route, or operational location.","generator_version":"4.0.0","random_seed":42},"geometry":{"type":"Point","coordinates":[5.087439,45.725471]}},{"type":"Feature","id":"energy-syn-ap-lys-g3","properties":{"airport_id":"SYN-AP-LYS","terminal_id":"SYN-AP-LYS-T1","gate_id":"SYN-AP-LYS-G3","feature_type":"EnergyHeatPoint","synthetic_intensity":0.71,"unit":"normalized proxy","is_synthetic":true,"data_classification":"Synthetic master data","geometry_disclaimer":"Illustrative synthetic geometry; not a real airport layout, boundary, route, or operational location.","generator_version":"4.0.0","random_seed":42},"geometry":{"type":"Point","coordinates":[5.087439,45.725821]}},{"type":"Feature","id":"energy-syn-ap-lys-g4","properties":{"airport_id":"SYN-AP-LYS","terminal_id":"SYN-AP-LYS-T2","gate_id":"SYN-AP-LYS-G4","feature_type":"EnergyHeatPoint","synthetic_intensity":0.82,"unit":"normalized proxy","is_synthetic":true,"data_classification":"Synthetic master data","geometry_disclaimer":"Illustrative synthetic geometry; not a real airport layout, boundary, route, or operational location.","generator_version":"4.0.0","random_seed":42},"geometry":{"type":"Point","coordinates":[5.093439,45.726171]}},{"type":"Feature","id":"energy-syn-ap-lys-g5","properties":{"airport_id":"SYN-AP-LYS","terminal_id":"SYN-AP-LYS-T2","gate_id":"SYN-AP-LYS-G5","feature_type":"EnergyHeatPoint","synthetic_intensity":0.93,"unit":"normalized proxy","is_synthetic":true,"data_classification":"Synthetic master data","geometry_disclaimer":"Illustrative synthetic geometry; not a real airport layout, boundary, route, or operational location.","generator_version":"4.0.0","random_seed":42},"geometry":{"type":"Point","coordinates":[5.093439,45.726521000000005]}},{"type":"Feature","id":"energy-syn-ap-lys-g6","properties":{"airport_id":"SYN-AP-LYS","terminal_id":"SYN-AP-LYS-T2","gate_id":"SYN-AP-LYS-G6","feature_type":"EnergyHeatPoint","synthetic_intensity":0.64,"unit":"normalized proxy","is_synthetic":true,"data_classification":"Synthetic master data","geometry_disclaimer":"Illustrative synthetic geometry; not a real airport layout, boundary, route, or operational location.","generator_version":"4.0.0","random_seed":42},"geometry":{"type":"Point","coordinates":[5.093439,45.726871]}},{"type":"Feature","id":"energy-syn-ap-mrs-g1","properties":{"airport_id":"SYN-AP-MRS","terminal_id":"SYN-AP-MRS-T1","gate_id":"SYN-AP-MRS-G1","feature_type":"EnergyHeatPoint","synthetic_intensity":0.56,"unit":"normalized proxy","is_synthetic":true,"data_classification":"Synthetic master data","geometry_disclaimer":"Illustrative synthetic geometry; not a real airport layout, boundary, route, or operational location.","generator_version":"4.0.0","random_seed":42},"geometry":{"type":"Point","coordinates":[5.2098,43.437213]}},{"type":"Feature","id":"energy-syn-ap-mrs-g2","properties":{"airport_id":"SYN-AP-MRS","terminal_id":"SYN-AP-MRS-T1","gate_id":"SYN-AP-MRS-G2","feature_type":"EnergyHeatPoint","synthetic_intensity":0.67,"unit":"normalized proxy","is_synthetic":true,"data_classification":"Synthetic master data","geometry_disclaimer":"Illustrative synthetic geometry; not a real airport layout, boundary, route, or operational location.","generator_version":"4.0.0","random_seed":42},"geometry":{"type":"Point","coordinates":[5.2098,43.437563]}},{"type":"Feature","id":"energy-syn-ap-mrs-g3","properties":{"airport_id":"SYN-AP-MRS","terminal_id":"SYN-AP-MRS-T1","gate_id":"SYN-AP-MRS-G3","feature_type":"EnergyHeatPoint","synthetic_intensity":0.78,"unit":"normalized proxy","is_synthetic":true,"data_classification":"Synthetic master data","geometry_disclaimer":"Illustrative synthetic geometry; not a real airport layout, boundary, route, or operational location.","generator_version":"4.0.0","random_seed":42},"geometry":{"type":"Point","coordinates":[5.2098,43.437913]}},{"type":"Feature","id":"energy-syn-ap-mrs-g4","properties":{"airport_id":"SYN-AP-MRS","terminal_id":"SYN-AP-MRS-T2","gate_id":"SYN-AP-MRS-G4","feature_type":"EnergyHeatPoint","synthetic_intensity":0.89,"unit":"normalized proxy","is_synthetic":true,"data_classification":"Synthetic master data","geometry_disclaimer":"Illustrative synthetic geometry; not a real airport layout, boundary, route, or operational location.","generator_version":"4.0.0","random_seed":42},"geometry":{"type":"Point","coordinates":[5.215800000000001,43.438263]}},{"type":"Feature","id":"energy-syn-ap-mrs-g5","properties":{"airport_id":"SYN-AP-MRS","terminal_id":"SYN-AP-MRS-T2","gate_id":"SYN-AP-MRS-G5","feature_type":"EnergyHeatPoint","synthetic_intensity":0.6,"unit":"normalized proxy","is_synthetic":true,"data_classification":"Synthetic master data","geometry_disclaimer":"Illustrative synthetic geometry; not a real airport layout, boundary, route, or operational location.","generator_version":"4.0.0","random_seed":42},"geometry":{"type":"Point","coordinates":[5.215800000000001,43.438613000000004]}},{"type":"Feature","id":"energy-syn-ap-mrs-g6","properties":{"airport_id":"SYN-AP-MRS","terminal_id":"SYN-AP-MRS-T2","gate_id":"SYN-AP-MRS-G6","feature_type":"EnergyHeatPoint","synthetic_intensity":0.71,"unit":"normalized proxy","is_synthetic":true,"data_classification":"Synthetic master data","geometry_disclaimer":"Illustrative synthetic geometry; not a real airport layout, boundary, route, or operational location.","generator_version":"4.0.0","random_seed":42},"geometry":{"type":"Point","coordinates":[5.215800000000001,43.438963]}},{"type":"Feature","id":"energy-syn-ap-tls-g1","properties":{"airport_id":"SYN-AP-TLS","terminal_id":"SYN-AP-TLS-T1","gate_id":"SYN-AP-TLS-G1","feature_type":"EnergyHeatPoint","synthetic_intensity":0.63,"unit":"normalized proxy","is_synthetic":true,"data_classification":"Synthetic master data","geometry_disclaimer":"Illustrative synthetic geometry; not a real airport layout, boundary, route, or operational location.","generator_version":"4.0.0","random_seed":42},"geometry":{"type":"Point","coordinates":[1.36112,43.628226]}},{"type":"Feature","id":"energy-syn-ap-tls-g2","properties":{"airport_id":"SYN-AP-TLS","terminal_id":"SYN-AP-TLS-T1","gate_id":"SYN-AP-TLS-G2","feature_type":"EnergyHeatPoint","synthetic_intensity":0.74,"unit":"normalized proxy","is_synthetic":true,"data_classification":"Synthetic master data","geometry_disclaimer":"Illustrative synthetic geometry; not a real airport layout, boundary, route, or operational location.","generator_version":"4.0.0","random_seed":42},"geometry":{"type":"Point","coordinates":[1.36112,43.628575999999995]}},{"type":"Feature","id":"energy-syn-ap-tls-g3","properties":{"airport_id":"SYN-AP-TLS","terminal_id":"SYN-AP-TLS-T1","gate_id":"SYN-AP-TLS-G3","feature_type":"EnergyHeatPoint","synthetic_intensity":0.85,"unit":"normalized proxy","is_synthetic":true,"data_classification":"Synthetic master data","geometry_disclaimer":"Illustrative synthetic geometry; not a real airport layout, boundary, route, or operational location.","generator_version":"4.0.0","random_seed":42},"geometry":{"type":"Point","coordinates":[1.36112,43.628926]}},{"type":"Feature","id":"energy-syn-ap-tls-g4","properties":{"airport_id":"SYN-AP-TLS","terminal_id":"SYN-AP-TLS-T2","gate_id":"SYN-AP-TLS-G4","feature_type":"EnergyHeatPoint","synthetic_intensity":0.56,"unit":"normalized proxy","is_synthetic":true,"data_classification":"Synthetic master data","geometry_disclaimer":"Illustrative synthetic geometry; not a real airport layout, boundary, route, or operational location.","generator_version":"4.0.0","random_seed":42},"geometry":{"type":"Point","coordinates":[1.36712,43.629276]}},{"type":"Feature","id":"energy-syn-ap-tls-g5","properties":{"airport_id":"SYN-AP-TLS","terminal_id":"SYN-AP-TLS-T2","gate_id":"SYN-AP-TLS-G5","feature_type":"EnergyHeatPoint","synthetic_intensity":0.67,"unit":"normalized proxy","is_synthetic":true,"data_classification":"Synthetic master data","geometry_disclaimer":"Illustrative synthetic geometry; not a real airport layout, boundary, route, or operational location.","generator_version":"4.0.0","random_seed":42},"geometry":{"type":"Point","coordinates":[1.36712,43.629626]}},{"type":"Feature","id":"energy-syn-ap-tls-g6","properties":{"airport_id":"SYN-AP-TLS","terminal_id":"SYN-AP-TLS-T2","gate_id":"SYN-AP-TLS-G6","feature_type":"EnergyHeatPoint","synthetic_intensity":0.78,"unit":"normalized proxy","is_synthetic":true,"data_classification":"Synthetic master data","geometry_disclaimer":"Illustrative synthetic geometry; not a real airport layout, boundary, route, or operational location.","generator_version":"4.0.0","random_seed":42},"geometry":{"type":"Point","coordinates":[1.36712,43.629976]}},{"type":"Feature","id":"energy-syn-ap-fco-g1","properties":{"airport_id":"SYN-AP-FCO","terminal_id":"SYN-AP-FCO-T1","gate_id":"SYN-AP-FCO-G1","feature_type":"EnergyHeatPoint","synthetic_intensity":0.7,"unit":"normalized proxy","is_synthetic":true,"data_classification":"Synthetic master data","geometry_disclaimer":"Illustrative synthetic geometry; not a real airport layout, boundary, route, or operational location.","generator_version":"4.0.0","random_seed":42},"geometry":{"type":"Point","coordinates":[12.249298,41.803657]}},{"type":"Feature","id":"energy-syn-ap-fco-g2","properties":{"airport_id":"SYN-AP-FCO","terminal_id":"SYN-AP-FCO-T1","gate_id":"SYN-AP-FCO-G2","feature_type":"EnergyHeatPoint","synthetic_intensity":0.81,"unit":"normalized proxy","is_synthetic":true,"data_classification":"Synthetic master data","geometry_disclaimer":"Illustrative synthetic geometry; not a real airport layout, boundary, route, or operational location.","generator_version":"4.0.0","random_seed":42},"geometry":{"type":"Point","coordinates":[12.249298,41.804007]}},{"type":"Feature","id":"energy-syn-ap-fco-g3","properties":{"airport_id":"SYN-AP-FCO","terminal_id":"SYN-AP-FCO-T1","gate_id":"SYN-AP-FCO-G3","feature_type":"EnergyHeatPoint","synthetic_intensity":0.92,"unit":"normalized proxy","is_synthetic":true,"data_classification":"Synthetic master data","geometry_disclaimer":"Illustrative synthetic geometry; not a real airport layout, boundary, route, or operational location.","generator_version":"4.0.0","random_seed":42},"geometry":{"type":"Point","coordinates":[12.249298,41.804357]}},{"type":"Feature","id":"energy-syn-ap-fco-g4","properties":{"airport_id":"SYN-AP-FCO","terminal_id":"SYN-AP-FCO-T2","gate_id":"SYN-AP-FCO-G4","feature_type":"EnergyHeatPoint","synthetic_intensity":0.63,"unit":"normalized proxy","is_synthetic":true,"data_classification":"Synthetic master data","geometry_disclaimer":"Illustrative synthetic geometry; not a real airport layout, boundary, route, or operational location.","generator_version":"4.0.0","random_seed":42},"geometry":{"type":"Point","coordinates":[12.255298,41.804707]}},{"type":"Feature","id":"energy-syn-ap-fco-g5","properties":{"airport_id":"SYN-AP-FCO","terminal_id":"SYN-AP-FCO-T2","gate_id":"SYN-AP-FCO-G5","feature_type":"EnergyHeatPoint","synthetic_intensity":0.74,"unit":"normalized proxy","is_synthetic":true,"data_classification":"Synthetic master data","geometry_disclaimer":"Illustrative synthetic geometry; not a real airport layout, boundary, route, or operational location.","generator_version":"4.0.0","random_seed":42},"geometry":{"type":"Point","coordinates":[12.255298,41.805057000000005]}},{"type":"Feature","id":"energy-syn-ap-fco-g6","properties":{"airport_id":"SYN-AP-FCO","terminal_id":"SYN-AP-FCO-T2","gate_id":"SYN-AP-FCO-G6","feature_type":"EnergyHeatPoint","synthetic_intensity":0.85,"unit":"normalized proxy","is_synthetic":true,"data_classification":"Synthetic master data","geometry_disclaimer":"Illustrative synthetic geometry; not a real airport layout, boundary, route, or operational location.","generator_version":"4.0.0","random_seed":42},"geometry":{"type":"Point","coordinates":[12.255298,41.805407]}},{"type":"Feature","id":"energy-syn-ap-mxp-g1","properties":{"airport_id":"SYN-AP-MXP","terminal_id":"SYN-AP-MXP-T1","gate_id":"SYN-AP-MXP-G1","feature_type":"EnergyHeatPoint","synthetic_intensity":0.77,"unit":"normalized proxy","is_synthetic":true,"data_classification":"Synthetic master data","geometry_disclaimer":"Illustrative synthetic geometry; not a real airport layout, boundary, route, or operational location.","generator_version":"4.0.0","random_seed":42},"geometry":{"type":"Point","coordinates":[8.725409999999998,45.629725]}},{"type":"Feature","id":"energy-syn-ap-mxp-g2","properties":{"airport_id":"SYN-AP-MXP","terminal_id":"SYN-AP-MXP-T1","gate_id":"SYN-AP-MXP-G2","feature_type":"EnergyHeatPoint","synthetic_intensity":0.88,"unit":"normalized proxy","is_synthetic":true,"data_classification":"Synthetic master data","geometry_disclaimer":"Illustrative synthetic geometry; not a real airport layout, boundary, route, or operational location.","generator_version":"4.0.0","random_seed":42},"geometry":{"type":"Point","coordinates":[8.725409999999998,45.630075]}},{"type":"Feature","id":"energy-syn-ap-mxp-g3","properties":{"airport_id":"SYN-AP-MXP","terminal_id":"SYN-AP-MXP-T1","gate_id":"SYN-AP-MXP-G3","feature_type":"EnergyHeatPoint","synthetic_intensity":0.59,"unit":"normalized proxy","is_synthetic":true,"data_classification":"Synthetic master data","geometry_disclaimer":"Illustrative synthetic geometry; not a real airport layout, boundary, route, or operational location.","generator_version":"4.0.0","random_seed":42},"geometry":{"type":"Point","coordinates":[8.725409999999998,45.630425]}},{"type":"Feature","id":"energy-syn-ap-mxp-g4","properties":{"airport_id":"SYN-AP-MXP","terminal_id":"SYN-AP-MXP-T2","gate_id":"SYN-AP-MXP-G4","feature_type":"EnergyHeatPoint","synthetic_intensity":0.7,"unit":"normalized proxy","is_synthetic":true,"data_classification":"Synthetic master data","geometry_disclaimer":"Illustrative synthetic geometry; not a real airport layout, boundary, route, or operational location.","generator_version":"4.0.0","random_seed":42},"geometry":{"type":"Point","coordinates":[8.731409999999999,45.630775]}},{"type":"Feature","id":"energy-syn-ap-mxp-g5","properties":{"airport_id":"SYN-AP-MXP","terminal_id":"SYN-AP-MXP-T2","gate_id":"SYN-AP-MXP-G5","feature_type":"EnergyHeatPoint","synthetic_intensity":0.81,"unit":"normalized proxy","is_synthetic":true,"data_classification":"Synthetic master data","geometry_disclaimer":"Illustrative synthetic geometry; not a real airport layout, boundary, route, or operational location.","generator_version":"4.0.0","random_seed":42},"geometry":{"type":"Point","coordinates":[8.731409999999999,45.631125000000004]}},{"type":"Feature","id":"energy-syn-ap-mxp-g6","properties":{"airport_id":"SYN-AP-MXP","terminal_id":"SYN-AP-MXP-T2","gate_id":"SYN-AP-MXP-G6","feature_type":"EnergyHeatPoint","synthetic_intensity":0.92,"unit":"normalized proxy","is_synthetic":true,"data_classification":"Synthetic master data","geometry_disclaimer":"Illustrative synthetic geometry; not a real airport layout, boundary, route, or operational location.","generator_version":"4.0.0","random_seed":42},"geometry":{"type":"Point","coordinates":[8.731409999999999,45.631475]}},{"type":"Feature","id":"energy-syn-ap-vce-g1","properties":{"airport_id":"SYN-AP-VCE","terminal_id":"SYN-AP-VCE-T1","gate_id":"SYN-AP-VCE-G1","feature_type":"EnergyHeatPoint","synthetic_intensity":0.84,"unit":"normalized proxy","is_synthetic":true,"data_classification":"Synthetic master data","geometry_disclaimer":"Illustrative synthetic geometry; not a real airport layout, boundary, route, or operational location.","generator_version":"4.0.0","random_seed":42},"geometry":{"type":"Point","coordinates":[12.3492,45.504424]}},{"type":"Feature","id":"energy-syn-ap-vce-g2","properties":{"airport_id":"SYN-AP-VCE","terminal_id":"SYN-AP-VCE-T1","gate_id":"SYN-AP-VCE-G2","feature_type":"EnergyHeatPoint","synthetic_intensity":0.55,"unit":"normalized proxy","is_synthetic":true,"data_classification":"Synthetic master data","geometry_disclaimer":"Illustrative synthetic geometry; not a real airport layout, boundary, route, or operational location.","generator_version":"4.0.0","random_seed":42},"geometry":{"type":"Point","coordinates":[12.3492,45.504774]}},{"type":"Feature","id":"energy-syn-ap-vce-g3","properties":{"airport_id":"SYN-AP-VCE","terminal_id":"SYN-AP-VCE-T1","gate_id":"SYN-AP-VCE-G3","feature_type":"EnergyHeatPoint","synthetic_intensity":0.66,"unit":"normalized proxy","is_synthetic":true,"data_classification":"Synthetic master data","geometry_disclaimer":"Illustrative synthetic geometry; not a real airport layout, boundary, route, or operational location.","generator_version":"4.0.0","random_seed":42},"geometry":{"type":"Point","coordinates":[12.3492,45.505124]}},{"type":"Feature","id":"energy-syn-ap-vce-g4","properties":{"airport_id":"SYN-AP-VCE","terminal_id":"SYN-AP-VCE-T2","gate_id":"SYN-AP-VCE-G4","feature_type":"EnergyHeatPoint","synthetic_intensity":0.77,"unit":"normalized proxy","is_synthetic":true,"data_classification":"Synthetic master data","geometry_disclaimer":"Illustrative synthetic geometry; not a real airport layout, boundary, route, or operational location.","generator_version":"4.0.0","random_seed":42},"geometry":{"type":"Point","coordinates":[12.3552,45.505474]}},{"type":"Feature","id":"energy-syn-ap-vce-g5","properties":{"airport_id":"SYN-AP-VCE","terminal_id":"SYN-AP-VCE-T2","gate_id":"SYN-AP-VCE-G5","feature_type":"EnergyHeatPoint","synthetic_intensity":0.88,"unit":"normalized proxy","is_synthetic":true,"data_classification":"Synthetic master data","geometry_disclaimer":"Illustrative synthetic geometry; not a real airport layout, boundary, route, or operational location.","generator_version":"4.0.0","random_seed":42},"geometry":{"type":"Point","coordinates":[12.3552,45.505824000000004]}},{"type":"Feature","id":"energy-syn-ap-vce-g6","properties":{"airport_id":"SYN-AP-VCE","terminal_id":"SYN-AP-VCE-T2","gate_id":"SYN-AP-VCE-G6","feature_type":"EnergyHeatPoint","synthetic_intensity":0.59,"unit":"normalized proxy","is_synthetic":true,"data_classification":"Synthetic master data","geometry_disclaimer":"Illustrative synthetic geometry; not a real airport layout, boundary, route, or operational location.","generator_version":"4.0.0","random_seed":42},"geometry":{"type":"Point","coordinates":[12.3552,45.506174]}},{"type":"Feature","id":"energy-syn-ap-nap-g1","properties":{"airport_id":"SYN-AP-NAP","terminal_id":"SYN-AP-NAP-T1","gate_id":"SYN-AP-NAP-G1","feature_type":"EnergyHeatPoint","synthetic_intensity":0.91,"unit":"normalized proxy","is_synthetic":true,"data_classification":"Synthetic master data","geometry_disclaimer":"Illustrative synthetic geometry; not a real airport layout, boundary, route, or operational location.","generator_version":"4.0.0","random_seed":42},"geometry":{"type":"Point","coordinates":[14.2881,40.885127]}},{"type":"Feature","id":"energy-syn-ap-nap-g2","properties":{"airport_id":"SYN-AP-NAP","terminal_id":"SYN-AP-NAP-T1","gate_id":"SYN-AP-NAP-G2","feature_type":"EnergyHeatPoint","synthetic_intensity":0.62,"unit":"normalized proxy","is_synthetic":true,"data_classification":"Synthetic master data","geometry_disclaimer":"Illustrative synthetic geometry; not a real airport layout, boundary, route, or operational location.","generator_version":"4.0.0","random_seed":42},"geometry":{"type":"Point","coordinates":[14.2881,40.885476999999995]}},{"type":"Feature","id":"energy-syn-ap-nap-g3","properties":{"airport_id":"SYN-AP-NAP","terminal_id":"SYN-AP-NAP-T1","gate_id":"SYN-AP-NAP-G3","feature_type":"EnergyHeatPoint","synthetic_intensity":0.73,"unit":"normalized proxy","is_synthetic":true,"data_classification":"Synthetic master data","geometry_disclaimer":"Illustrative synthetic geometry; not a real airport layout, boundary, route, or operational location.","generator_version":"4.0.0","random_seed":42},"geometry":{"type":"Point","coordinates":[14.2881,40.885827]}},{"type":"Feature","id":"energy-syn-ap-nap-g4","properties":{"airport_id":"SYN-AP-NAP","terminal_id":"SYN-AP-NAP-T2","gate_id":"SYN-AP-NAP-G4","feature_type":"EnergyHeatPoint","synthetic_intensity":0.84,"unit":"normalized proxy","is_synthetic":true,"data_classification":"Synthetic master data","geometry_disclaimer":"Illustrative synthetic geometry; not a real airport layout, boundary, route, or operational location.","generator_version":"4.0.0","random_seed":42},"geometry":{"type":"Point","coordinates":[14.2941,40.886176999999996]}},{"type":"Feature","id":"energy-syn-ap-nap-g5","properties":{"airport_id":"SYN-AP-NAP","terminal_id":"SYN-AP-NAP-T2","gate_id":"SYN-AP-NAP-G5","feature_type":"EnergyHeatPoint","synthetic_intensity":0.55,"unit":"normalized proxy","is_synthetic":true,"data_classification":"Synthetic master data","geometry_disclaimer":"Illustrative synthetic geometry; not a real airport layout, boundary, route, or operational location.","generator_version":"4.0.0","random_seed":42},"geometry":{"type":"Point","coordinates":[14.2941,40.886527]}},{"type":"Feature","id":"energy-syn-ap-nap-g6","properties":{"airport_id":"SYN-AP-NAP","terminal_id":"SYN-AP-NAP-T2","gate_id":"SYN-AP-NAP-G6","feature_type":"EnergyHeatPoint","synthetic_intensity":0.66,"unit":"normalized proxy","is_synthetic":true,"data_classification":"Synthetic master data","geometry_disclaimer":"Illustrative synthetic geometry; not a real airport layout, boundary, route, or operational location.","generator_version":"4.0.0","random_seed":42},"geometry":{"type":"Point","coordinates":[14.2941,40.886877]}},{"type":"Feature","id":"energy-syn-ap-blq-g1","properties":{"airport_id":"SYN-AP-BLQ","terminal_id":"SYN-AP-BLQ-T1","gate_id":"SYN-AP-BLQ-G1","feature_type":"EnergyHeatPoint","synthetic_intensity":0.58,"unit":"normalized proxy","is_synthetic":true,"data_classification":"Synthetic master data","geometry_disclaimer":"Illustrative synthetic geometry; not a real airport layout, boundary, route, or operational location.","generator_version":"4.0.0","random_seed":42},"geometry":{"type":"Point","coordinates":[11.286,44.534525]}},{"type":"Feature","id":"energy-syn-ap-blq-g2","properties":{"airport_id":"SYN-AP-BLQ","terminal_id":"SYN-AP-BLQ-T1","gate_id":"SYN-AP-BLQ-G2","feature_type":"EnergyHeatPoint","synthetic_intensity":0.69,"unit":"normalized proxy","is_synthetic":true,"data_classification":"Synthetic master data","geometry_disclaimer":"Illustrative synthetic geometry; not a real airport layout, boundary, route, or operational location.","generator_version":"4.0.0","random_seed":42},"geometry":{"type":"Point","coordinates":[11.286,44.534875]}},{"type":"Feature","id":"energy-syn-ap-blq-g3","properties":{"airport_id":"SYN-AP-BLQ","terminal_id":"SYN-AP-BLQ-T1","gate_id":"SYN-AP-BLQ-G3","feature_type":"EnergyHeatPoint","synthetic_intensity":0.8,"unit":"normalized proxy","is_synthetic":true,"data_classification":"Synthetic master data","geometry_disclaimer":"Illustrative synthetic geometry; not a real airport layout, boundary, route, or operational location.","generator_version":"4.0.0","random_seed":42},"geometry":{"type":"Point","coordinates":[11.286,44.535225000000004]}},{"type":"Feature","id":"energy-syn-ap-blq-g4","properties":{"airport_id":"SYN-AP-BLQ","terminal_id":"SYN-AP-BLQ-T2","gate_id":"SYN-AP-BLQ-G4","feature_type":"EnergyHeatPoint","synthetic_intensity":0.91,"unit":"normalized proxy","is_synthetic":true,"data_classification":"Synthetic master data","geometry_disclaimer":"Illustrative synthetic geometry; not a real airport layout, boundary, route, or operational location.","generator_version":"4.0.0","random_seed":42},"geometry":{"type":"Point","coordinates":[11.292,44.535575]}},{"type":"Feature","id":"energy-syn-ap-blq-g5","properties":{"airport_id":"SYN-AP-BLQ","terminal_id":"SYN-AP-BLQ-T2","gate_id":"SYN-AP-BLQ-G5","feature_type":"EnergyHeatPoint","synthetic_intensity":0.62,"unit":"normalized proxy","is_synthetic":true,"data_classification":"Synthetic master data","geometry_disclaimer":"Illustrative synthetic geometry; not a real airport layout, boundary, route, or operational location.","generator_version":"4.0.0","random_seed":42},"geometry":{"type":"Point","coordinates":[11.292,44.535925000000006]}},{"type":"Feature","id":"energy-syn-ap-blq-g6","properties":{"airport_id":"SYN-AP-BLQ","terminal_id":"SYN-AP-BLQ-T2","gate_id":"SYN-AP-BLQ-G6","feature_type":"EnergyHeatPoint","synthetic_intensity":0.73,"unit":"normalized proxy","is_synthetic":true,"data_classification":"Synthetic master data","geometry_disclaimer":"Illustrative synthetic geometry; not a real airport layout, boundary, route, or operational location.","generator_version":"4.0.0","random_seed":42},"geometry":{"type":"Point","coordinates":[11.292,44.536275]}},{"type":"Feature","id":"energy-syn-ap-lis-g1","properties":{"airport_id":"SYN-AP-LIS","terminal_id":"SYN-AP-LIS-T1","gate_id":"SYN-AP-LIS-G1","feature_type":"EnergyHeatPoint","synthetic_intensity":0.65,"unit":"normalized proxy","is_synthetic":true,"data_classification":"Synthetic master data","geometry_disclaimer":"Illustrative synthetic geometry; not a real airport layout, boundary, route, or operational location.","generator_version":"4.0.0","random_seed":42},"geometry":{"type":"Point","coordinates":[-9.138620000000001,38.780425]}},{"type":"Feature","id":"energy-syn-ap-lis-g2","properties":{"airport_id":"SYN-AP-LIS","terminal_id":"SYN-AP-LIS-T1","gate_id":"SYN-AP-LIS-G2","feature_type":"EnergyHeatPoint","synthetic_intensity":0.76,"unit":"normalized proxy","is_synthetic":true,"data_classification":"Synthetic master data","geometry_disclaimer":"Illustrative synthetic geometry; not a real airport layout, boundary, route, or operational location.","generator_version":"4.0.0","random_seed":42},"geometry":{"type":"Point","coordinates":[-9.138620000000001,38.780775]}},{"type":"Feature","id":"energy-syn-ap-lis-g3","properties":{"airport_id":"SYN-AP-LIS","terminal_id":"SYN-AP-LIS-T1","gate_id":"SYN-AP-LIS-G3","feature_type":"EnergyHeatPoint","synthetic_intensity":0.87,"unit":"normalized proxy","is_synthetic":true,"data_classification":"Synthetic master data","geometry_disclaimer":"Illustrative synthetic geometry; not a real airport layout, boundary, route, or operational location.","generator_version":"4.0.0","random_seed":42},"geometry":{"type":"Point","coordinates":[-9.138620000000001,38.781125]}},{"type":"Feature","id":"energy-syn-ap-lis-g4","properties":{"airport_id":"SYN-AP-LIS","terminal_id":"SYN-AP-LIS-T2","gate_id":"SYN-AP-LIS-G4","feature_type":"EnergyHeatPoint","synthetic_intensity":0.58,"unit":"normalized proxy","is_synthetic":true,"data_classification":"Synthetic master data","geometry_disclaimer":"Illustrative synthetic geometry; not a real airport layout, boundary, route, or operational location.","generator_version":"4.0.0","random_seed":42},"geometry":{"type":"Point","coordinates":[-9.132620000000001,38.781475]}},{"type":"Feature","id":"energy-syn-ap-lis-g5","properties":{"airport_id":"SYN-AP-LIS","terminal_id":"SYN-AP-LIS-T2","gate_id":"SYN-AP-LIS-G5","feature_type":"EnergyHeatPoint","synthetic_intensity":0.69,"unit":"normalized proxy","is_synthetic":true,"data_classification":"Synthetic master data","geometry_disclaimer":"Illustrative synthetic geometry; not a real airport layout, boundary, route, or operational location.","generator_version":"4.0.0","random_seed":42},"geometry":{"type":"Point","coordinates":[-9.132620000000001,38.781825000000005]}},{"type":"Feature","id":"energy-syn-ap-lis-g6","properties":{"airport_id":"SYN-AP-LIS","terminal_id":"SYN-AP-LIS-T2","gate_id":"SYN-AP-LIS-G6","feature_type":"EnergyHeatPoint","synthetic_intensity":0.8,"unit":"normalized proxy","is_synthetic":true,"data_classification":"Synthetic master data","geometry_disclaimer":"Illustrative synthetic geometry; not a real airport layout, boundary, route, or operational location.","generator_version":"4.0.0","random_seed":42},"geometry":{"type":"Point","coordinates":[-9.132620000000001,38.782175]}},{"type":"Feature","id":"energy-syn-ap-opo-g1","properties":{"airport_id":"SYN-AP-OPO","terminal_id":"SYN-AP-OPO-T1","gate_id":"SYN-AP-OPO-G1","feature_type":"EnergyHeatPoint","synthetic_intensity":0.72,"unit":"normalized proxy","is_synthetic":true,"data_classification":"Synthetic master data","geometry_disclaimer":"Illustrative synthetic geometry; not a real airport layout, boundary, route, or operational location.","generator_version":"4.0.0","random_seed":42},"geometry":{"type":"Point","coordinates":[-8.68408980865,41.2472252808]}},{"type":"Feature","id":"energy-syn-ap-opo-g2","properties":{"airport_id":"SYN-AP-OPO","terminal_id":"SYN-AP-OPO-T1","gate_id":"SYN-AP-OPO-G2","feature_type":"EnergyHeatPoint","synthetic_intensity":0.83,"unit":"normalized proxy","is_synthetic":true,"data_classification":"Synthetic master data","geometry_disclaimer":"Illustrative synthetic geometry; not a real airport layout, boundary, route, or operational location.","generator_version":"4.0.0","random_seed":42},"geometry":{"type":"Point","coordinates":[-8.68408980865,41.2475752808]}},{"type":"Feature","id":"energy-syn-ap-opo-g3","properties":{"airport_id":"SYN-AP-OPO","terminal_id":"SYN-AP-OPO-T1","gate_id":"SYN-AP-OPO-G3","feature_type":"EnergyHeatPoint","synthetic_intensity":0.94,"unit":"normalized proxy","is_synthetic":true,"data_classification":"Synthetic master data","geometry_disclaimer":"Illustrative synthetic geometry; not a real airport layout, boundary, route, or operational location.","generator_version":"4.0.0","random_seed":42},"geometry":{"type":"Point","coordinates":[-8.68408980865,41.247925280800004]}},{"type":"Feature","id":"energy-syn-ap-opo-g4","properties":{"airport_id":"SYN-AP-OPO","terminal_id":"SYN-AP-OPO-T2","gate_id":"SYN-AP-OPO-G4","feature_type":"EnergyHeatPoint","synthetic_intensity":0.65,"unit":"normalized proxy","is_synthetic":true,"data_classification":"Synthetic master data","geometry_disclaimer":"Illustrative synthetic geometry; not a real airport layout, boundary, route, or operational location.","generator_version":"4.0.0","random_seed":42},"geometry":{"type":"Point","coordinates":[-8.67808980865,41.2482752808]}},{"type":"Feature","id":"energy-syn-ap-opo-g5","properties":{"airport_id":"SYN-AP-OPO","terminal_id":"SYN-AP-OPO-T2","gate_id":"SYN-AP-OPO-G5","feature_type":"EnergyHeatPoint","synthetic_intensity":0.76,"unit":"normalized proxy","is_synthetic":true,"data_classification":"Synthetic master data","geometry_disclaimer":"Illustrative synthetic geometry; not a real airport layout, boundary, route, or operational location.","generator_version":"4.0.0","random_seed":42},"geometry":{"type":"Point","coordinates":[-8.67808980865,41.248625280800006]}},{"type":"Feature","id":"energy-syn-ap-opo-g6","properties":{"airport_id":"SYN-AP-OPO","terminal_id":"SYN-AP-OPO-T2","gate_id":"SYN-AP-OPO-G6","feature_type":"EnergyHeatPoint","synthetic_intensity":0.87,"unit":"normalized proxy","is_synthetic":true,"data_classification":"Synthetic master data","geometry_disclaimer":"Illustrative synthetic geometry; not a real airport layout, boundary, route, or operational location.","generator_version":"4.0.0","random_seed":42},"geometry":{"type":"Point","coordinates":[-8.67808980865,41.2489752808]}},{"type":"Feature","id":"energy-syn-ap-fao-g1","properties":{"airport_id":"SYN-AP-FAO","terminal_id":"SYN-AP-FAO-T1","gate_id":"SYN-AP-FAO-G1","feature_type":"EnergyHeatPoint","synthetic_intensity":0.79,"unit":"normalized proxy","is_synthetic":true,"data_classification":"Synthetic master data","geometry_disclaimer":"Illustrative synthetic geometry; not a real airport layout, boundary, route, or operational location.","generator_version":"4.0.0","random_seed":42},"geometry":{"type":"Point","coordinates":[-7.973639,37.015034]}},{"type":"Feature","id":"energy-syn-ap-fao-g2","properties":{"airport_id":"SYN-AP-FAO","terminal_id":"SYN-AP-FAO-T1","gate_id":"SYN-AP-FAO-G2","feature_type":"EnergyHeatPoint","synthetic_intensity":0.9,"unit":"normalized proxy","is_synthetic":true,"data_classification":"Synthetic master data","geometry_disclaimer":"Illustrative synthetic geometry; not a real airport layout, boundary, route, or operational location.","generator_version":"4.0.0","random_seed":42},"geometry":{"type":"Point","coordinates":[-7.973639,37.015384]}},{"type":"Feature","id":"energy-syn-ap-fao-g3","properties":{"airport_id":"SYN-AP-FAO","terminal_id":"SYN-AP-FAO-T1","gate_id":"SYN-AP-FAO-G3","feature_type":"EnergyHeatPoint","synthetic_intensity":0.61,"unit":"normalized proxy","is_synthetic":true,"data_classification":"Synthetic master data","geometry_disclaimer":"Illustrative synthetic geometry; not a real airport layout, boundary, route, or operational location.","generator_version":"4.0.0","random_seed":42},"geometry":{"type":"Point","coordinates":[-7.973639,37.015734]}},{"type":"Feature","id":"energy-syn-ap-fao-g4","properties":{"airport_id":"SYN-AP-FAO","terminal_id":"SYN-AP-FAO-T2","gate_id":"SYN-AP-FAO-G4","feature_type":"EnergyHeatPoint","synthetic_intensity":0.72,"unit":"normalized proxy","is_synthetic":true,"data_classification":"Synthetic master data","geometry_disclaimer":"Illustrative synthetic geometry; not a real airport layout, boundary, route, or operational location.","generator_version":"4.0.0","random_seed":42},"geometry":{"type":"Point","coordinates":[-7.967639,37.016084]}},{"type":"Feature","id":"energy-syn-ap-fao-g5","properties":{"airport_id":"SYN-AP-FAO","terminal_id":"SYN-AP-FAO-T2","gate_id":"SYN-AP-FAO-G5","feature_type":"EnergyHeatPoint","synthetic_intensity":0.83,"unit":"normalized proxy","is_synthetic":true,"data_classification":"Synthetic master data","geometry_disclaimer":"Illustrative synthetic geometry; not a real airport layout, boundary, route, or operational location.","generator_version":"4.0.0","random_seed":42},"geometry":{"type":"Point","coordinates":[-7.967639,37.016434000000004]}},{"type":"Feature","id":"energy-syn-ap-fao-g6","properties":{"airport_id":"SYN-AP-FAO","terminal_id":"SYN-AP-FAO-T2","gate_id":"SYN-AP-FAO-G6","feature_type":"EnergyHeatPoint","synthetic_intensity":0.94,"unit":"normalized proxy","is_synthetic":true,"data_classification":"Synthetic master data","geometry_disclaimer":"Illustrative synthetic geometry; not a real airport layout, boundary, route, or operational location.","generator_version":"4.0.0","random_seed":42},"geometry":{"type":"Point","coordinates":[-7.967639,37.016784]}},{"type":"Feature","id":"energy-syn-ap-fnc-g1","properties":{"airport_id":"SYN-AP-FNC","terminal_id":"SYN-AP-FNC-T1","gate_id":"SYN-AP-FNC-G1","feature_type":"EnergyHeatPoint","synthetic_intensity":0.86,"unit":"normalized proxy","is_synthetic":true,"data_classification":"Synthetic master data","geometry_disclaimer":"Illustrative synthetic geometry; not a real airport layout, boundary, route, or operational location.","generator_version":"4.0.0","random_seed":42},"geometry":{"type":"Point","coordinates":[-16.777313,32.696937]}},{"type":"Feature","id":"energy-syn-ap-fnc-g2","properties":{"airport_id":"SYN-AP-FNC","terminal_id":"SYN-AP-FNC-T1","gate_id":"SYN-AP-FNC-G2","feature_type":"EnergyHeatPoint","synthetic_intensity":0.57,"unit":"normalized proxy","is_synthetic":true,"data_classification":"Synthetic master data","geometry_disclaimer":"Illustrative synthetic geometry; not a real airport layout, boundary, route, or operational location.","generator_version":"4.0.0","random_seed":42},"geometry":{"type":"Point","coordinates":[-16.777313,32.697286999999996]}},{"type":"Feature","id":"energy-syn-ap-fnc-g3","properties":{"airport_id":"SYN-AP-FNC","terminal_id":"SYN-AP-FNC-T1","gate_id":"SYN-AP-FNC-G3","feature_type":"EnergyHeatPoint","synthetic_intensity":0.68,"unit":"normalized proxy","is_synthetic":true,"data_classification":"Synthetic master data","geometry_disclaimer":"Illustrative synthetic geometry; not a real airport layout, boundary, route, or operational location.","generator_version":"4.0.0","random_seed":42},"geometry":{"type":"Point","coordinates":[-16.777313,32.697637]}},{"type":"Feature","id":"energy-syn-ap-fnc-g4","properties":{"airport_id":"SYN-AP-FNC","terminal_id":"SYN-AP-FNC-T2","gate_id":"SYN-AP-FNC-G4","feature_type":"EnergyHeatPoint","synthetic_intensity":0.79,"unit":"normalized proxy","is_synthetic":true,"data_classification":"Synthetic master data","geometry_disclaimer":"Illustrative synthetic geometry; not a real airport layout, boundary, route, or operational location.","generator_version":"4.0.0","random_seed":42},"geometry":{"type":"Point","coordinates":[-16.771313,32.697987]}},{"type":"Feature","id":"energy-syn-ap-fnc-g5","properties":{"airport_id":"SYN-AP-FNC","terminal_id":"SYN-AP-FNC-T2","gate_id":"SYN-AP-FNC-G5","feature_type":"EnergyHeatPoint","synthetic_intensity":0.9,"unit":"normalized proxy","is_synthetic":true,"data_classification":"Synthetic master data","geometry_disclaimer":"Illustrative synthetic geometry; not a real airport layout, boundary, route, or operational location.","generator_version":"4.0.0","random_seed":42},"geometry":{"type":"Point","coordinates":[-16.771313,32.698337]}},{"type":"Feature","id":"energy-syn-ap-fnc-g6","properties":{"airport_id":"SYN-AP-FNC","terminal_id":"SYN-AP-FNC-T2","gate_id":"SYN-AP-FNC-G6","feature_type":"EnergyHeatPoint","synthetic_intensity":0.61,"unit":"normalized proxy","is_synthetic":true,"data_classification":"Synthetic master data","geometry_disclaimer":"Illustrative synthetic geometry; not a real airport layout, boundary, route, or operational location.","generator_version":"4.0.0","random_seed":42},"geometry":{"type":"Point","coordinates":[-16.771313,32.698687]}},{"type":"Feature","id":"energy-syn-ap-pdl-g1","properties":{"airport_id":"SYN-AP-PDL","terminal_id":"SYN-AP-PDL-T1","gate_id":"SYN-AP-PDL-G1","feature_type":"EnergyHeatPoint","synthetic_intensity":0.93,"unit":"normalized proxy","is_synthetic":true,"data_classification":"Synthetic master data","geometry_disclaimer":"Illustrative synthetic geometry; not a real airport layout, boundary, route, or operational location.","generator_version":"4.0.0","random_seed":42},"geometry":{"type":"Point","coordinates":[-25.7006007721,37.7403244934]}},{"type":"Feature","id":"energy-syn-ap-pdl-g2","properties":{"airport_id":"SYN-AP-PDL","terminal_id":"SYN-AP-PDL-T1","gate_id":"SYN-AP-PDL-G2","feature_type":"EnergyHeatPoint","synthetic_intensity":0.64,"unit":"normalized proxy","is_synthetic":true,"data_classification":"Synthetic master data","geometry_disclaimer":"Illustrative synthetic geometry; not a real airport layout, boundary, route, or operational location.","generator_version":"4.0.0","random_seed":42},"geometry":{"type":"Point","coordinates":[-25.7006007721,37.7406744934]}},{"type":"Feature","id":"energy-syn-ap-pdl-g3","properties":{"airport_id":"SYN-AP-PDL","terminal_id":"SYN-AP-PDL-T1","gate_id":"SYN-AP-PDL-G3","feature_type":"EnergyHeatPoint","synthetic_intensity":0.75,"unit":"normalized proxy","is_synthetic":true,"data_classification":"Synthetic master data","geometry_disclaimer":"Illustrative synthetic geometry; not a real airport layout, boundary, route, or operational location.","generator_version":"4.0.0","random_seed":42},"geometry":{"type":"Point","coordinates":[-25.7006007721,37.741024493400005]}},{"type":"Feature","id":"energy-syn-ap-pdl-g4","properties":{"airport_id":"SYN-AP-PDL","terminal_id":"SYN-AP-PDL-T2","gate_id":"SYN-AP-PDL-G4","feature_type":"EnergyHeatPoint","synthetic_intensity":0.86,"unit":"normalized proxy","is_synthetic":true,"data_classification":"Synthetic master data","geometry_disclaimer":"Illustrative synthetic geometry; not a real airport layout, boundary, route, or operational location.","generator_version":"4.0.0","random_seed":42},"geometry":{"type":"Point","coordinates":[-25.6946007721,37.7413744934]}},{"type":"Feature","id":"energy-syn-ap-pdl-g5","properties":{"airport_id":"SYN-AP-PDL","terminal_id":"SYN-AP-PDL-T2","gate_id":"SYN-AP-PDL-G5","feature_type":"EnergyHeatPoint","synthetic_intensity":0.57,"unit":"normalized proxy","is_synthetic":true,"data_classification":"Synthetic master data","geometry_disclaimer":"Illustrative synthetic geometry; not a real airport layout, boundary, route, or operational location.","generator_version":"4.0.0","random_seed":42},"geometry":{"type":"Point","coordinates":[-25.6946007721,37.74172449340001]}},{"type":"Feature","id":"energy-syn-ap-pdl-g6","properties":{"airport_id":"SYN-AP-PDL","terminal_id":"SYN-AP-PDL-T2","gate_id":"SYN-AP-PDL-G6","feature_type":"EnergyHeatPoint","synthetic_intensity":0.68,"unit":"normalized proxy","is_synthetic":true,"data_classification":"Synthetic master data","geometry_disclaimer":"Illustrative synthetic geometry; not a real airport layout, boundary, route, or operational location.","generator_version":"4.0.0","random_seed":42},"geometry":{"type":"Point","coordinates":[-25.6946007721,37.742074493400004]}},{"type":"Feature","id":"energy-syn-ap-amm-g1","properties":{"airport_id":"SYN-AP-AMM","terminal_id":"SYN-AP-AMM-T1","gate_id":"SYN-AP-AMM-G1","feature_type":"EnergyHeatPoint","synthetic_intensity":0.6,"unit":"normalized proxy","is_synthetic":true,"data_classification":"Synthetic master data","geometry_disclaimer":"Illustrative synthetic geometry; not a real airport layout, boundary, route, or operational location.","generator_version":"4.0.0","random_seed":42},"geometry":{"type":"Point","coordinates":[35.9904983948,31.7217259369]}},{"type":"Feature","id":"energy-syn-ap-amm-g2","properties":{"airport_id":"SYN-AP-AMM","terminal_id":"SYN-AP-AMM-T1","gate_id":"SYN-AP-AMM-G2","feature_type":"EnergyHeatPoint","synthetic_intensity":0.71,"unit":"normalized proxy","is_synthetic":true,"data_classification":"Synthetic master data","geometry_disclaimer":"Illustrative synthetic geometry; not a real airport layout, boundary, route, or operational location.","generator_version":"4.0.0","random_seed":42},"geometry":{"type":"Point","coordinates":[35.9904983948,31.7220759369]}},{"type":"Feature","id":"energy-syn-ap-amm-g3","properties":{"airport_id":"SYN-AP-AMM","terminal_id":"SYN-AP-AMM-T1","gate_id":"SYN-AP-AMM-G3","feature_type":"EnergyHeatPoint","synthetic_intensity":0.82,"unit":"normalized proxy","is_synthetic":true,"data_classification":"Synthetic master data","geometry_disclaimer":"Illustrative synthetic geometry; not a real airport layout, boundary, route, or operational location.","generator_version":"4.0.0","random_seed":42},"geometry":{"type":"Point","coordinates":[35.9904983948,31.722425936900002]}},{"type":"Feature","id":"energy-syn-ap-amm-g4","properties":{"airport_id":"SYN-AP-AMM","terminal_id":"SYN-AP-AMM-T2","gate_id":"SYN-AP-AMM-G4","feature_type":"EnergyHeatPoint","synthetic_intensity":0.93,"unit":"normalized proxy","is_synthetic":true,"data_classification":"Synthetic master data","geometry_disclaimer":"Illustrative synthetic geometry; not a real airport layout, boundary, route, or operational location.","generator_version":"4.0.0","random_seed":42},"geometry":{"type":"Point","coordinates":[35.9964983948,31.7227759369]}},{"type":"Feature","id":"energy-syn-ap-amm-g5","properties":{"airport_id":"SYN-AP-AMM","terminal_id":"SYN-AP-AMM-T2","gate_id":"SYN-AP-AMM-G5","feature_type":"EnergyHeatPoint","synthetic_intensity":0.64,"unit":"normalized proxy","is_synthetic":true,"data_classification":"Synthetic master data","geometry_disclaimer":"Illustrative synthetic geometry; not a real airport layout, boundary, route, or operational location.","generator_version":"4.0.0","random_seed":42},"geometry":{"type":"Point","coordinates":[35.9964983948,31.7231259369]}},{"type":"Feature","id":"energy-syn-ap-amm-g6","properties":{"airport_id":"SYN-AP-AMM","terminal_id":"SYN-AP-AMM-T2","gate_id":"SYN-AP-AMM-G6","feature_type":"EnergyHeatPoint","synthetic_intensity":0.75,"unit":"normalized proxy","is_synthetic":true,"data_classification":"Synthetic master data","geometry_disclaimer":"Illustrative synthetic geometry; not a real airport layout, boundary, route, or operational location.","generator_version":"4.0.0","random_seed":42},"geometry":{"type":"Point","coordinates":[35.9964983948,31.7234759369]}},{"type":"Feature","id":"energy-syn-ap-aqj-g1","properties":{"airport_id":"SYN-AP-AQJ","terminal_id":"SYN-AP-AQJ-T1","gate_id":"SYN-AP-AQJ-G1","feature_type":"EnergyHeatPoint","synthetic_intensity":0.67,"unit":"normalized proxy","is_synthetic":true,"data_classification":"Synthetic master data","geometry_disclaimer":"Illustrative synthetic geometry; not a real airport layout, boundary, route, or operational location.","generator_version":"4.0.0","random_seed":42},"geometry":{"type":"Point","coordinates":[35.015401000000004,29.610726]}},{"type":"Feature","id":"energy-syn-ap-aqj-g2","properties":{"airport_id":"SYN-AP-AQJ","terminal_id":"SYN-AP-AQJ-T1","gate_id":"SYN-AP-AQJ-G2","feature_type":"EnergyHeatPoint","synthetic_intensity":0.78,"unit":"normalized proxy","is_synthetic":true,"data_classification":"Synthetic master data","geometry_disclaimer":"Illustrative synthetic geometry; not a real airport layout, boundary, route, or operational location.","generator_version":"4.0.0","random_seed":42},"geometry":{"type":"Point","coordinates":[35.015401000000004,29.611076]}},{"type":"Feature","id":"energy-syn-ap-aqj-g3","properties":{"airport_id":"SYN-AP-AQJ","terminal_id":"SYN-AP-AQJ-T1","gate_id":"SYN-AP-AQJ-G3","feature_type":"EnergyHeatPoint","synthetic_intensity":0.89,"unit":"normalized proxy","is_synthetic":true,"data_classification":"Synthetic master data","geometry_disclaimer":"Illustrative synthetic geometry; not a real airport layout, boundary, route, or operational location.","generator_version":"4.0.0","random_seed":42},"geometry":{"type":"Point","coordinates":[35.015401000000004,29.611426]}},{"type":"Feature","id":"energy-syn-ap-aqj-g4","properties":{"airport_id":"SYN-AP-AQJ","terminal_id":"SYN-AP-AQJ-T2","gate_id":"SYN-AP-AQJ-G4","feature_type":"EnergyHeatPoint","synthetic_intensity":0.6,"unit":"normalized proxy","is_synthetic":true,"data_classification":"Synthetic master data","geometry_disclaimer":"Illustrative synthetic geometry; not a real airport layout, boundary, route, or operational location.","generator_version":"4.0.0","random_seed":42},"geometry":{"type":"Point","coordinates":[35.021401000000004,29.611776]}},{"type":"Feature","id":"energy-syn-ap-aqj-g5","properties":{"airport_id":"SYN-AP-AQJ","terminal_id":"SYN-AP-AQJ-T2","gate_id":"SYN-AP-AQJ-G5","feature_type":"EnergyHeatPoint","synthetic_intensity":0.71,"unit":"normalized proxy","is_synthetic":true,"data_classification":"Synthetic master data","geometry_disclaimer":"Illustrative synthetic geometry; not a real airport layout, boundary, route, or operational location.","generator_version":"4.0.0","random_seed":42},"geometry":{"type":"Point","coordinates":[35.021401000000004,29.612126]}},{"type":"Feature","id":"energy-syn-ap-aqj-g6","properties":{"airport_id":"SYN-AP-AQJ","terminal_id":"SYN-AP-AQJ-T2","gate_id":"SYN-AP-AQJ-G6","feature_type":"EnergyHeatPoint","synthetic_intensity":0.82,"unit":"normalized proxy","is_synthetic":true,"data_classification":"Synthetic master data","geometry_disclaimer":"Illustrative synthetic geometry; not a real airport layout, boundary, route, or operational location.","generator_version":"4.0.0","random_seed":42},"geometry":{"type":"Point","coordinates":[35.021401000000004,29.612476]}}]}
