{"type":"FeatureCollection","name":"gates","features":[{"type":"Feature","id":"gate-syn-ap-cdg-g1","properties":{"airport_id":"SYN-AP-CDG","terminal_id":"SYN-AP-CDG-T1","gate_id":"SYN-AP-CDG-G1","stand_id":"SYN-AP-CDG-S1","feature_type":"Gate","is_synthetic":true,"data_classification":"Synthetic master data","geometry_disclaimer":"Illustrative synthetic geometry; not a real airport layout, boundary, route, or operational location.","generator_version":"4.0.0","random_seed":42},"geometry":{"type":"Point","coordinates":[2.551117,49.008085]}},{"type":"Feature","id":"gate-syn-ap-cdg-g2","properties":{"airport_id":"SYN-AP-CDG","terminal_id":"SYN-AP-CDG-T1","gate_id":"SYN-AP-CDG-G2","stand_id":"SYN-AP-CDG-S2","feature_type":"Gate","is_synthetic":true,"data_classification":"Synthetic master data","geometry_disclaimer":"Illustrative synthetic geometry; not a real airport layout, boundary, route, or operational location.","generator_version":"4.0.0","random_seed":42},"geometry":{"type":"Point","coordinates":[2.551117,49.008435]}},{"type":"Feature","id":"gate-syn-ap-cdg-g3","properties":{"airport_id":"SYN-AP-CDG","terminal_id":"SYN-AP-CDG-T1","gate_id":"SYN-AP-CDG-G3","stand_id":"SYN-AP-CDG-S3","feature_type":"Gate","is_synthetic":true,"data_classification":"Synthetic master data","geometry_disclaimer":"Illustrative synthetic geometry; not a real airport layout, boundary, route, or operational location.","generator_version":"4.0.0","random_seed":42},"geometry":{"type":"Point","coordinates":[2.551117,49.008785]}},{"type":"Feature","id":"gate-syn-ap-cdg-g4","properties":{"airport_id":"SYN-AP-CDG","terminal_id":"SYN-AP-CDG-T2","gate_id":"SYN-AP-CDG-G4","stand_id":"SYN-AP-CDG-S4","feature_type":"Gate","is_synthetic":true,"data_classification":"Synthetic master data","geometry_disclaimer":"Illustrative synthetic geometry; not a real airport layout, boundary, route, or operational location.","generator_version":"4.0.0","random_seed":42},"geometry":{"type":"Point","coordinates":[2.5571170000000003,49.009135]}},{"type":"Feature","id":"gate-syn-ap-cdg-g5","properties":{"airport_id":"SYN-AP-CDG","terminal_id":"SYN-AP-CDG-T2","gate_id":"SYN-AP-CDG-G5","stand_id":"SYN-AP-CDG-S5","feature_type":"Gate","is_synthetic":true,"data_classification":"Synthetic master data","geometry_disclaimer":"Illustrative synthetic geometry; not a real airport layout, boundary, route, or operational location.","generator_version":"4.0.0","random_seed":42},"geometry":{"type":"Point","coordinates":[2.5571170000000003,49.009485000000005]}},{"type":"Feature","id":"gate-syn-ap-cdg-g6","properties":{"airport_id":"SYN-AP-CDG","terminal_id":"SYN-AP-CDG-T2","gate_id":"SYN-AP-CDG-G6","stand_id":"SYN-AP-CDG-S6","feature_type":"Gate","is_synthetic":true,"data_classification":"Synthetic master data","geometry_disclaimer":"Illustrative synthetic geometry; not a real airport layout, boundary, route, or operational location.","generator_version":"4.0.0","random_seed":42},"geometry":{"type":"Point","coordinates":[2.5571170000000003,49.009835]}},{"type":"Feature","id":"gate-syn-ap-ory-g1","properties":{"airport_id":"SYN-AP-ORY","terminal_id":"SYN-AP-ORY-T1","gate_id":"SYN-AP-ORY-G1","stand_id":"SYN-AP-ORY-S1","feature_type":"Gate","is_synthetic":true,"data_classification":"Synthetic master data","geometry_disclaimer":"Illustrative synthetic geometry; not a real airport layout, boundary, route, or operational location.","generator_version":"4.0.0","random_seed":42},"geometry":{"type":"Point","coordinates":[2.355963,48.728623999999996]}},{"type":"Feature","id":"gate-syn-ap-ory-g2","properties":{"airport_id":"SYN-AP-ORY","terminal_id":"SYN-AP-ORY-T1","gate_id":"SYN-AP-ORY-G2","stand_id":"SYN-AP-ORY-S2","feature_type":"Gate","is_synthetic":true,"data_classification":"Synthetic master data","geometry_disclaimer":"Illustrative synthetic geometry; not a real airport layout, boundary, route, or operational location.","generator_version":"4.0.0","random_seed":42},"geometry":{"type":"Point","coordinates":[2.355963,48.728973999999994]}},{"type":"Feature","id":"gate-syn-ap-ory-g3","properties":{"airport_id":"SYN-AP-ORY","terminal_id":"SYN-AP-ORY-T1","gate_id":"SYN-AP-ORY-G3","stand_id":"SYN-AP-ORY-S3","feature_type":"Gate","is_synthetic":true,"data_classification":"Synthetic master data","geometry_disclaimer":"Illustrative synthetic geometry; not a real airport layout, boundary, route, or operational location.","generator_version":"4.0.0","random_seed":42},"geometry":{"type":"Point","coordinates":[2.355963,48.729324]}},{"type":"Feature","id":"gate-syn-ap-ory-g4","properties":{"airport_id":"SYN-AP-ORY","terminal_id":"SYN-AP-ORY-T2","gate_id":"SYN-AP-ORY-G4","stand_id":"SYN-AP-ORY-S4","feature_type":"Gate","is_synthetic":true,"data_classification":"Synthetic master data","geometry_disclaimer":"Illustrative synthetic geometry; not a real airport layout, boundary, route, or operational location.","generator_version":"4.0.0","random_seed":42},"geometry":{"type":"Point","coordinates":[2.3619630000000003,48.729673999999996]}},{"type":"Feature","id":"gate-syn-ap-ory-g5","properties":{"airport_id":"SYN-AP-ORY","terminal_id":"SYN-AP-ORY-T2","gate_id":"SYN-AP-ORY-G5","stand_id":"SYN-AP-ORY-S5","feature_type":"Gate","is_synthetic":true,"data_classification":"Synthetic master data","geometry_disclaimer":"Illustrative synthetic geometry; not a real airport layout, boundary, route, or operational location.","generator_version":"4.0.0","random_seed":42},"geometry":{"type":"Point","coordinates":[2.3619630000000003,48.730024]}},{"type":"Feature","id":"gate-syn-ap-ory-g6","properties":{"airport_id":"SYN-AP-ORY","terminal_id":"SYN-AP-ORY-T2","gate_id":"SYN-AP-ORY-G6","stand_id":"SYN-AP-ORY-S6","feature_type":"Gate","is_synthetic":true,"data_classification":"Synthetic master data","geometry_disclaimer":"Illustrative synthetic geometry; not a real airport layout, boundary, route, or operational location.","generator_version":"4.0.0","random_seed":42},"geometry":{"type":"Point","coordinates":[2.3619630000000003,48.730374]}},{"type":"Feature","id":"gate-syn-ap-nce-g1","properties":{"airport_id":"SYN-AP-NCE","terminal_id":"SYN-AP-NCE-T1","gate_id":"SYN-AP-NCE-G1","stand_id":"SYN-AP-NCE-S1","feature_type":"Gate","is_synthetic":true,"data_classification":"Synthetic master data","geometry_disclaimer":"Illustrative synthetic geometry; not a real airport layout, boundary, route, or operational location.","generator_version":"4.0.0","random_seed":42},"geometry":{"type":"Point","coordinates":[7.21287,43.657526]}},{"type":"Feature","id":"gate-syn-ap-nce-g2","properties":{"airport_id":"SYN-AP-NCE","terminal_id":"SYN-AP-NCE-T1","gate_id":"SYN-AP-NCE-G2","stand_id":"SYN-AP-NCE-S2","feature_type":"Gate","is_synthetic":true,"data_classification":"Synthetic master data","geometry_disclaimer":"Illustrative synthetic geometry; not a real airport layout, boundary, route, or operational location.","generator_version":"4.0.0","random_seed":42},"geometry":{"type":"Point","coordinates":[7.21287,43.657875999999995]}},{"type":"Feature","id":"gate-syn-ap-nce-g3","properties":{"airport_id":"SYN-AP-NCE","terminal_id":"SYN-AP-NCE-T1","gate_id":"SYN-AP-NCE-G3","stand_id":"SYN-AP-NCE-S3","feature_type":"Gate","is_synthetic":true,"data_classification":"Synthetic master data","geometry_disclaimer":"Illustrative synthetic geometry; not a real airport layout, boundary, route, or operational location.","generator_version":"4.0.0","random_seed":42},"geometry":{"type":"Point","coordinates":[7.21287,43.658226]}},{"type":"Feature","id":"gate-syn-ap-nce-g4","properties":{"airport_id":"SYN-AP-NCE","terminal_id":"SYN-AP-NCE-T2","gate_id":"SYN-AP-NCE-G4","stand_id":"SYN-AP-NCE-S4","feature_type":"Gate","is_synthetic":true,"data_classification":"Synthetic master data","geometry_disclaimer":"Illustrative synthetic geometry; not a real airport layout, boundary, route, or operational location.","generator_version":"4.0.0","random_seed":42},"geometry":{"type":"Point","coordinates":[7.21887,43.658576]}},{"type":"Feature","id":"gate-syn-ap-nce-g5","properties":{"airport_id":"SYN-AP-NCE","terminal_id":"SYN-AP-NCE-T2","gate_id":"SYN-AP-NCE-G5","stand_id":"SYN-AP-NCE-S5","feature_type":"Gate","is_synthetic":true,"data_classification":"Synthetic master data","geometry_disclaimer":"Illustrative synthetic geometry; not a real airport layout, boundary, route, or operational location.","generator_version":"4.0.0","random_seed":42},"geometry":{"type":"Point","coordinates":[7.21887,43.658926]}},{"type":"Feature","id":"gate-syn-ap-nce-g6","properties":{"airport_id":"SYN-AP-NCE","terminal_id":"SYN-AP-NCE-T2","gate_id":"SYN-AP-NCE-G6","stand_id":"SYN-AP-NCE-S6","feature_type":"Gate","is_synthetic":true,"data_classification":"Synthetic master data","geometry_disclaimer":"Illustrative synthetic geometry; not a real airport layout, boundary, route, or operational location.","generator_version":"4.0.0","random_seed":42},"geometry":{"type":"Point","coordinates":[7.21887,43.659276]}},{"type":"Feature","id":"gate-syn-ap-lys-g1","properties":{"airport_id":"SYN-AP-LYS","terminal_id":"SYN-AP-LYS-T1","gate_id":"SYN-AP-LYS-G1","stand_id":"SYN-AP-LYS-S1","feature_type":"Gate","is_synthetic":true,"data_classification":"Synthetic master data","geometry_disclaimer":"Illustrative synthetic geometry; not a real airport layout, boundary, route, or operational location.","generator_version":"4.0.0","random_seed":42},"geometry":{"type":"Point","coordinates":[5.087139,45.725121]}},{"type":"Feature","id":"gate-syn-ap-lys-g2","properties":{"airport_id":"SYN-AP-LYS","terminal_id":"SYN-AP-LYS-T1","gate_id":"SYN-AP-LYS-G2","stand_id":"SYN-AP-LYS-S2","feature_type":"Gate","is_synthetic":true,"data_classification":"Synthetic master data","geometry_disclaimer":"Illustrative synthetic geometry; not a real airport layout, boundary, route, or operational location.","generator_version":"4.0.0","random_seed":42},"geometry":{"type":"Point","coordinates":[5.087139,45.725471]}},{"type":"Feature","id":"gate-syn-ap-lys-g3","properties":{"airport_id":"SYN-AP-LYS","terminal_id":"SYN-AP-LYS-T1","gate_id":"SYN-AP-LYS-G3","stand_id":"SYN-AP-LYS-S3","feature_type":"Gate","is_synthetic":true,"data_classification":"Synthetic master data","geometry_disclaimer":"Illustrative synthetic geometry; not a real airport layout, boundary, route, or operational location.","generator_version":"4.0.0","random_seed":42},"geometry":{"type":"Point","coordinates":[5.087139,45.725821]}},{"type":"Feature","id":"gate-syn-ap-lys-g4","properties":{"airport_id":"SYN-AP-LYS","terminal_id":"SYN-AP-LYS-T2","gate_id":"SYN-AP-LYS-G4","stand_id":"SYN-AP-LYS-S4","feature_type":"Gate","is_synthetic":true,"data_classification":"Synthetic master data","geometry_disclaimer":"Illustrative synthetic geometry; not a real airport layout, boundary, route, or operational location.","generator_version":"4.0.0","random_seed":42},"geometry":{"type":"Point","coordinates":[5.093139,45.726171]}},{"type":"Feature","id":"gate-syn-ap-lys-g5","properties":{"airport_id":"SYN-AP-LYS","terminal_id":"SYN-AP-LYS-T2","gate_id":"SYN-AP-LYS-G5","stand_id":"SYN-AP-LYS-S5","feature_type":"Gate","is_synthetic":true,"data_classification":"Synthetic master data","geometry_disclaimer":"Illustrative synthetic geometry; not a real airport layout, boundary, route, or operational location.","generator_version":"4.0.0","random_seed":42},"geometry":{"type":"Point","coordinates":[5.093139,45.726521000000005]}},{"type":"Feature","id":"gate-syn-ap-lys-g6","properties":{"airport_id":"SYN-AP-LYS","terminal_id":"SYN-AP-LYS-T2","gate_id":"SYN-AP-LYS-G6","stand_id":"SYN-AP-LYS-S6","feature_type":"Gate","is_synthetic":true,"data_classification":"Synthetic master data","geometry_disclaimer":"Illustrative synthetic geometry; not a real airport layout, boundary, route, or operational location.","generator_version":"4.0.0","random_seed":42},"geometry":{"type":"Point","coordinates":[5.093139,45.726871]}},{"type":"Feature","id":"gate-syn-ap-mrs-g1","properties":{"airport_id":"SYN-AP-MRS","terminal_id":"SYN-AP-MRS-T1","gate_id":"SYN-AP-MRS-G1","stand_id":"SYN-AP-MRS-S1","feature_type":"Gate","is_synthetic":true,"data_classification":"Synthetic master data","geometry_disclaimer":"Illustrative synthetic geometry; not a real airport layout, boundary, route, or operational location.","generator_version":"4.0.0","random_seed":42},"geometry":{"type":"Point","coordinates":[5.2095,43.437213]}},{"type":"Feature","id":"gate-syn-ap-mrs-g2","properties":{"airport_id":"SYN-AP-MRS","terminal_id":"SYN-AP-MRS-T1","gate_id":"SYN-AP-MRS-G2","stand_id":"SYN-AP-MRS-S2","feature_type":"Gate","is_synthetic":true,"data_classification":"Synthetic master data","geometry_disclaimer":"Illustrative synthetic geometry; not a real airport layout, boundary, route, or operational location.","generator_version":"4.0.0","random_seed":42},"geometry":{"type":"Point","coordinates":[5.2095,43.437563]}},{"type":"Feature","id":"gate-syn-ap-mrs-g3","properties":{"airport_id":"SYN-AP-MRS","terminal_id":"SYN-AP-MRS-T1","gate_id":"SYN-AP-MRS-G3","stand_id":"SYN-AP-MRS-S3","feature_type":"Gate","is_synthetic":true,"data_classification":"Synthetic master data","geometry_disclaimer":"Illustrative synthetic geometry; not a real airport layout, boundary, route, or operational location.","generator_version":"4.0.0","random_seed":42},"geometry":{"type":"Point","coordinates":[5.2095,43.437913]}},{"type":"Feature","id":"gate-syn-ap-mrs-g4","properties":{"airport_id":"SYN-AP-MRS","terminal_id":"SYN-AP-MRS-T2","gate_id":"SYN-AP-MRS-G4","stand_id":"SYN-AP-MRS-S4","feature_type":"Gate","is_synthetic":true,"data_classification":"Synthetic master data","geometry_disclaimer":"Illustrative synthetic geometry; not a real airport layout, boundary, route, or operational location.","generator_version":"4.0.0","random_seed":42},"geometry":{"type":"Point","coordinates":[5.2155000000000005,43.438263]}},{"type":"Feature","id":"gate-syn-ap-mrs-g5","properties":{"airport_id":"SYN-AP-MRS","terminal_id":"SYN-AP-MRS-T2","gate_id":"SYN-AP-MRS-G5","stand_id":"SYN-AP-MRS-S5","feature_type":"Gate","is_synthetic":true,"data_classification":"Synthetic master data","geometry_disclaimer":"Illustrative synthetic geometry; not a real airport layout, boundary, route, or operational location.","generator_version":"4.0.0","random_seed":42},"geometry":{"type":"Point","coordinates":[5.2155000000000005,43.438613000000004]}},{"type":"Feature","id":"gate-syn-ap-mrs-g6","properties":{"airport_id":"SYN-AP-MRS","terminal_id":"SYN-AP-MRS-T2","gate_id":"SYN-AP-MRS-G6","stand_id":"SYN-AP-MRS-S6","feature_type":"Gate","is_synthetic":true,"data_classification":"Synthetic master data","geometry_disclaimer":"Illustrative synthetic geometry; not a real airport layout, boundary, route, or operational location.","generator_version":"4.0.0","random_seed":42},"geometry":{"type":"Point","coordinates":[5.2155000000000005,43.438963]}},{"type":"Feature","id":"gate-syn-ap-tls-g1","properties":{"airport_id":"SYN-AP-TLS","terminal_id":"SYN-AP-TLS-T1","gate_id":"SYN-AP-TLS-G1","stand_id":"SYN-AP-TLS-S1","feature_type":"Gate","is_synthetic":true,"data_classification":"Synthetic master data","geometry_disclaimer":"Illustrative synthetic geometry; not a real airport layout, boundary, route, or operational location.","generator_version":"4.0.0","random_seed":42},"geometry":{"type":"Point","coordinates":[1.3608200000000001,43.628226]}},{"type":"Feature","id":"gate-syn-ap-tls-g2","properties":{"airport_id":"SYN-AP-TLS","terminal_id":"SYN-AP-TLS-T1","gate_id":"SYN-AP-TLS-G2","stand_id":"SYN-AP-TLS-S2","feature_type":"Gate","is_synthetic":true,"data_classification":"Synthetic master data","geometry_disclaimer":"Illustrative synthetic geometry; not a real airport layout, boundary, route, or operational location.","generator_version":"4.0.0","random_seed":42},"geometry":{"type":"Point","coordinates":[1.3608200000000001,43.628575999999995]}},{"type":"Feature","id":"gate-syn-ap-tls-g3","properties":{"airport_id":"SYN-AP-TLS","terminal_id":"SYN-AP-TLS-T1","gate_id":"SYN-AP-TLS-G3","stand_id":"SYN-AP-TLS-S3","feature_type":"Gate","is_synthetic":true,"data_classification":"Synthetic master data","geometry_disclaimer":"Illustrative synthetic geometry; not a real airport layout, boundary, route, or operational location.","generator_version":"4.0.0","random_seed":42},"geometry":{"type":"Point","coordinates":[1.3608200000000001,43.628926]}},{"type":"Feature","id":"gate-syn-ap-tls-g4","properties":{"airport_id":"SYN-AP-TLS","terminal_id":"SYN-AP-TLS-T2","gate_id":"SYN-AP-TLS-G4","stand_id":"SYN-AP-TLS-S4","feature_type":"Gate","is_synthetic":true,"data_classification":"Synthetic master data","geometry_disclaimer":"Illustrative synthetic geometry; not a real airport layout, boundary, route, or operational location.","generator_version":"4.0.0","random_seed":42},"geometry":{"type":"Point","coordinates":[1.36682,43.629276]}},{"type":"Feature","id":"gate-syn-ap-tls-g5","properties":{"airport_id":"SYN-AP-TLS","terminal_id":"SYN-AP-TLS-T2","gate_id":"SYN-AP-TLS-G5","stand_id":"SYN-AP-TLS-S5","feature_type":"Gate","is_synthetic":true,"data_classification":"Synthetic master data","geometry_disclaimer":"Illustrative synthetic geometry; not a real airport layout, boundary, route, or operational location.","generator_version":"4.0.0","random_seed":42},"geometry":{"type":"Point","coordinates":[1.36682,43.629626]}},{"type":"Feature","id":"gate-syn-ap-tls-g6","properties":{"airport_id":"SYN-AP-TLS","terminal_id":"SYN-AP-TLS-T2","gate_id":"SYN-AP-TLS-G6","stand_id":"SYN-AP-TLS-S6","feature_type":"Gate","is_synthetic":true,"data_classification":"Synthetic master data","geometry_disclaimer":"Illustrative synthetic geometry; not a real airport layout, boundary, route, or operational location.","generator_version":"4.0.0","random_seed":42},"geometry":{"type":"Point","coordinates":[1.36682,43.629976]}},{"type":"Feature","id":"gate-syn-ap-fco-g1","properties":{"airport_id":"SYN-AP-FCO","terminal_id":"SYN-AP-FCO-T1","gate_id":"SYN-AP-FCO-G1","stand_id":"SYN-AP-FCO-S1","feature_type":"Gate","is_synthetic":true,"data_classification":"Synthetic master data","geometry_disclaimer":"Illustrative synthetic geometry; not a real airport layout, boundary, route, or operational location.","generator_version":"4.0.0","random_seed":42},"geometry":{"type":"Point","coordinates":[12.248998,41.803657]}},{"type":"Feature","id":"gate-syn-ap-fco-g2","properties":{"airport_id":"SYN-AP-FCO","terminal_id":"SYN-AP-FCO-T1","gate_id":"SYN-AP-FCO-G2","stand_id":"SYN-AP-FCO-S2","feature_type":"Gate","is_synthetic":true,"data_classification":"Synthetic master data","geometry_disclaimer":"Illustrative synthetic geometry; not a real airport layout, boundary, route, or operational location.","generator_version":"4.0.0","random_seed":42},"geometry":{"type":"Point","coordinates":[12.248998,41.804007]}},{"type":"Feature","id":"gate-syn-ap-fco-g3","properties":{"airport_id":"SYN-AP-FCO","terminal_id":"SYN-AP-FCO-T1","gate_id":"SYN-AP-FCO-G3","stand_id":"SYN-AP-FCO-S3","feature_type":"Gate","is_synthetic":true,"data_classification":"Synthetic master data","geometry_disclaimer":"Illustrative synthetic geometry; not a real airport layout, boundary, route, or operational location.","generator_version":"4.0.0","random_seed":42},"geometry":{"type":"Point","coordinates":[12.248998,41.804357]}},{"type":"Feature","id":"gate-syn-ap-fco-g4","properties":{"airport_id":"SYN-AP-FCO","terminal_id":"SYN-AP-FCO-T2","gate_id":"SYN-AP-FCO-G4","stand_id":"SYN-AP-FCO-S4","feature_type":"Gate","is_synthetic":true,"data_classification":"Synthetic master data","geometry_disclaimer":"Illustrative synthetic geometry; not a real airport layout, boundary, route, or operational location.","generator_version":"4.0.0","random_seed":42},"geometry":{"type":"Point","coordinates":[12.254998,41.804707]}},{"type":"Feature","id":"gate-syn-ap-fco-g5","properties":{"airport_id":"SYN-AP-FCO","terminal_id":"SYN-AP-FCO-T2","gate_id":"SYN-AP-FCO-G5","stand_id":"SYN-AP-FCO-S5","feature_type":"Gate","is_synthetic":true,"data_classification":"Synthetic master data","geometry_disclaimer":"Illustrative synthetic geometry; not a real airport layout, boundary, route, or operational location.","generator_version":"4.0.0","random_seed":42},"geometry":{"type":"Point","coordinates":[12.254998,41.805057000000005]}},{"type":"Feature","id":"gate-syn-ap-fco-g6","properties":{"airport_id":"SYN-AP-FCO","terminal_id":"SYN-AP-FCO-T2","gate_id":"SYN-AP-FCO-G6","stand_id":"SYN-AP-FCO-S6","feature_type":"Gate","is_synthetic":true,"data_classification":"Synthetic master data","geometry_disclaimer":"Illustrative synthetic geometry; not a real airport layout, boundary, route, or operational location.","generator_version":"4.0.0","random_seed":42},"geometry":{"type":"Point","coordinates":[12.254998,41.805407]}},{"type":"Feature","id":"gate-syn-ap-mxp-g1","properties":{"airport_id":"SYN-AP-MXP","terminal_id":"SYN-AP-MXP-T1","gate_id":"SYN-AP-MXP-G1","stand_id":"SYN-AP-MXP-S1","feature_type":"Gate","is_synthetic":true,"data_classification":"Synthetic master data","geometry_disclaimer":"Illustrative synthetic geometry; not a real airport layout, boundary, route, or operational location.","generator_version":"4.0.0","random_seed":42},"geometry":{"type":"Point","coordinates":[8.725109999999999,45.629725]}},{"type":"Feature","id":"gate-syn-ap-mxp-g2","properties":{"airport_id":"SYN-AP-MXP","terminal_id":"SYN-AP-MXP-T1","gate_id":"SYN-AP-MXP-G2","stand_id":"SYN-AP-MXP-S2","feature_type":"Gate","is_synthetic":true,"data_classification":"Synthetic master data","geometry_disclaimer":"Illustrative synthetic geometry; not a real airport layout, boundary, route, or operational location.","generator_version":"4.0.0","random_seed":42},"geometry":{"type":"Point","coordinates":[8.725109999999999,45.630075]}},{"type":"Feature","id":"gate-syn-ap-mxp-g3","properties":{"airport_id":"SYN-AP-MXP","terminal_id":"SYN-AP-MXP-T1","gate_id":"SYN-AP-MXP-G3","stand_id":"SYN-AP-MXP-S3","feature_type":"Gate","is_synthetic":true,"data_classification":"Synthetic master data","geometry_disclaimer":"Illustrative synthetic geometry; not a real airport layout, boundary, route, or operational location.","generator_version":"4.0.0","random_seed":42},"geometry":{"type":"Point","coordinates":[8.725109999999999,45.630425]}},{"type":"Feature","id":"gate-syn-ap-mxp-g4","properties":{"airport_id":"SYN-AP-MXP","terminal_id":"SYN-AP-MXP-T2","gate_id":"SYN-AP-MXP-G4","stand_id":"SYN-AP-MXP-S4","feature_type":"Gate","is_synthetic":true,"data_classification":"Synthetic master data","geometry_disclaimer":"Illustrative synthetic geometry; not a real airport layout, boundary, route, or operational location.","generator_version":"4.0.0","random_seed":42},"geometry":{"type":"Point","coordinates":[8.73111,45.630775]}},{"type":"Feature","id":"gate-syn-ap-mxp-g5","properties":{"airport_id":"SYN-AP-MXP","terminal_id":"SYN-AP-MXP-T2","gate_id":"SYN-AP-MXP-G5","stand_id":"SYN-AP-MXP-S5","feature_type":"Gate","is_synthetic":true,"data_classification":"Synthetic master data","geometry_disclaimer":"Illustrative synthetic geometry; not a real airport layout, boundary, route, or operational location.","generator_version":"4.0.0","random_seed":42},"geometry":{"type":"Point","coordinates":[8.73111,45.631125000000004]}},{"type":"Feature","id":"gate-syn-ap-mxp-g6","properties":{"airport_id":"SYN-AP-MXP","terminal_id":"SYN-AP-MXP-T2","gate_id":"SYN-AP-MXP-G6","stand_id":"SYN-AP-MXP-S6","feature_type":"Gate","is_synthetic":true,"data_classification":"Synthetic master data","geometry_disclaimer":"Illustrative synthetic geometry; not a real airport layout, boundary, route, or operational location.","generator_version":"4.0.0","random_seed":42},"geometry":{"type":"Point","coordinates":[8.73111,45.631475]}},{"type":"Feature","id":"gate-syn-ap-vce-g1","properties":{"airport_id":"SYN-AP-VCE","terminal_id":"SYN-AP-VCE-T1","gate_id":"SYN-AP-VCE-G1","stand_id":"SYN-AP-VCE-S1","feature_type":"Gate","is_synthetic":true,"data_classification":"Synthetic master data","geometry_disclaimer":"Illustrative synthetic geometry; not a real airport layout, boundary, route, or operational location.","generator_version":"4.0.0","random_seed":42},"geometry":{"type":"Point","coordinates":[12.3489,45.504424]}},{"type":"Feature","id":"gate-syn-ap-vce-g2","properties":{"airport_id":"SYN-AP-VCE","terminal_id":"SYN-AP-VCE-T1","gate_id":"SYN-AP-VCE-G2","stand_id":"SYN-AP-VCE-S2","feature_type":"Gate","is_synthetic":true,"data_classification":"Synthetic master data","geometry_disclaimer":"Illustrative synthetic geometry; not a real airport layout, boundary, route, or operational location.","generator_version":"4.0.0","random_seed":42},"geometry":{"type":"Point","coordinates":[12.3489,45.504774]}},{"type":"Feature","id":"gate-syn-ap-vce-g3","properties":{"airport_id":"SYN-AP-VCE","terminal_id":"SYN-AP-VCE-T1","gate_id":"SYN-AP-VCE-G3","stand_id":"SYN-AP-VCE-S3","feature_type":"Gate","is_synthetic":true,"data_classification":"Synthetic master data","geometry_disclaimer":"Illustrative synthetic geometry; not a real airport layout, boundary, route, or operational location.","generator_version":"4.0.0","random_seed":42},"geometry":{"type":"Point","coordinates":[12.3489,45.505124]}},{"type":"Feature","id":"gate-syn-ap-vce-g4","properties":{"airport_id":"SYN-AP-VCE","terminal_id":"SYN-AP-VCE-T2","gate_id":"SYN-AP-VCE-G4","stand_id":"SYN-AP-VCE-S4","feature_type":"Gate","is_synthetic":true,"data_classification":"Synthetic master data","geometry_disclaimer":"Illustrative synthetic geometry; not a real airport layout, boundary, route, or operational location.","generator_version":"4.0.0","random_seed":42},"geometry":{"type":"Point","coordinates":[12.3549,45.505474]}},{"type":"Feature","id":"gate-syn-ap-vce-g5","properties":{"airport_id":"SYN-AP-VCE","terminal_id":"SYN-AP-VCE-T2","gate_id":"SYN-AP-VCE-G5","stand_id":"SYN-AP-VCE-S5","feature_type":"Gate","is_synthetic":true,"data_classification":"Synthetic master data","geometry_disclaimer":"Illustrative synthetic geometry; not a real airport layout, boundary, route, or operational location.","generator_version":"4.0.0","random_seed":42},"geometry":{"type":"Point","coordinates":[12.3549,45.505824000000004]}},{"type":"Feature","id":"gate-syn-ap-vce-g6","properties":{"airport_id":"SYN-AP-VCE","terminal_id":"SYN-AP-VCE-T2","gate_id":"SYN-AP-VCE-G6","stand_id":"SYN-AP-VCE-S6","feature_type":"Gate","is_synthetic":true,"data_classification":"Synthetic master data","geometry_disclaimer":"Illustrative synthetic geometry; not a real airport layout, boundary, route, or operational location.","generator_version":"4.0.0","random_seed":42},"geometry":{"type":"Point","coordinates":[12.3549,45.506174]}},{"type":"Feature","id":"gate-syn-ap-nap-g1","properties":{"airport_id":"SYN-AP-NAP","terminal_id":"SYN-AP-NAP-T1","gate_id":"SYN-AP-NAP-G1","stand_id":"SYN-AP-NAP-S1","feature_type":"Gate","is_synthetic":true,"data_classification":"Synthetic master data","geometry_disclaimer":"Illustrative synthetic geometry; not a real airport layout, boundary, route, or operational location.","generator_version":"4.0.0","random_seed":42},"geometry":{"type":"Point","coordinates":[14.2878,40.885127]}},{"type":"Feature","id":"gate-syn-ap-nap-g2","properties":{"airport_id":"SYN-AP-NAP","terminal_id":"SYN-AP-NAP-T1","gate_id":"SYN-AP-NAP-G2","stand_id":"SYN-AP-NAP-S2","feature_type":"Gate","is_synthetic":true,"data_classification":"Synthetic master data","geometry_disclaimer":"Illustrative synthetic geometry; not a real airport layout, boundary, route, or operational location.","generator_version":"4.0.0","random_seed":42},"geometry":{"type":"Point","coordinates":[14.2878,40.885476999999995]}},{"type":"Feature","id":"gate-syn-ap-nap-g3","properties":{"airport_id":"SYN-AP-NAP","terminal_id":"SYN-AP-NAP-T1","gate_id":"SYN-AP-NAP-G3","stand_id":"SYN-AP-NAP-S3","feature_type":"Gate","is_synthetic":true,"data_classification":"Synthetic master data","geometry_disclaimer":"Illustrative synthetic geometry; not a real airport layout, boundary, route, or operational location.","generator_version":"4.0.0","random_seed":42},"geometry":{"type":"Point","coordinates":[14.2878,40.885827]}},{"type":"Feature","id":"gate-syn-ap-nap-g4","properties":{"airport_id":"SYN-AP-NAP","terminal_id":"SYN-AP-NAP-T2","gate_id":"SYN-AP-NAP-G4","stand_id":"SYN-AP-NAP-S4","feature_type":"Gate","is_synthetic":true,"data_classification":"Synthetic master data","geometry_disclaimer":"Illustrative synthetic geometry; not a real airport layout, boundary, route, or operational location.","generator_version":"4.0.0","random_seed":42},"geometry":{"type":"Point","coordinates":[14.293800000000001,40.886176999999996]}},{"type":"Feature","id":"gate-syn-ap-nap-g5","properties":{"airport_id":"SYN-AP-NAP","terminal_id":"SYN-AP-NAP-T2","gate_id":"SYN-AP-NAP-G5","stand_id":"SYN-AP-NAP-S5","feature_type":"Gate","is_synthetic":true,"data_classification":"Synthetic master data","geometry_disclaimer":"Illustrative synthetic geometry; not a real airport layout, boundary, route, or operational location.","generator_version":"4.0.0","random_seed":42},"geometry":{"type":"Point","coordinates":[14.293800000000001,40.886527]}},{"type":"Feature","id":"gate-syn-ap-nap-g6","properties":{"airport_id":"SYN-AP-NAP","terminal_id":"SYN-AP-NAP-T2","gate_id":"SYN-AP-NAP-G6","stand_id":"SYN-AP-NAP-S6","feature_type":"Gate","is_synthetic":true,"data_classification":"Synthetic master data","geometry_disclaimer":"Illustrative synthetic geometry; not a real airport layout, boundary, route, or operational location.","generator_version":"4.0.0","random_seed":42},"geometry":{"type":"Point","coordinates":[14.293800000000001,40.886877]}},{"type":"Feature","id":"gate-syn-ap-blq-g1","properties":{"airport_id":"SYN-AP-BLQ","terminal_id":"SYN-AP-BLQ-T1","gate_id":"SYN-AP-BLQ-G1","stand_id":"SYN-AP-BLQ-S1","feature_type":"Gate","is_synthetic":true,"data_classification":"Synthetic master data","geometry_disclaimer":"Illustrative synthetic geometry; not a real airport layout, boundary, route, or operational location.","generator_version":"4.0.0","random_seed":42},"geometry":{"type":"Point","coordinates":[11.2857,44.534525]}},{"type":"Feature","id":"gate-syn-ap-blq-g2","properties":{"airport_id":"SYN-AP-BLQ","terminal_id":"SYN-AP-BLQ-T1","gate_id":"SYN-AP-BLQ-G2","stand_id":"SYN-AP-BLQ-S2","feature_type":"Gate","is_synthetic":true,"data_classification":"Synthetic master data","geometry_disclaimer":"Illustrative synthetic geometry; not a real airport layout, boundary, route, or operational location.","generator_version":"4.0.0","random_seed":42},"geometry":{"type":"Point","coordinates":[11.2857,44.534875]}},{"type":"Feature","id":"gate-syn-ap-blq-g3","properties":{"airport_id":"SYN-AP-BLQ","terminal_id":"SYN-AP-BLQ-T1","gate_id":"SYN-AP-BLQ-G3","stand_id":"SYN-AP-BLQ-S3","feature_type":"Gate","is_synthetic":true,"data_classification":"Synthetic master data","geometry_disclaimer":"Illustrative synthetic geometry; not a real airport layout, boundary, route, or operational location.","generator_version":"4.0.0","random_seed":42},"geometry":{"type":"Point","coordinates":[11.2857,44.535225000000004]}},{"type":"Feature","id":"gate-syn-ap-blq-g4","properties":{"airport_id":"SYN-AP-BLQ","terminal_id":"SYN-AP-BLQ-T2","gate_id":"SYN-AP-BLQ-G4","stand_id":"SYN-AP-BLQ-S4","feature_type":"Gate","is_synthetic":true,"data_classification":"Synthetic master data","geometry_disclaimer":"Illustrative synthetic geometry; not a real airport layout, boundary, route, or operational location.","generator_version":"4.0.0","random_seed":42},"geometry":{"type":"Point","coordinates":[11.2917,44.535575]}},{"type":"Feature","id":"gate-syn-ap-blq-g5","properties":{"airport_id":"SYN-AP-BLQ","terminal_id":"SYN-AP-BLQ-T2","gate_id":"SYN-AP-BLQ-G5","stand_id":"SYN-AP-BLQ-S5","feature_type":"Gate","is_synthetic":true,"data_classification":"Synthetic master data","geometry_disclaimer":"Illustrative synthetic geometry; not a real airport layout, boundary, route, or operational location.","generator_version":"4.0.0","random_seed":42},"geometry":{"type":"Point","coordinates":[11.2917,44.535925000000006]}},{"type":"Feature","id":"gate-syn-ap-blq-g6","properties":{"airport_id":"SYN-AP-BLQ","terminal_id":"SYN-AP-BLQ-T2","gate_id":"SYN-AP-BLQ-G6","stand_id":"SYN-AP-BLQ-S6","feature_type":"Gate","is_synthetic":true,"data_classification":"Synthetic master data","geometry_disclaimer":"Illustrative synthetic geometry; not a real airport layout, boundary, route, or operational location.","generator_version":"4.0.0","random_seed":42},"geometry":{"type":"Point","coordinates":[11.2917,44.536275]}},{"type":"Feature","id":"gate-syn-ap-lis-g1","properties":{"airport_id":"SYN-AP-LIS","terminal_id":"SYN-AP-LIS-T1","gate_id":"SYN-AP-LIS-G1","stand_id":"SYN-AP-LIS-S1","feature_type":"Gate","is_synthetic":true,"data_classification":"Synthetic master data","geometry_disclaimer":"Illustrative synthetic geometry; not a real airport layout, boundary, route, or operational location.","generator_version":"4.0.0","random_seed":42},"geometry":{"type":"Point","coordinates":[-9.13892,38.780425]}},{"type":"Feature","id":"gate-syn-ap-lis-g2","properties":{"airport_id":"SYN-AP-LIS","terminal_id":"SYN-AP-LIS-T1","gate_id":"SYN-AP-LIS-G2","stand_id":"SYN-AP-LIS-S2","feature_type":"Gate","is_synthetic":true,"data_classification":"Synthetic master data","geometry_disclaimer":"Illustrative synthetic geometry; not a real airport layout, boundary, route, or operational location.","generator_version":"4.0.0","random_seed":42},"geometry":{"type":"Point","coordinates":[-9.13892,38.780775]}},{"type":"Feature","id":"gate-syn-ap-lis-g3","properties":{"airport_id":"SYN-AP-LIS","terminal_id":"SYN-AP-LIS-T1","gate_id":"SYN-AP-LIS-G3","stand_id":"SYN-AP-LIS-S3","feature_type":"Gate","is_synthetic":true,"data_classification":"Synthetic master data","geometry_disclaimer":"Illustrative synthetic geometry; not a real airport layout, boundary, route, or operational location.","generator_version":"4.0.0","random_seed":42},"geometry":{"type":"Point","coordinates":[-9.13892,38.781125]}},{"type":"Feature","id":"gate-syn-ap-lis-g4","properties":{"airport_id":"SYN-AP-LIS","terminal_id":"SYN-AP-LIS-T2","gate_id":"SYN-AP-LIS-G4","stand_id":"SYN-AP-LIS-S4","feature_type":"Gate","is_synthetic":true,"data_classification":"Synthetic master data","geometry_disclaimer":"Illustrative synthetic geometry; not a real airport layout, boundary, route, or operational location.","generator_version":"4.0.0","random_seed":42},"geometry":{"type":"Point","coordinates":[-9.13292,38.781475]}},{"type":"Feature","id":"gate-syn-ap-lis-g5","properties":{"airport_id":"SYN-AP-LIS","terminal_id":"SYN-AP-LIS-T2","gate_id":"SYN-AP-LIS-G5","stand_id":"SYN-AP-LIS-S5","feature_type":"Gate","is_synthetic":true,"data_classification":"Synthetic master data","geometry_disclaimer":"Illustrative synthetic geometry; not a real airport layout, boundary, route, or operational location.","generator_version":"4.0.0","random_seed":42},"geometry":{"type":"Point","coordinates":[-9.13292,38.781825000000005]}},{"type":"Feature","id":"gate-syn-ap-lis-g6","properties":{"airport_id":"SYN-AP-LIS","terminal_id":"SYN-AP-LIS-T2","gate_id":"SYN-AP-LIS-G6","stand_id":"SYN-AP-LIS-S6","feature_type":"Gate","is_synthetic":true,"data_classification":"Synthetic master data","geometry_disclaimer":"Illustrative synthetic geometry; not a real airport layout, boundary, route, or operational location.","generator_version":"4.0.0","random_seed":42},"geometry":{"type":"Point","coordinates":[-9.13292,38.782175]}},{"type":"Feature","id":"gate-syn-ap-opo-g1","properties":{"airport_id":"SYN-AP-OPO","terminal_id":"SYN-AP-OPO-T1","gate_id":"SYN-AP-OPO-G1","stand_id":"SYN-AP-OPO-S1","feature_type":"Gate","is_synthetic":true,"data_classification":"Synthetic master data","geometry_disclaimer":"Illustrative synthetic geometry; not a real airport layout, boundary, route, or operational location.","generator_version":"4.0.0","random_seed":42},"geometry":{"type":"Point","coordinates":[-8.68438980865,41.2472252808]}},{"type":"Feature","id":"gate-syn-ap-opo-g2","properties":{"airport_id":"SYN-AP-OPO","terminal_id":"SYN-AP-OPO-T1","gate_id":"SYN-AP-OPO-G2","stand_id":"SYN-AP-OPO-S2","feature_type":"Gate","is_synthetic":true,"data_classification":"Synthetic master data","geometry_disclaimer":"Illustrative synthetic geometry; not a real airport layout, boundary, route, or operational location.","generator_version":"4.0.0","random_seed":42},"geometry":{"type":"Point","coordinates":[-8.68438980865,41.2475752808]}},{"type":"Feature","id":"gate-syn-ap-opo-g3","properties":{"airport_id":"SYN-AP-OPO","terminal_id":"SYN-AP-OPO-T1","gate_id":"SYN-AP-OPO-G3","stand_id":"SYN-AP-OPO-S3","feature_type":"Gate","is_synthetic":true,"data_classification":"Synthetic master data","geometry_disclaimer":"Illustrative synthetic geometry; not a real airport layout, boundary, route, or operational location.","generator_version":"4.0.0","random_seed":42},"geometry":{"type":"Point","coordinates":[-8.68438980865,41.247925280800004]}},{"type":"Feature","id":"gate-syn-ap-opo-g4","properties":{"airport_id":"SYN-AP-OPO","terminal_id":"SYN-AP-OPO-T2","gate_id":"SYN-AP-OPO-G4","stand_id":"SYN-AP-OPO-S4","feature_type":"Gate","is_synthetic":true,"data_classification":"Synthetic master data","geometry_disclaimer":"Illustrative synthetic geometry; not a real airport layout, boundary, route, or operational location.","generator_version":"4.0.0","random_seed":42},"geometry":{"type":"Point","coordinates":[-8.67838980865,41.2482752808]}},{"type":"Feature","id":"gate-syn-ap-opo-g5","properties":{"airport_id":"SYN-AP-OPO","terminal_id":"SYN-AP-OPO-T2","gate_id":"SYN-AP-OPO-G5","stand_id":"SYN-AP-OPO-S5","feature_type":"Gate","is_synthetic":true,"data_classification":"Synthetic master data","geometry_disclaimer":"Illustrative synthetic geometry; not a real airport layout, boundary, route, or operational location.","generator_version":"4.0.0","random_seed":42},"geometry":{"type":"Point","coordinates":[-8.67838980865,41.248625280800006]}},{"type":"Feature","id":"gate-syn-ap-opo-g6","properties":{"airport_id":"SYN-AP-OPO","terminal_id":"SYN-AP-OPO-T2","gate_id":"SYN-AP-OPO-G6","stand_id":"SYN-AP-OPO-S6","feature_type":"Gate","is_synthetic":true,"data_classification":"Synthetic master data","geometry_disclaimer":"Illustrative synthetic geometry; not a real airport layout, boundary, route, or operational location.","generator_version":"4.0.0","random_seed":42},"geometry":{"type":"Point","coordinates":[-8.67838980865,41.2489752808]}},{"type":"Feature","id":"gate-syn-ap-fao-g1","properties":{"airport_id":"SYN-AP-FAO","terminal_id":"SYN-AP-FAO-T1","gate_id":"SYN-AP-FAO-G1","stand_id":"SYN-AP-FAO-S1","feature_type":"Gate","is_synthetic":true,"data_classification":"Synthetic master data","geometry_disclaimer":"Illustrative synthetic geometry; not a real airport layout, boundary, route, or operational location.","generator_version":"4.0.0","random_seed":42},"geometry":{"type":"Point","coordinates":[-7.9739390000000006,37.015034]}},{"type":"Feature","id":"gate-syn-ap-fao-g2","properties":{"airport_id":"SYN-AP-FAO","terminal_id":"SYN-AP-FAO-T1","gate_id":"SYN-AP-FAO-G2","stand_id":"SYN-AP-FAO-S2","feature_type":"Gate","is_synthetic":true,"data_classification":"Synthetic master data","geometry_disclaimer":"Illustrative synthetic geometry; not a real airport layout, boundary, route, or operational location.","generator_version":"4.0.0","random_seed":42},"geometry":{"type":"Point","coordinates":[-7.9739390000000006,37.015384]}},{"type":"Feature","id":"gate-syn-ap-fao-g3","properties":{"airport_id":"SYN-AP-FAO","terminal_id":"SYN-AP-FAO-T1","gate_id":"SYN-AP-FAO-G3","stand_id":"SYN-AP-FAO-S3","feature_type":"Gate","is_synthetic":true,"data_classification":"Synthetic master data","geometry_disclaimer":"Illustrative synthetic geometry; not a real airport layout, boundary, route, or operational location.","generator_version":"4.0.0","random_seed":42},"geometry":{"type":"Point","coordinates":[-7.9739390000000006,37.015734]}},{"type":"Feature","id":"gate-syn-ap-fao-g4","properties":{"airport_id":"SYN-AP-FAO","terminal_id":"SYN-AP-FAO-T2","gate_id":"SYN-AP-FAO-G4","stand_id":"SYN-AP-FAO-S4","feature_type":"Gate","is_synthetic":true,"data_classification":"Synthetic master data","geometry_disclaimer":"Illustrative synthetic geometry; not a real airport layout, boundary, route, or operational location.","generator_version":"4.0.0","random_seed":42},"geometry":{"type":"Point","coordinates":[-7.967939,37.016084]}},{"type":"Feature","id":"gate-syn-ap-fao-g5","properties":{"airport_id":"SYN-AP-FAO","terminal_id":"SYN-AP-FAO-T2","gate_id":"SYN-AP-FAO-G5","stand_id":"SYN-AP-FAO-S5","feature_type":"Gate","is_synthetic":true,"data_classification":"Synthetic master data","geometry_disclaimer":"Illustrative synthetic geometry; not a real airport layout, boundary, route, or operational location.","generator_version":"4.0.0","random_seed":42},"geometry":{"type":"Point","coordinates":[-7.967939,37.016434000000004]}},{"type":"Feature","id":"gate-syn-ap-fao-g6","properties":{"airport_id":"SYN-AP-FAO","terminal_id":"SYN-AP-FAO-T2","gate_id":"SYN-AP-FAO-G6","stand_id":"SYN-AP-FAO-S6","feature_type":"Gate","is_synthetic":true,"data_classification":"Synthetic master data","geometry_disclaimer":"Illustrative synthetic geometry; not a real airport layout, boundary, route, or operational location.","generator_version":"4.0.0","random_seed":42},"geometry":{"type":"Point","coordinates":[-7.967939,37.016784]}},{"type":"Feature","id":"gate-syn-ap-fnc-g1","properties":{"airport_id":"SYN-AP-FNC","terminal_id":"SYN-AP-FNC-T1","gate_id":"SYN-AP-FNC-G1","stand_id":"SYN-AP-FNC-S1","feature_type":"Gate","is_synthetic":true,"data_classification":"Synthetic master data","geometry_disclaimer":"Illustrative synthetic geometry; not a real airport layout, boundary, route, or operational location.","generator_version":"4.0.0","random_seed":42},"geometry":{"type":"Point","coordinates":[-16.777613,32.696937]}},{"type":"Feature","id":"gate-syn-ap-fnc-g2","properties":{"airport_id":"SYN-AP-FNC","terminal_id":"SYN-AP-FNC-T1","gate_id":"SYN-AP-FNC-G2","stand_id":"SYN-AP-FNC-S2","feature_type":"Gate","is_synthetic":true,"data_classification":"Synthetic master data","geometry_disclaimer":"Illustrative synthetic geometry; not a real airport layout, boundary, route, or operational location.","generator_version":"4.0.0","random_seed":42},"geometry":{"type":"Point","coordinates":[-16.777613,32.697286999999996]}},{"type":"Feature","id":"gate-syn-ap-fnc-g3","properties":{"airport_id":"SYN-AP-FNC","terminal_id":"SYN-AP-FNC-T1","gate_id":"SYN-AP-FNC-G3","stand_id":"SYN-AP-FNC-S3","feature_type":"Gate","is_synthetic":true,"data_classification":"Synthetic master data","geometry_disclaimer":"Illustrative synthetic geometry; not a real airport layout, boundary, route, or operational location.","generator_version":"4.0.0","random_seed":42},"geometry":{"type":"Point","coordinates":[-16.777613,32.697637]}},{"type":"Feature","id":"gate-syn-ap-fnc-g4","properties":{"airport_id":"SYN-AP-FNC","terminal_id":"SYN-AP-FNC-T2","gate_id":"SYN-AP-FNC-G4","stand_id":"SYN-AP-FNC-S4","feature_type":"Gate","is_synthetic":true,"data_classification":"Synthetic master data","geometry_disclaimer":"Illustrative synthetic geometry; not a real airport layout, boundary, route, or operational location.","generator_version":"4.0.0","random_seed":42},"geometry":{"type":"Point","coordinates":[-16.771613,32.697987]}},{"type":"Feature","id":"gate-syn-ap-fnc-g5","properties":{"airport_id":"SYN-AP-FNC","terminal_id":"SYN-AP-FNC-T2","gate_id":"SYN-AP-FNC-G5","stand_id":"SYN-AP-FNC-S5","feature_type":"Gate","is_synthetic":true,"data_classification":"Synthetic master data","geometry_disclaimer":"Illustrative synthetic geometry; not a real airport layout, boundary, route, or operational location.","generator_version":"4.0.0","random_seed":42},"geometry":{"type":"Point","coordinates":[-16.771613,32.698337]}},{"type":"Feature","id":"gate-syn-ap-fnc-g6","properties":{"airport_id":"SYN-AP-FNC","terminal_id":"SYN-AP-FNC-T2","gate_id":"SYN-AP-FNC-G6","stand_id":"SYN-AP-FNC-S6","feature_type":"Gate","is_synthetic":true,"data_classification":"Synthetic master data","geometry_disclaimer":"Illustrative synthetic geometry; not a real airport layout, boundary, route, or operational location.","generator_version":"4.0.0","random_seed":42},"geometry":{"type":"Point","coordinates":[-16.771613,32.698687]}},{"type":"Feature","id":"gate-syn-ap-pdl-g1","properties":{"airport_id":"SYN-AP-PDL","terminal_id":"SYN-AP-PDL-T1","gate_id":"SYN-AP-PDL-G1","stand_id":"SYN-AP-PDL-S1","feature_type":"Gate","is_synthetic":true,"data_classification":"Synthetic master data","geometry_disclaimer":"Illustrative synthetic geometry; not a real airport layout, boundary, route, or operational location.","generator_version":"4.0.0","random_seed":42},"geometry":{"type":"Point","coordinates":[-25.7009007721,37.7403244934]}},{"type":"Feature","id":"gate-syn-ap-pdl-g2","properties":{"airport_id":"SYN-AP-PDL","terminal_id":"SYN-AP-PDL-T1","gate_id":"SYN-AP-PDL-G2","stand_id":"SYN-AP-PDL-S2","feature_type":"Gate","is_synthetic":true,"data_classification":"Synthetic master data","geometry_disclaimer":"Illustrative synthetic geometry; not a real airport layout, boundary, route, or operational location.","generator_version":"4.0.0","random_seed":42},"geometry":{"type":"Point","coordinates":[-25.7009007721,37.7406744934]}},{"type":"Feature","id":"gate-syn-ap-pdl-g3","properties":{"airport_id":"SYN-AP-PDL","terminal_id":"SYN-AP-PDL-T1","gate_id":"SYN-AP-PDL-G3","stand_id":"SYN-AP-PDL-S3","feature_type":"Gate","is_synthetic":true,"data_classification":"Synthetic master data","geometry_disclaimer":"Illustrative synthetic geometry; not a real airport layout, boundary, route, or operational location.","generator_version":"4.0.0","random_seed":42},"geometry":{"type":"Point","coordinates":[-25.7009007721,37.741024493400005]}},{"type":"Feature","id":"gate-syn-ap-pdl-g4","properties":{"airport_id":"SYN-AP-PDL","terminal_id":"SYN-AP-PDL-T2","gate_id":"SYN-AP-PDL-G4","stand_id":"SYN-AP-PDL-S4","feature_type":"Gate","is_synthetic":true,"data_classification":"Synthetic master data","geometry_disclaimer":"Illustrative synthetic geometry; not a real airport layout, boundary, route, or operational location.","generator_version":"4.0.0","random_seed":42},"geometry":{"type":"Point","coordinates":[-25.6949007721,37.7413744934]}},{"type":"Feature","id":"gate-syn-ap-pdl-g5","properties":{"airport_id":"SYN-AP-PDL","terminal_id":"SYN-AP-PDL-T2","gate_id":"SYN-AP-PDL-G5","stand_id":"SYN-AP-PDL-S5","feature_type":"Gate","is_synthetic":true,"data_classification":"Synthetic master data","geometry_disclaimer":"Illustrative synthetic geometry; not a real airport layout, boundary, route, or operational location.","generator_version":"4.0.0","random_seed":42},"geometry":{"type":"Point","coordinates":[-25.6949007721,37.74172449340001]}},{"type":"Feature","id":"gate-syn-ap-pdl-g6","properties":{"airport_id":"SYN-AP-PDL","terminal_id":"SYN-AP-PDL-T2","gate_id":"SYN-AP-PDL-G6","stand_id":"SYN-AP-PDL-S6","feature_type":"Gate","is_synthetic":true,"data_classification":"Synthetic master data","geometry_disclaimer":"Illustrative synthetic geometry; not a real airport layout, boundary, route, or operational location.","generator_version":"4.0.0","random_seed":42},"geometry":{"type":"Point","coordinates":[-25.6949007721,37.742074493400004]}},{"type":"Feature","id":"gate-syn-ap-amm-g1","properties":{"airport_id":"SYN-AP-AMM","terminal_id":"SYN-AP-AMM-T1","gate_id":"SYN-AP-AMM-G1","stand_id":"SYN-AP-AMM-S1","feature_type":"Gate","is_synthetic":true,"data_classification":"Synthetic master data","geometry_disclaimer":"Illustrative synthetic geometry; not a real airport layout, boundary, route, or operational location.","generator_version":"4.0.0","random_seed":42},"geometry":{"type":"Point","coordinates":[35.9901983948,31.7217259369]}},{"type":"Feature","id":"gate-syn-ap-amm-g2","properties":{"airport_id":"SYN-AP-AMM","terminal_id":"SYN-AP-AMM-T1","gate_id":"SYN-AP-AMM-G2","stand_id":"SYN-AP-AMM-S2","feature_type":"Gate","is_synthetic":true,"data_classification":"Synthetic master data","geometry_disclaimer":"Illustrative synthetic geometry; not a real airport layout, boundary, route, or operational location.","generator_version":"4.0.0","random_seed":42},"geometry":{"type":"Point","coordinates":[35.9901983948,31.7220759369]}},{"type":"Feature","id":"gate-syn-ap-amm-g3","properties":{"airport_id":"SYN-AP-AMM","terminal_id":"SYN-AP-AMM-T1","gate_id":"SYN-AP-AMM-G3","stand_id":"SYN-AP-AMM-S3","feature_type":"Gate","is_synthetic":true,"data_classification":"Synthetic master data","geometry_disclaimer":"Illustrative synthetic geometry; not a real airport layout, boundary, route, or operational location.","generator_version":"4.0.0","random_seed":42},"geometry":{"type":"Point","coordinates":[35.9901983948,31.722425936900002]}},{"type":"Feature","id":"gate-syn-ap-amm-g4","properties":{"airport_id":"SYN-AP-AMM","terminal_id":"SYN-AP-AMM-T2","gate_id":"SYN-AP-AMM-G4","stand_id":"SYN-AP-AMM-S4","feature_type":"Gate","is_synthetic":true,"data_classification":"Synthetic master data","geometry_disclaimer":"Illustrative synthetic geometry; not a real airport layout, boundary, route, or operational location.","generator_version":"4.0.0","random_seed":42},"geometry":{"type":"Point","coordinates":[35.9961983948,31.7227759369]}},{"type":"Feature","id":"gate-syn-ap-amm-g5","properties":{"airport_id":"SYN-AP-AMM","terminal_id":"SYN-AP-AMM-T2","gate_id":"SYN-AP-AMM-G5","stand_id":"SYN-AP-AMM-S5","feature_type":"Gate","is_synthetic":true,"data_classification":"Synthetic master data","geometry_disclaimer":"Illustrative synthetic geometry; not a real airport layout, boundary, route, or operational location.","generator_version":"4.0.0","random_seed":42},"geometry":{"type":"Point","coordinates":[35.9961983948,31.7231259369]}},{"type":"Feature","id":"gate-syn-ap-amm-g6","properties":{"airport_id":"SYN-AP-AMM","terminal_id":"SYN-AP-AMM-T2","gate_id":"SYN-AP-AMM-G6","stand_id":"SYN-AP-AMM-S6","feature_type":"Gate","is_synthetic":true,"data_classification":"Synthetic master data","geometry_disclaimer":"Illustrative synthetic geometry; not a real airport layout, boundary, route, or operational location.","generator_version":"4.0.0","random_seed":42},"geometry":{"type":"Point","coordinates":[35.9961983948,31.7234759369]}},{"type":"Feature","id":"gate-syn-ap-aqj-g1","properties":{"airport_id":"SYN-AP-AQJ","terminal_id":"SYN-AP-AQJ-T1","gate_id":"SYN-AP-AQJ-G1","stand_id":"SYN-AP-AQJ-S1","feature_type":"Gate","is_synthetic":true,"data_classification":"Synthetic master data","geometry_disclaimer":"Illustrative synthetic geometry; not a real airport layout, boundary, route, or operational location.","generator_version":"4.0.0","random_seed":42},"geometry":{"type":"Point","coordinates":[35.015101,29.610726]}},{"type":"Feature","id":"gate-syn-ap-aqj-g2","properties":{"airport_id":"SYN-AP-AQJ","terminal_id":"SYN-AP-AQJ-T1","gate_id":"SYN-AP-AQJ-G2","stand_id":"SYN-AP-AQJ-S2","feature_type":"Gate","is_synthetic":true,"data_classification":"Synthetic master data","geometry_disclaimer":"Illustrative synthetic geometry; not a real airport layout, boundary, route, or operational location.","generator_version":"4.0.0","random_seed":42},"geometry":{"type":"Point","coordinates":[35.015101,29.611076]}},{"type":"Feature","id":"gate-syn-ap-aqj-g3","properties":{"airport_id":"SYN-AP-AQJ","terminal_id":"SYN-AP-AQJ-T1","gate_id":"SYN-AP-AQJ-G3","stand_id":"SYN-AP-AQJ-S3","feature_type":"Gate","is_synthetic":true,"data_classification":"Synthetic master data","geometry_disclaimer":"Illustrative synthetic geometry; not a real airport layout, boundary, route, or operational location.","generator_version":"4.0.0","random_seed":42},"geometry":{"type":"Point","coordinates":[35.015101,29.611426]}},{"type":"Feature","id":"gate-syn-ap-aqj-g4","properties":{"airport_id":"SYN-AP-AQJ","terminal_id":"SYN-AP-AQJ-T2","gate_id":"SYN-AP-AQJ-G4","stand_id":"SYN-AP-AQJ-S4","feature_type":"Gate","is_synthetic":true,"data_classification":"Synthetic master data","geometry_disclaimer":"Illustrative synthetic geometry; not a real airport layout, boundary, route, or operational location.","generator_version":"4.0.0","random_seed":42},"geometry":{"type":"Point","coordinates":[35.021101,29.611776]}},{"type":"Feature","id":"gate-syn-ap-aqj-g5","properties":{"airport_id":"SYN-AP-AQJ","terminal_id":"SYN-AP-AQJ-T2","gate_id":"SYN-AP-AQJ-G5","stand_id":"SYN-AP-AQJ-S5","feature_type":"Gate","is_synthetic":true,"data_classification":"Synthetic master data","geometry_disclaimer":"Illustrative synthetic geometry; not a real airport layout, boundary, route, or operational location.","generator_version":"4.0.0","random_seed":42},"geometry":{"type":"Point","coordinates":[35.021101,29.612126]}},{"type":"Feature","id":"gate-syn-ap-aqj-g6","properties":{"airport_id":"SYN-AP-AQJ","terminal_id":"SYN-AP-AQJ-T2","gate_id":"SYN-AP-AQJ-G6","stand_id":"SYN-AP-AQJ-S6","feature_type":"Gate","is_synthetic":true,"data_classification":"Synthetic master data","geometry_disclaimer":"Illustrative synthetic geometry; not a real airport layout, boundary, route, or operational location.","generator_version":"4.0.0","random_seed":42},"geometry":{"type":"Point","coordinates":[35.021101,29.612476]}}]}
