{"type":"FeatureCollection","name":"incidents","features":[{"type":"Feature","id":"incident-syn-map-inc-cdg-01","properties":{"airport_id":"SYN-AP-CDG","incident_id":"SYN-MAP-INC-CDG-01","severity":"Medium","feature_type":"Incident","is_synthetic":true,"data_classification":"Synthetic master data","geometry_disclaimer":"Illustrative synthetic geometry; not a real airport layout, boundary, route, or operational location.","generator_version":"4.0.0","random_seed":42},"geometry":{"type":"Point","coordinates":[2.5552161,49.0105431]}},{"type":"Feature","id":"incident-syn-map-inc-cdg-02","properties":{"airport_id":"SYN-AP-CDG","incident_id":"SYN-MAP-INC-CDG-02","severity":"High","feature_type":"Incident","is_synthetic":true,"data_classification":"Synthetic master data","geometry_disclaimer":"Illustrative synthetic geometry; not a real airport layout, boundary, route, or operational location.","generator_version":"4.0.0","random_seed":42},"geometry":{"type":"Point","coordinates":[2.5542685,49.0100301]}},{"type":"Feature","id":"incident-syn-map-inc-cdg-03","properties":{"airport_id":"SYN-AP-CDG","incident_id":"SYN-MAP-INC-CDG-03","severity":"Low","feature_type":"Incident","is_synthetic":true,"data_classification":"Synthetic master data","geometry_disclaimer":"Illustrative synthetic geometry; not a real airport layout, boundary, route, or operational location.","generator_version":"4.0.0","random_seed":42},"geometry":{"type":"Point","coordinates":[2.5531057,49.0078281]}},{"type":"Feature","id":"incident-syn-map-inc-ory-01","properties":{"airport_id":"SYN-AP-ORY","incident_id":"SYN-MAP-INC-ORY-01","severity":"Medium","feature_type":"Incident","is_synthetic":true,"data_classification":"Synthetic master data","geometry_disclaimer":"Illustrative synthetic geometry; not a real airport layout, boundary, route, or operational location.","generator_version":"4.0.0","random_seed":42},"geometry":{"type":"Point","coordinates":[2.3597876,48.7279835]}},{"type":"Feature","id":"incident-syn-map-inc-ory-02","properties":{"airport_id":"SYN-AP-ORY","incident_id":"SYN-MAP-INC-ORY-02","severity":"High","feature_type":"Incident","is_synthetic":true,"data_classification":"Synthetic master data","geometry_disclaimer":"Illustrative synthetic geometry; not a real airport layout, boundary, route, or operational location.","generator_version":"4.0.0","random_seed":42},"geometry":{"type":"Point","coordinates":[2.3594071,48.7301146]}},{"type":"Feature","id":"incident-syn-map-inc-ory-03","properties":{"airport_id":"SYN-AP-ORY","incident_id":"SYN-MAP-INC-ORY-03","severity":"Low","feature_type":"Incident","is_synthetic":true,"data_classification":"Synthetic master data","geometry_disclaimer":"Illustrative synthetic geometry; not a real airport layout, boundary, route, or operational location.","generator_version":"4.0.0","random_seed":42},"geometry":{"type":"Point","coordinates":[2.360988,48.7294273]}},{"type":"Feature","id":"incident-syn-map-inc-nce-01","properties":{"airport_id":"SYN-AP-NCE","incident_id":"SYN-MAP-INC-NCE-01","severity":"Medium","feature_type":"Incident","is_synthetic":true,"data_classification":"Synthetic master data","geometry_disclaimer":"Illustrative synthetic geometry; not a real airport layout, boundary, route, or operational location.","generator_version":"4.0.0","random_seed":42},"geometry":{"type":"Point","coordinates":[7.2144085,43.6586609]}},{"type":"Feature","id":"incident-syn-map-inc-nce-02","properties":{"airport_id":"SYN-AP-NCE","incident_id":"SYN-MAP-INC-NCE-02","severity":"High","feature_type":"Incident","is_synthetic":true,"data_classification":"Synthetic master data","geometry_disclaimer":"Illustrative synthetic geometry; not a real airport layout, boundary, route, or operational location.","generator_version":"4.0.0","random_seed":42},"geometry":{"type":"Point","coordinates":[7.2165228,43.6574753]}},{"type":"Feature","id":"incident-syn-map-inc-nce-03","properties":{"airport_id":"SYN-AP-NCE","incident_id":"SYN-MAP-INC-NCE-03","severity":"Low","feature_type":"Incident","is_synthetic":true,"data_classification":"Synthetic master data","geometry_disclaimer":"Illustrative synthetic geometry; not a real airport layout, boundary, route, or operational location.","generator_version":"4.0.0","random_seed":42},"geometry":{"type":"Point","coordinates":[7.2148623,43.6575586]}},{"type":"Feature","id":"incident-syn-map-inc-lys-01","properties":{"airport_id":"SYN-AP-LYS","incident_id":"SYN-MAP-INC-LYS-01","severity":"Medium","feature_type":"Incident","is_synthetic":true,"data_classification":"Synthetic master data","geometry_disclaimer":"Illustrative synthetic geometry; not a real airport layout, boundary, route, or operational location.","generator_version":"4.0.0","random_seed":42},"geometry":{"type":"Point","coordinates":[5.0888737,45.7272896]}},{"type":"Feature","id":"incident-syn-map-inc-lys-02","properties":{"airport_id":"SYN-AP-LYS","incident_id":"SYN-MAP-INC-LYS-02","severity":"High","feature_type":"Incident","is_synthetic":true,"data_classification":"Synthetic master data","geometry_disclaimer":"Illustrative synthetic geometry; not a real airport layout, boundary, route, or operational location.","generator_version":"4.0.0","random_seed":42},"geometry":{"type":"Point","coordinates":[5.0916723,45.7245075]}},{"type":"Feature","id":"incident-syn-map-inc-lys-03","properties":{"airport_id":"SYN-AP-LYS","incident_id":"SYN-MAP-INC-LYS-03","severity":"Low","feature_type":"Incident","is_synthetic":true,"data_classification":"Synthetic master data","geometry_disclaimer":"Illustrative synthetic geometry; not a real airport layout, boundary, route, or operational location.","generator_version":"4.0.0","random_seed":42},"geometry":{"type":"Point","coordinates":[5.0898626,45.7264903]}},{"type":"Feature","id":"incident-syn-map-inc-mrs-01","properties":{"airport_id":"SYN-AP-MRS","incident_id":"SYN-MAP-INC-MRS-01","severity":"Medium","feature_type":"Incident","is_synthetic":true,"data_classification":"Synthetic master data","geometry_disclaimer":"Illustrative synthetic geometry; not a real airport layout, boundary, route, or operational location.","generator_version":"4.0.0","random_seed":42},"geometry":{"type":"Point","coordinates":[5.2122337,43.4370525]}},{"type":"Feature","id":"incident-syn-map-inc-mrs-02","properties":{"airport_id":"SYN-AP-MRS","incident_id":"SYN-MAP-INC-MRS-02","severity":"High","feature_type":"Incident","is_synthetic":true,"data_classification":"Synthetic master data","geometry_disclaimer":"Illustrative synthetic geometry; not a real airport layout, boundary, route, or operational location.","generator_version":"4.0.0","random_seed":42},"geometry":{"type":"Point","coordinates":[5.211496,43.4368912]}},{"type":"Feature","id":"incident-syn-map-inc-mrs-03","properties":{"airport_id":"SYN-AP-MRS","incident_id":"SYN-MAP-INC-MRS-03","severity":"Low","feature_type":"Incident","is_synthetic":true,"data_classification":"Synthetic master data","geometry_disclaimer":"Illustrative synthetic geometry; not a real airport layout, boundary, route, or operational location.","generator_version":"4.0.0","random_seed":42},"geometry":{"type":"Point","coordinates":[5.2134957,43.4386472]}},{"type":"Feature","id":"incident-syn-map-inc-tls-01","properties":{"airport_id":"SYN-AP-TLS","incident_id":"SYN-MAP-INC-TLS-01","severity":"Medium","feature_type":"Incident","is_synthetic":true,"data_classification":"Synthetic master data","geometry_disclaimer":"Illustrative synthetic geometry; not a real airport layout, boundary, route, or operational location.","generator_version":"4.0.0","random_seed":42},"geometry":{"type":"Point","coordinates":[1.3652957,43.6275428]}},{"type":"Feature","id":"incident-syn-map-inc-tls-02","properties":{"airport_id":"SYN-AP-TLS","incident_id":"SYN-MAP-INC-TLS-02","severity":"High","feature_type":"Incident","is_synthetic":true,"data_classification":"Synthetic master data","geometry_disclaimer":"Illustrative synthetic geometry; not a real airport layout, boundary, route, or operational location.","generator_version":"4.0.0","random_seed":42},"geometry":{"type":"Point","coordinates":[1.3643077,43.6297965]}},{"type":"Feature","id":"incident-syn-map-inc-tls-03","properties":{"airport_id":"SYN-AP-TLS","incident_id":"SYN-MAP-INC-TLS-03","severity":"Low","feature_type":"Incident","is_synthetic":true,"data_classification":"Synthetic master data","geometry_disclaimer":"Illustrative synthetic geometry; not a real airport layout, boundary, route, or operational location.","generator_version":"4.0.0","random_seed":42},"geometry":{"type":"Point","coordinates":[1.3642849,43.6272072]}},{"type":"Feature","id":"incident-syn-map-inc-fco-01","properties":{"airport_id":"SYN-AP-FCO","incident_id":"SYN-MAP-INC-FCO-01","severity":"Medium","feature_type":"Incident","is_synthetic":true,"data_classification":"Synthetic master data","geometry_disclaimer":"Illustrative synthetic geometry; not a real airport layout, boundary, route, or operational location.","generator_version":"4.0.0","random_seed":42},"geometry":{"type":"Point","coordinates":[12.2513062,41.8026403]}},{"type":"Feature","id":"incident-syn-map-inc-fco-02","properties":{"airport_id":"SYN-AP-FCO","incident_id":"SYN-MAP-INC-FCO-02","severity":"High","feature_type":"Incident","is_synthetic":true,"data_classification":"Synthetic master data","geometry_disclaimer":"Illustrative synthetic geometry; not a real airport layout, boundary, route, or operational location.","generator_version":"4.0.0","random_seed":42},"geometry":{"type":"Point","coordinates":[12.2511745,41.8057455]}},{"type":"Feature","id":"incident-syn-map-inc-fco-03","properties":{"airport_id":"SYN-AP-FCO","incident_id":"SYN-MAP-INC-FCO-03","severity":"Low","feature_type":"Incident","is_synthetic":true,"data_classification":"Synthetic master data","geometry_disclaimer":"Illustrative synthetic geometry; not a real airport layout, boundary, route, or operational location.","generator_version":"4.0.0","random_seed":42},"geometry":{"type":"Point","coordinates":[12.2504746,41.8043819]}},{"type":"Feature","id":"incident-syn-map-inc-mxp-01","properties":{"airport_id":"SYN-AP-MXP","incident_id":"SYN-MAP-INC-MXP-01","severity":"Medium","feature_type":"Incident","is_synthetic":true,"data_classification":"Synthetic master data","geometry_disclaimer":"Illustrative synthetic geometry; not a real airport layout, boundary, route, or operational location.","generator_version":"4.0.0","random_seed":42},"geometry":{"type":"Point","coordinates":[8.7279967,45.6323641]}},{"type":"Feature","id":"incident-syn-map-inc-mxp-02","properties":{"airport_id":"SYN-AP-MXP","incident_id":"SYN-MAP-INC-MXP-02","severity":"High","feature_type":"Incident","is_synthetic":true,"data_classification":"Synthetic master data","geometry_disclaimer":"Illustrative synthetic geometry; not a real airport layout, boundary, route, or operational location.","generator_version":"4.0.0","random_seed":42},"geometry":{"type":"Point","coordinates":[8.7299533,45.6309548]}},{"type":"Feature","id":"incident-syn-map-inc-mxp-03","properties":{"airport_id":"SYN-AP-MXP","incident_id":"SYN-MAP-INC-MXP-03","severity":"Low","feature_type":"Incident","is_synthetic":true,"data_classification":"Synthetic master data","geometry_disclaimer":"Illustrative synthetic geometry; not a real airport layout, boundary, route, or operational location.","generator_version":"4.0.0","random_seed":42},"geometry":{"type":"Point","coordinates":[8.728877,45.6318415]}},{"type":"Feature","id":"incident-syn-map-inc-vce-01","properties":{"airport_id":"SYN-AP-VCE","incident_id":"SYN-MAP-INC-VCE-01","severity":"Medium","feature_type":"Incident","is_synthetic":true,"data_classification":"Synthetic master data","geometry_disclaimer":"Illustrative synthetic geometry; not a real airport layout, boundary, route, or operational location.","generator_version":"4.0.0","random_seed":42},"geometry":{"type":"Point","coordinates":[12.3524244,45.5049429]}},{"type":"Feature","id":"incident-syn-map-inc-vce-02","properties":{"airport_id":"SYN-AP-VCE","incident_id":"SYN-MAP-INC-VCE-02","severity":"High","feature_type":"Incident","is_synthetic":true,"data_classification":"Synthetic master data","geometry_disclaimer":"Illustrative synthetic geometry; not a real airport layout, boundary, route, or operational location.","generator_version":"4.0.0","random_seed":42},"geometry":{"type":"Point","coordinates":[12.3539924,45.5051493]}},{"type":"Feature","id":"incident-syn-map-inc-vce-03","properties":{"airport_id":"SYN-AP-VCE","incident_id":"SYN-MAP-INC-VCE-03","severity":"Low","feature_type":"Incident","is_synthetic":true,"data_classification":"Synthetic master data","geometry_disclaimer":"Illustrative synthetic geometry; not a real airport layout, boundary, route, or operational location.","generator_version":"4.0.0","random_seed":42},"geometry":{"type":"Point","coordinates":[12.3509245,45.5036783]}},{"type":"Feature","id":"incident-syn-map-inc-nap-01","properties":{"airport_id":"SYN-AP-NAP","incident_id":"SYN-MAP-INC-NAP-01","severity":"Medium","feature_type":"Incident","is_synthetic":true,"data_classification":"Synthetic master data","geometry_disclaimer":"Illustrative synthetic geometry; not a real airport layout, boundary, route, or operational location.","generator_version":"4.0.0","random_seed":42},"geometry":{"type":"Point","coordinates":[14.2897962,40.8864459]}},{"type":"Feature","id":"incident-syn-map-inc-nap-02","properties":{"airport_id":"SYN-AP-NAP","incident_id":"SYN-MAP-INC-NAP-02","severity":"High","feature_type":"Incident","is_synthetic":true,"data_classification":"Synthetic master data","geometry_disclaimer":"Illustrative synthetic geometry; not a real airport layout, boundary, route, or operational location.","generator_version":"4.0.0","random_seed":42},"geometry":{"type":"Point","coordinates":[14.2911625,40.8847792]}},{"type":"Feature","id":"incident-syn-map-inc-nap-03","properties":{"airport_id":"SYN-AP-NAP","incident_id":"SYN-MAP-INC-NAP-03","severity":"Low","feature_type":"Incident","is_synthetic":true,"data_classification":"Synthetic master data","geometry_disclaimer":"Illustrative synthetic geometry; not a real airport layout, boundary, route, or operational location.","generator_version":"4.0.0","random_seed":42},"geometry":{"type":"Point","coordinates":[14.2927868,40.8876316]}},{"type":"Feature","id":"incident-syn-map-inc-blq-01","properties":{"airport_id":"SYN-AP-BLQ","incident_id":"SYN-MAP-INC-BLQ-01","severity":"Medium","feature_type":"Incident","is_synthetic":true,"data_classification":"Synthetic master data","geometry_disclaimer":"Illustrative synthetic geometry; not a real airport layout, boundary, route, or operational location.","generator_version":"4.0.0","random_seed":42},"geometry":{"type":"Point","coordinates":[11.2880431,44.5373703]}},{"type":"Feature","id":"incident-syn-map-inc-blq-02","properties":{"airport_id":"SYN-AP-BLQ","incident_id":"SYN-MAP-INC-BLQ-02","severity":"High","feature_type":"Incident","is_synthetic":true,"data_classification":"Synthetic master data","geometry_disclaimer":"Illustrative synthetic geometry; not a real airport layout, boundary, route, or operational location.","generator_version":"4.0.0","random_seed":42},"geometry":{"type":"Point","coordinates":[11.2905002,44.5344141]}},{"type":"Feature","id":"incident-syn-map-inc-blq-03","properties":{"airport_id":"SYN-AP-BLQ","incident_id":"SYN-MAP-INC-BLQ-03","severity":"Low","feature_type":"Incident","is_synthetic":true,"data_classification":"Synthetic master data","geometry_disclaimer":"Illustrative synthetic geometry; not a real airport layout, boundary, route, or operational location.","generator_version":"4.0.0","random_seed":42},"geometry":{"type":"Point","coordinates":[11.2874839,44.5367825]}},{"type":"Feature","id":"incident-syn-map-inc-lis-01","properties":{"airport_id":"SYN-AP-LIS","incident_id":"SYN-MAP-INC-LIS-01","severity":"Medium","feature_type":"Incident","is_synthetic":true,"data_classification":"Synthetic master data","geometry_disclaimer":"Illustrative synthetic geometry; not a real airport layout, boundary, route, or operational location.","generator_version":"4.0.0","random_seed":42},"geometry":{"type":"Point","coordinates":[-9.1343382,38.7817943]}},{"type":"Feature","id":"incident-syn-map-inc-lis-02","properties":{"airport_id":"SYN-AP-LIS","incident_id":"SYN-MAP-INC-LIS-02","severity":"High","feature_type":"Incident","is_synthetic":true,"data_classification":"Synthetic master data","geometry_disclaimer":"Illustrative synthetic geometry; not a real airport layout, boundary, route, or operational location.","generator_version":"4.0.0","random_seed":42},"geometry":{"type":"Point","coordinates":[-9.1375218,38.7797784]}},{"type":"Feature","id":"incident-syn-map-inc-lis-03","properties":{"airport_id":"SYN-AP-LIS","incident_id":"SYN-MAP-INC-LIS-03","severity":"Low","feature_type":"Incident","is_synthetic":true,"data_classification":"Synthetic master data","geometry_disclaimer":"Illustrative synthetic geometry; not a real airport layout, boundary, route, or operational location.","generator_version":"4.0.0","random_seed":42},"geometry":{"type":"Point","coordinates":[-9.1346655,38.7799903]}},{"type":"Feature","id":"incident-syn-map-inc-opo-01","properties":{"airport_id":"SYN-AP-OPO","incident_id":"SYN-MAP-INC-OPO-01","severity":"Medium","feature_type":"Incident","is_synthetic":true,"data_classification":"Synthetic master data","geometry_disclaimer":"Illustrative synthetic geometry; not a real airport layout, boundary, route, or operational location.","generator_version":"4.0.0","random_seed":42},"geometry":{"type":"Point","coordinates":[-8.6831076,41.2461927]}},{"type":"Feature","id":"incident-syn-map-inc-opo-02","properties":{"airport_id":"SYN-AP-OPO","incident_id":"SYN-MAP-INC-OPO-02","severity":"High","feature_type":"Incident","is_synthetic":true,"data_classification":"Synthetic master data","geometry_disclaimer":"Illustrative synthetic geometry; not a real airport layout, boundary, route, or operational location.","generator_version":"4.0.0","random_seed":42},"geometry":{"type":"Point","coordinates":[-8.6821056,41.2473557]}},{"type":"Feature","id":"incident-syn-map-inc-opo-03","properties":{"airport_id":"SYN-AP-OPO","incident_id":"SYN-MAP-INC-OPO-03","severity":"Low","feature_type":"Incident","is_synthetic":true,"data_classification":"Synthetic master data","geometry_disclaimer":"Illustrative synthetic geometry; not a real airport layout, boundary, route, or operational location.","generator_version":"4.0.0","random_seed":42},"geometry":{"type":"Point","coordinates":[-8.6832796,41.2485642]}},{"type":"Feature","id":"incident-syn-map-inc-fao-01","properties":{"airport_id":"SYN-AP-FAO","incident_id":"SYN-MAP-INC-FAO-01","severity":"Medium","feature_type":"Incident","is_synthetic":true,"data_classification":"Synthetic master data","geometry_disclaimer":"Illustrative synthetic geometry; not a real airport layout, boundary, route, or operational location.","generator_version":"4.0.0","random_seed":42},"geometry":{"type":"Point","coordinates":[-7.9697026,37.0175148]}},{"type":"Feature","id":"incident-syn-map-inc-fao-02","properties":{"airport_id":"SYN-AP-FAO","incident_id":"SYN-MAP-INC-FAO-02","severity":"High","feature_type":"Incident","is_synthetic":true,"data_classification":"Synthetic master data","geometry_disclaimer":"Illustrative synthetic geometry; not a real airport layout, boundary, route, or operational location.","generator_version":"4.0.0","random_seed":42},"geometry":{"type":"Point","coordinates":[-7.9733893,37.0154829]}},{"type":"Feature","id":"incident-syn-map-inc-fao-03","properties":{"airport_id":"SYN-AP-FAO","incident_id":"SYN-MAP-INC-FAO-03","severity":"Low","feature_type":"Incident","is_synthetic":true,"data_classification":"Synthetic master data","geometry_disclaimer":"Illustrative synthetic geometry; not a real airport layout, boundary, route, or operational location.","generator_version":"4.0.0","random_seed":42},"geometry":{"type":"Point","coordinates":[-7.9722295,37.0151702]}},{"type":"Feature","id":"incident-syn-map-inc-fnc-01","properties":{"airport_id":"SYN-AP-FNC","incident_id":"SYN-MAP-INC-FNC-01","severity":"Medium","feature_type":"Incident","is_synthetic":true,"data_classification":"Synthetic master data","geometry_disclaimer":"Illustrative synthetic geometry; not a real airport layout, boundary, route, or operational location.","generator_version":"4.0.0","random_seed":42},"geometry":{"type":"Point","coordinates":[-16.7728966,32.6988911]}},{"type":"Feature","id":"incident-syn-map-inc-fnc-02","properties":{"airport_id":"SYN-AP-FNC","incident_id":"SYN-MAP-INC-FNC-02","severity":"High","feature_type":"Incident","is_synthetic":true,"data_classification":"Synthetic master data","geometry_disclaimer":"Illustrative synthetic geometry; not a real airport layout, boundary, route, or operational location.","generator_version":"4.0.0","random_seed":42},"geometry":{"type":"Point","coordinates":[-16.7769664,32.6985903]}},{"type":"Feature","id":"incident-syn-map-inc-fnc-03","properties":{"airport_id":"SYN-AP-FNC","incident_id":"SYN-MAP-INC-FNC-03","severity":"Low","feature_type":"Incident","is_synthetic":true,"data_classification":"Synthetic master data","geometry_disclaimer":"Illustrative synthetic geometry; not a real airport layout, boundary, route, or operational location.","generator_version":"4.0.0","random_seed":42},"geometry":{"type":"Point","coordinates":[-16.7730519,32.6981429]}},{"type":"Feature","id":"incident-syn-map-inc-pdl-01","properties":{"airport_id":"SYN-AP-PDL","incident_id":"SYN-MAP-INC-PDL-01","severity":"Medium","feature_type":"Incident","is_synthetic":true,"data_classification":"Synthetic master data","geometry_disclaimer":"Illustrative synthetic geometry; not a real airport layout, boundary, route, or operational location.","generator_version":"4.0.0","random_seed":42},"geometry":{"type":"Point","coordinates":[-25.6975981,37.7430468]}},{"type":"Feature","id":"incident-syn-map-inc-pdl-02","properties":{"airport_id":"SYN-AP-PDL","incident_id":"SYN-MAP-INC-PDL-02","severity":"High","feature_type":"Incident","is_synthetic":true,"data_classification":"Synthetic master data","geometry_disclaimer":"Illustrative synthetic geometry; not a real airport layout, boundary, route, or operational location.","generator_version":"4.0.0","random_seed":42},"geometry":{"type":"Point","coordinates":[-25.6983122,37.7403319]}},{"type":"Feature","id":"incident-syn-map-inc-pdl-03","properties":{"airport_id":"SYN-AP-PDL","incident_id":"SYN-MAP-INC-PDL-03","severity":"Low","feature_type":"Incident","is_synthetic":true,"data_classification":"Synthetic master data","geometry_disclaimer":"Illustrative synthetic geometry; not a real airport layout, boundary, route, or operational location.","generator_version":"4.0.0","random_seed":42},"geometry":{"type":"Point","coordinates":[-25.6996661,37.7404212]}},{"type":"Feature","id":"incident-syn-map-inc-amm-01","properties":{"airport_id":"SYN-AP-AMM","incident_id":"SYN-MAP-INC-AMM-01","severity":"Medium","feature_type":"Incident","is_synthetic":true,"data_classification":"Synthetic master data","geometry_disclaimer":"Illustrative synthetic geometry; not a real airport layout, boundary, route, or operational location.","generator_version":"4.0.0","random_seed":42},"geometry":{"type":"Point","coordinates":[35.9941163,31.7234736]}},{"type":"Feature","id":"incident-syn-map-inc-amm-02","properties":{"airport_id":"SYN-AP-AMM","incident_id":"SYN-MAP-INC-AMM-02","severity":"High","feature_type":"Incident","is_synthetic":true,"data_classification":"Synthetic master data","geometry_disclaimer":"Illustrative synthetic geometry; not a real airport layout, boundary, route, or operational location.","generator_version":"4.0.0","random_seed":42},"geometry":{"type":"Point","coordinates":[35.9928973,31.7244715]}},{"type":"Feature","id":"incident-syn-map-inc-amm-03","properties":{"airport_id":"SYN-AP-AMM","incident_id":"SYN-MAP-INC-AMM-03","severity":"Low","feature_type":"Incident","is_synthetic":true,"data_classification":"Synthetic master data","geometry_disclaimer":"Illustrative synthetic geometry; not a real airport layout, boundary, route, or operational location.","generator_version":"4.0.0","random_seed":42},"geometry":{"type":"Point","coordinates":[35.9910557,31.7238568]}},{"type":"Feature","id":"incident-syn-map-inc-aqj-01","properties":{"airport_id":"SYN-AP-AQJ","incident_id":"SYN-MAP-INC-AQJ-01","severity":"Medium","feature_type":"Incident","is_synthetic":true,"data_classification":"Synthetic master data","geometry_disclaimer":"Illustrative synthetic geometry; not a real airport layout, boundary, route, or operational location.","generator_version":"4.0.0","random_seed":42},"geometry":{"type":"Point","coordinates":[35.0195336,29.6123613]}},{"type":"Feature","id":"incident-syn-map-inc-aqj-02","properties":{"airport_id":"SYN-AP-AQJ","incident_id":"SYN-MAP-INC-AQJ-02","severity":"High","feature_type":"Incident","is_synthetic":true,"data_classification":"Synthetic master data","geometry_disclaimer":"Illustrative synthetic geometry; not a real airport layout, boundary, route, or operational location.","generator_version":"4.0.0","random_seed":42},"geometry":{"type":"Point","coordinates":[35.0201226,29.6098281]}},{"type":"Feature","id":"incident-syn-map-inc-aqj-03","properties":{"airport_id":"SYN-AP-AQJ","incident_id":"SYN-MAP-INC-AQJ-03","severity":"Low","feature_type":"Incident","is_synthetic":true,"data_classification":"Synthetic master data","geometry_disclaimer":"Illustrative synthetic geometry; not a real airport layout, boundary, route, or operational location.","generator_version":"4.0.0","random_seed":42},"geometry":{"type":"Point","coordinates":[35.0172839,29.6116491]}}]}
