{"type":"FeatureCollection","name":"operating_regions","features":[{"type":"Feature","id":"region-syn-reg-france","properties":{"region_id":"SYN-REG-FRANCE","region_name":"France","feature_type":"IllustrativeOperatingRegionView","is_administrative_boundary":false,"fictional_portfolio_relationship":true,"is_synthetic":true,"data_classification":"Synthetic master data","geometry_disclaimer":"Illustrative synthetic geometry; not a real airport layout, boundary, route, or operational location.","generator_version":"4.0.0","random_seed":42},"geometry":{"type":"Polygon","coordinates":[[[1.01382,43.188088],[7.565869999999999,43.188088],[7.565869999999999,49.25896],[1.01382,49.25896],[1.01382,43.188088]]]}},{"type":"Feature","id":"region-syn-reg-italy","properties":{"region_id":"SYN-REG-ITALY","region_name":"Italy","feature_type":"IllustrativeOperatingRegionView","is_administrative_boundary":false,"fictional_portfolio_relationship":true,"is_synthetic":true,"data_classification":"Synthetic master data","geometry_disclaimer":"Illustrative synthetic geometry; not a real airport layout, boundary, route, or operational location.","generator_version":"4.0.0","random_seed":42},"geometry":{"type":"Polygon","coordinates":[[[8.37811,40.636002],[14.6408,40.636002],[14.6408,45.8806],[8.37811,45.8806],[8.37811,40.636002]]]}},{"type":"Feature","id":"region-syn-reg-jordan","properties":{"region_id":"SYN-REG-JORDAN","region_name":"Jordan","feature_type":"IllustrativeOperatingRegionView","is_administrative_boundary":false,"fictional_portfolio_relationship":true,"is_synthetic":true,"data_classification":"Synthetic master data","geometry_disclaimer":"Illustrative synthetic geometry; not a real airport layout, boundary, route, or operational location.","generator_version":"4.0.0","random_seed":42},"geometry":{"type":"Polygon","coordinates":[[[34.668101,29.361601],[36.3431983948,29.361601],[36.3431983948,31.9726009369],[34.668101,31.9726009369],[34.668101,29.361601]]]}},{"type":"Feature","id":"region-syn-reg-portugal","properties":{"region_id":"SYN-REG-PORTUGAL","region_name":"Portugal","feature_type":"IllustrativeOperatingRegionView","is_administrative_boundary":false,"fictional_portfolio_relationship":true,"is_synthetic":true,"data_classification":"Synthetic master data","geometry_disclaimer":"Illustrative synthetic geometry; not a real airport layout, boundary, route, or operational location.","generator_version":"4.0.0","random_seed":42},"geometry":{"type":"Polygon","coordinates":[[[-26.0479007721,32.447812],[-7.620939000000001,32.447812],[-7.620939000000001,41.4981002808],[-26.0479007721,41.4981002808],[-26.0479007721,32.447812]]]}}]}
