{"type":"FeatureCollection","name":"passenger_flows","features":[{"type":"Feature","id":"passenger-flow-syn-ap-cdg-t1","properties":{"airport_id":"SYN-AP-CDG","terminal_id":"SYN-AP-CDG-T1","flow_type":"Departures","illustrative_only":true,"is_synthetic":true,"data_classification":"Synthetic master data","geometry_disclaimer":"Illustrative synthetic geometry; not a real airport layout, boundary, route, or operational location.","generator_version":"4.0.0","random_seed":42},"geometry":{"type":"LineString","coordinates":[[2.549617,49.008160000000004],[2.551117,49.00896],[2.552617,49.00976]]}},{"type":"Feature","id":"passenger-flow-syn-ap-cdg-t2","properties":{"airport_id":"SYN-AP-CDG","terminal_id":"SYN-AP-CDG-T2","flow_type":"Departures","illustrative_only":true,"is_synthetic":true,"data_classification":"Synthetic master data","geometry_disclaimer":"Illustrative synthetic geometry; not a real airport layout, boundary, route, or operational location.","generator_version":"4.0.0","random_seed":42},"geometry":{"type":"LineString","coordinates":[[2.5556170000000002,49.008160000000004],[2.5571170000000003,49.00896],[2.5586170000000004,49.00976]]}},{"type":"Feature","id":"passenger-flow-syn-ap-ory-t1","properties":{"airport_id":"SYN-AP-ORY","terminal_id":"SYN-AP-ORY-T1","flow_type":"Departures","illustrative_only":true,"is_synthetic":true,"data_classification":"Synthetic master data","geometry_disclaimer":"Illustrative synthetic geometry; not a real airport layout, boundary, route, or operational location.","generator_version":"4.0.0","random_seed":42},"geometry":{"type":"LineString","coordinates":[[2.354463,48.728699],[2.355963,48.729499],[2.357463,48.730298999999995]]}},{"type":"Feature","id":"passenger-flow-syn-ap-ory-t2","properties":{"airport_id":"SYN-AP-ORY","terminal_id":"SYN-AP-ORY-T2","flow_type":"Departures","illustrative_only":true,"is_synthetic":true,"data_classification":"Synthetic master data","geometry_disclaimer":"Illustrative synthetic geometry; not a real airport layout, boundary, route, or operational location.","generator_version":"4.0.0","random_seed":42},"geometry":{"type":"LineString","coordinates":[[2.360463,48.728699],[2.3619630000000003,48.729499],[2.3634630000000003,48.730298999999995]]}},{"type":"Feature","id":"passenger-flow-syn-ap-nce-t1","properties":{"airport_id":"SYN-AP-NCE","terminal_id":"SYN-AP-NCE-T1","flow_type":"Departures","illustrative_only":true,"is_synthetic":true,"data_classification":"Synthetic master data","geometry_disclaimer":"Illustrative synthetic geometry; not a real airport layout, boundary, route, or operational location.","generator_version":"4.0.0","random_seed":42},"geometry":{"type":"LineString","coordinates":[[7.21137,43.657601],[7.21287,43.658401],[7.21437,43.659200999999996]]}},{"type":"Feature","id":"passenger-flow-syn-ap-nce-t2","properties":{"airport_id":"SYN-AP-NCE","terminal_id":"SYN-AP-NCE-T2","flow_type":"Departures","illustrative_only":true,"is_synthetic":true,"data_classification":"Synthetic master data","geometry_disclaimer":"Illustrative synthetic geometry; not a real airport layout, boundary, route, or operational location.","generator_version":"4.0.0","random_seed":42},"geometry":{"type":"LineString","coordinates":[[7.21737,43.657601],[7.21887,43.658401],[7.22037,43.659200999999996]]}},{"type":"Feature","id":"passenger-flow-syn-ap-lys-t1","properties":{"airport_id":"SYN-AP-LYS","terminal_id":"SYN-AP-LYS-T1","flow_type":"Departures","illustrative_only":true,"is_synthetic":true,"data_classification":"Synthetic master data","geometry_disclaimer":"Illustrative synthetic geometry; not a real airport layout, boundary, route, or operational location.","generator_version":"4.0.0","random_seed":42},"geometry":{"type":"LineString","coordinates":[[5.085639,45.725196000000004],[5.087139,45.725996],[5.088639,45.726796]]}},{"type":"Feature","id":"passenger-flow-syn-ap-lys-t2","properties":{"airport_id":"SYN-AP-LYS","terminal_id":"SYN-AP-LYS-T2","flow_type":"Departures","illustrative_only":true,"is_synthetic":true,"data_classification":"Synthetic master data","geometry_disclaimer":"Illustrative synthetic geometry; not a real airport layout, boundary, route, or operational location.","generator_version":"4.0.0","random_seed":42},"geometry":{"type":"LineString","coordinates":[[5.091639,45.725196000000004],[5.093139,45.725996],[5.094639,45.726796]]}},{"type":"Feature","id":"passenger-flow-syn-ap-mrs-t1","properties":{"airport_id":"SYN-AP-MRS","terminal_id":"SYN-AP-MRS-T1","flow_type":"Departures","illustrative_only":true,"is_synthetic":true,"data_classification":"Synthetic master data","geometry_disclaimer":"Illustrative synthetic geometry; not a real airport layout, boundary, route, or operational location.","generator_version":"4.0.0","random_seed":42},"geometry":{"type":"LineString","coordinates":[[5.208,43.437288],[5.2095,43.438088],[5.211,43.438888]]}},{"type":"Feature","id":"passenger-flow-syn-ap-mrs-t2","properties":{"airport_id":"SYN-AP-MRS","terminal_id":"SYN-AP-MRS-T2","flow_type":"Departures","illustrative_only":true,"is_synthetic":true,"data_classification":"Synthetic master data","geometry_disclaimer":"Illustrative synthetic geometry; not a real airport layout, boundary, route, or operational location.","generator_version":"4.0.0","random_seed":42},"geometry":{"type":"LineString","coordinates":[[5.214,43.437288],[5.2155000000000005,43.438088],[5.2170000000000005,43.438888]]}},{"type":"Feature","id":"passenger-flow-syn-ap-tls-t1","properties":{"airport_id":"SYN-AP-TLS","terminal_id":"SYN-AP-TLS-T1","flow_type":"Departures","illustrative_only":true,"is_synthetic":true,"data_classification":"Synthetic master data","geometry_disclaimer":"Illustrative synthetic geometry; not a real airport layout, boundary, route, or operational location.","generator_version":"4.0.0","random_seed":42},"geometry":{"type":"LineString","coordinates":[[1.35932,43.628301],[1.3608200000000001,43.629101],[1.3623200000000002,43.629901]]}},{"type":"Feature","id":"passenger-flow-syn-ap-tls-t2","properties":{"airport_id":"SYN-AP-TLS","terminal_id":"SYN-AP-TLS-T2","flow_type":"Departures","illustrative_only":true,"is_synthetic":true,"data_classification":"Synthetic master data","geometry_disclaimer":"Illustrative synthetic geometry; not a real airport layout, boundary, route, or operational location.","generator_version":"4.0.0","random_seed":42},"geometry":{"type":"LineString","coordinates":[[1.3653199999999999,43.628301],[1.36682,43.629101],[1.36832,43.629901]]}},{"type":"Feature","id":"passenger-flow-syn-ap-fco-t1","properties":{"airport_id":"SYN-AP-FCO","terminal_id":"SYN-AP-FCO-T1","flow_type":"Departures","illustrative_only":true,"is_synthetic":true,"data_classification":"Synthetic master data","geometry_disclaimer":"Illustrative synthetic geometry; not a real airport layout, boundary, route, or operational location.","generator_version":"4.0.0","random_seed":42},"geometry":{"type":"LineString","coordinates":[[12.247498,41.803732000000004],[12.248998,41.804532],[12.250498,41.805332]]}},{"type":"Feature","id":"passenger-flow-syn-ap-fco-t2","properties":{"airport_id":"SYN-AP-FCO","terminal_id":"SYN-AP-FCO-T2","flow_type":"Departures","illustrative_only":true,"is_synthetic":true,"data_classification":"Synthetic master data","geometry_disclaimer":"Illustrative synthetic geometry; not a real airport layout, boundary, route, or operational location.","generator_version":"4.0.0","random_seed":42},"geometry":{"type":"LineString","coordinates":[[12.253498,41.803732000000004],[12.254998,41.804532],[12.256498,41.805332]]}},{"type":"Feature","id":"passenger-flow-syn-ap-mxp-t1","properties":{"airport_id":"SYN-AP-MXP","terminal_id":"SYN-AP-MXP-T1","flow_type":"Departures","illustrative_only":true,"is_synthetic":true,"data_classification":"Synthetic master data","geometry_disclaimer":"Illustrative synthetic geometry; not a real airport layout, boundary, route, or operational location.","generator_version":"4.0.0","random_seed":42},"geometry":{"type":"LineString","coordinates":[[8.723609999999999,45.6298],[8.725109999999999,45.6306],[8.726609999999999,45.6314]]}},{"type":"Feature","id":"passenger-flow-syn-ap-mxp-t2","properties":{"airport_id":"SYN-AP-MXP","terminal_id":"SYN-AP-MXP-T2","flow_type":"Departures","illustrative_only":true,"is_synthetic":true,"data_classification":"Synthetic master data","geometry_disclaimer":"Illustrative synthetic geometry; not a real airport layout, boundary, route, or operational location.","generator_version":"4.0.0","random_seed":42},"geometry":{"type":"LineString","coordinates":[[8.72961,45.6298],[8.73111,45.6306],[8.73261,45.6314]]}},{"type":"Feature","id":"passenger-flow-syn-ap-vce-t1","properties":{"airport_id":"SYN-AP-VCE","terminal_id":"SYN-AP-VCE-T1","flow_type":"Departures","illustrative_only":true,"is_synthetic":true,"data_classification":"Synthetic master data","geometry_disclaimer":"Illustrative synthetic geometry; not a real airport layout, boundary, route, or operational location.","generator_version":"4.0.0","random_seed":42},"geometry":{"type":"LineString","coordinates":[[12.3474,45.504499],[12.3489,45.505299],[12.3504,45.506099]]}},{"type":"Feature","id":"passenger-flow-syn-ap-vce-t2","properties":{"airport_id":"SYN-AP-VCE","terminal_id":"SYN-AP-VCE-T2","flow_type":"Departures","illustrative_only":true,"is_synthetic":true,"data_classification":"Synthetic master data","geometry_disclaimer":"Illustrative synthetic geometry; not a real airport layout, boundary, route, or operational location.","generator_version":"4.0.0","random_seed":42},"geometry":{"type":"LineString","coordinates":[[12.3534,45.504499],[12.3549,45.505299],[12.3564,45.506099]]}},{"type":"Feature","id":"passenger-flow-syn-ap-nap-t1","properties":{"airport_id":"SYN-AP-NAP","terminal_id":"SYN-AP-NAP-T1","flow_type":"Departures","illustrative_only":true,"is_synthetic":true,"data_classification":"Synthetic master data","geometry_disclaimer":"Illustrative synthetic geometry; not a real airport layout, boundary, route, or operational location.","generator_version":"4.0.0","random_seed":42},"geometry":{"type":"LineString","coordinates":[[14.2863,40.885202],[14.2878,40.886002],[14.2893,40.886801999999996]]}},{"type":"Feature","id":"passenger-flow-syn-ap-nap-t2","properties":{"airport_id":"SYN-AP-NAP","terminal_id":"SYN-AP-NAP-T2","flow_type":"Departures","illustrative_only":true,"is_synthetic":true,"data_classification":"Synthetic master data","geometry_disclaimer":"Illustrative synthetic geometry; not a real airport layout, boundary, route, or operational location.","generator_version":"4.0.0","random_seed":42},"geometry":{"type":"LineString","coordinates":[[14.292300000000001,40.885202],[14.293800000000001,40.886002],[14.295300000000001,40.886801999999996]]}},{"type":"Feature","id":"passenger-flow-syn-ap-blq-t1","properties":{"airport_id":"SYN-AP-BLQ","terminal_id":"SYN-AP-BLQ-T1","flow_type":"Departures","illustrative_only":true,"is_synthetic":true,"data_classification":"Synthetic master data","geometry_disclaimer":"Illustrative synthetic geometry; not a real airport layout, boundary, route, or operational location.","generator_version":"4.0.0","random_seed":42},"geometry":{"type":"LineString","coordinates":[[11.2842,44.534600000000005],[11.2857,44.5354],[11.2872,44.5362]]}},{"type":"Feature","id":"passenger-flow-syn-ap-blq-t2","properties":{"airport_id":"SYN-AP-BLQ","terminal_id":"SYN-AP-BLQ-T2","flow_type":"Departures","illustrative_only":true,"is_synthetic":true,"data_classification":"Synthetic master data","geometry_disclaimer":"Illustrative synthetic geometry; not a real airport layout, boundary, route, or operational location.","generator_version":"4.0.0","random_seed":42},"geometry":{"type":"LineString","coordinates":[[11.2902,44.534600000000005],[11.2917,44.5354],[11.2932,44.5362]]}},{"type":"Feature","id":"passenger-flow-syn-ap-lis-t1","properties":{"airport_id":"SYN-AP-LIS","terminal_id":"SYN-AP-LIS-T1","flow_type":"Departures","illustrative_only":true,"is_synthetic":true,"data_classification":"Synthetic master data","geometry_disclaimer":"Illustrative synthetic geometry; not a real airport layout, boundary, route, or operational location.","generator_version":"4.0.0","random_seed":42},"geometry":{"type":"LineString","coordinates":[[-9.14042,38.7805],[-9.13892,38.7813],[-9.13742,38.7821]]}},{"type":"Feature","id":"passenger-flow-syn-ap-lis-t2","properties":{"airport_id":"SYN-AP-LIS","terminal_id":"SYN-AP-LIS-T2","flow_type":"Departures","illustrative_only":true,"is_synthetic":true,"data_classification":"Synthetic master data","geometry_disclaimer":"Illustrative synthetic geometry; not a real airport layout, boundary, route, or operational location.","generator_version":"4.0.0","random_seed":42},"geometry":{"type":"LineString","coordinates":[[-9.13442,38.7805],[-9.13292,38.7813],[-9.13142,38.7821]]}},{"type":"Feature","id":"passenger-flow-syn-ap-opo-t1","properties":{"airport_id":"SYN-AP-OPO","terminal_id":"SYN-AP-OPO-T1","flow_type":"Departures","illustrative_only":true,"is_synthetic":true,"data_classification":"Synthetic master data","geometry_disclaimer":"Illustrative synthetic geometry; not a real airport layout, boundary, route, or operational location.","generator_version":"4.0.0","random_seed":42},"geometry":{"type":"LineString","coordinates":[[-8.68588980865,41.247300280800005],[-8.68438980865,41.2481002808],[-8.68288980865,41.2489002808]]}},{"type":"Feature","id":"passenger-flow-syn-ap-opo-t2","properties":{"airport_id":"SYN-AP-OPO","terminal_id":"SYN-AP-OPO-T2","flow_type":"Departures","illustrative_only":true,"is_synthetic":true,"data_classification":"Synthetic master data","geometry_disclaimer":"Illustrative synthetic geometry; not a real airport layout, boundary, route, or operational location.","generator_version":"4.0.0","random_seed":42},"geometry":{"type":"LineString","coordinates":[[-8.67988980865,41.247300280800005],[-8.67838980865,41.2481002808],[-8.67688980865,41.2489002808]]}},{"type":"Feature","id":"passenger-flow-syn-ap-fao-t1","properties":{"airport_id":"SYN-AP-FAO","terminal_id":"SYN-AP-FAO-T1","flow_type":"Departures","illustrative_only":true,"is_synthetic":true,"data_classification":"Synthetic master data","geometry_disclaimer":"Illustrative synthetic geometry; not a real airport layout, boundary, route, or operational location.","generator_version":"4.0.0","random_seed":42},"geometry":{"type":"LineString","coordinates":[[-7.975439000000001,37.015109],[-7.9739390000000006,37.015909],[-7.9724390000000005,37.016709]]}},{"type":"Feature","id":"passenger-flow-syn-ap-fao-t2","properties":{"airport_id":"SYN-AP-FAO","terminal_id":"SYN-AP-FAO-T2","flow_type":"Departures","illustrative_only":true,"is_synthetic":true,"data_classification":"Synthetic master data","geometry_disclaimer":"Illustrative synthetic geometry; not a real airport layout, boundary, route, or operational location.","generator_version":"4.0.0","random_seed":42},"geometry":{"type":"LineString","coordinates":[[-7.969439,37.015109],[-7.967939,37.015909],[-7.966439,37.016709]]}},{"type":"Feature","id":"passenger-flow-syn-ap-fnc-t1","properties":{"airport_id":"SYN-AP-FNC","terminal_id":"SYN-AP-FNC-T1","flow_type":"Departures","illustrative_only":true,"is_synthetic":true,"data_classification":"Synthetic master data","geometry_disclaimer":"Illustrative synthetic geometry; not a real airport layout, boundary, route, or operational location.","generator_version":"4.0.0","random_seed":42},"geometry":{"type":"LineString","coordinates":[[-16.779113,32.697012],[-16.777613,32.697812],[-16.776113,32.698612]]}},{"type":"Feature","id":"passenger-flow-syn-ap-fnc-t2","properties":{"airport_id":"SYN-AP-FNC","terminal_id":"SYN-AP-FNC-T2","flow_type":"Departures","illustrative_only":true,"is_synthetic":true,"data_classification":"Synthetic master data","geometry_disclaimer":"Illustrative synthetic geometry; not a real airport layout, boundary, route, or operational location.","generator_version":"4.0.0","random_seed":42},"geometry":{"type":"LineString","coordinates":[[-16.773113,32.697012],[-16.771613,32.697812],[-16.770113,32.698612]]}},{"type":"Feature","id":"passenger-flow-syn-ap-pdl-t1","properties":{"airport_id":"SYN-AP-PDL","terminal_id":"SYN-AP-PDL-T1","flow_type":"Departures","illustrative_only":true,"is_synthetic":true,"data_classification":"Synthetic master data","geometry_disclaimer":"Illustrative synthetic geometry; not a real airport layout, boundary, route, or operational location.","generator_version":"4.0.0","random_seed":42},"geometry":{"type":"LineString","coordinates":[[-25.7024007721,37.740399493400005],[-25.7009007721,37.7411994934],[-25.6994007721,37.7419994934]]}},{"type":"Feature","id":"passenger-flow-syn-ap-pdl-t2","properties":{"airport_id":"SYN-AP-PDL","terminal_id":"SYN-AP-PDL-T2","flow_type":"Departures","illustrative_only":true,"is_synthetic":true,"data_classification":"Synthetic master data","geometry_disclaimer":"Illustrative synthetic geometry; not a real airport layout, boundary, route, or operational location.","generator_version":"4.0.0","random_seed":42},"geometry":{"type":"LineString","coordinates":[[-25.6964007721,37.740399493400005],[-25.6949007721,37.7411994934],[-25.6934007721,37.7419994934]]}},{"type":"Feature","id":"passenger-flow-syn-ap-amm-t1","properties":{"airport_id":"SYN-AP-AMM","terminal_id":"SYN-AP-AMM-T1","flow_type":"Departures","illustrative_only":true,"is_synthetic":true,"data_classification":"Synthetic master data","geometry_disclaimer":"Illustrative synthetic geometry; not a real airport layout, boundary, route, or operational location.","generator_version":"4.0.0","random_seed":42},"geometry":{"type":"LineString","coordinates":[[35.9886983948,31.7218009369],[35.9901983948,31.7226009369],[35.9916983948,31.723400936900003]]}},{"type":"Feature","id":"passenger-flow-syn-ap-amm-t2","properties":{"airport_id":"SYN-AP-AMM","terminal_id":"SYN-AP-AMM-T2","flow_type":"Departures","illustrative_only":true,"is_synthetic":true,"data_classification":"Synthetic master data","geometry_disclaimer":"Illustrative synthetic geometry; not a real airport layout, boundary, route, or operational location.","generator_version":"4.0.0","random_seed":42},"geometry":{"type":"LineString","coordinates":[[35.9946983948,31.7218009369],[35.9961983948,31.7226009369],[35.9976983948,31.723400936900003]]}},{"type":"Feature","id":"passenger-flow-syn-ap-aqj-t1","properties":{"airport_id":"SYN-AP-AQJ","terminal_id":"SYN-AP-AQJ-T1","flow_type":"Departures","illustrative_only":true,"is_synthetic":true,"data_classification":"Synthetic master data","geometry_disclaimer":"Illustrative synthetic geometry; not a real airport layout, boundary, route, or operational location.","generator_version":"4.0.0","random_seed":42},"geometry":{"type":"LineString","coordinates":[[35.013601,29.610801],[35.015101,29.611601],[35.016601,29.612401000000002]]}},{"type":"Feature","id":"passenger-flow-syn-ap-aqj-t2","properties":{"airport_id":"SYN-AP-AQJ","terminal_id":"SYN-AP-AQJ-T2","flow_type":"Departures","illustrative_only":true,"is_synthetic":true,"data_classification":"Synthetic master data","geometry_disclaimer":"Illustrative synthetic geometry; not a real airport layout, boundary, route, or operational location.","generator_version":"4.0.0","random_seed":42},"geometry":{"type":"LineString","coordinates":[[35.019601,29.610801],[35.021101,29.611601],[35.022601,29.612401000000002]]}}]}
