{"type":"FeatureCollection","name":"routes","features":[{"type":"Feature","id":"route-syn-route-cdg-ory","properties":{"route_id":"SYN-ROUTE-CDG-ORY","origin_airport_id":"SYN-AP-CDG","destination_airport_id":"SYN-AP-ORY","feature_type":"SyntheticRoute","illustrative_only":true,"schedule_representation":false,"is_synthetic":true,"data_classification":"Synthetic master data","geometry_disclaimer":"Illustrative synthetic geometry; not a real airport layout, boundary, route, or operational location.","generator_version":"4.0.0","random_seed":42},"geometry":{"type":"LineString","coordinates":[[2.554117,49.00896],[2.358963,48.729499]]}},{"type":"Feature","id":"route-syn-route-ory-nce","properties":{"route_id":"SYN-ROUTE-ORY-NCE","origin_airport_id":"SYN-AP-ORY","destination_airport_id":"SYN-AP-NCE","feature_type":"SyntheticRoute","illustrative_only":true,"schedule_representation":false,"is_synthetic":true,"data_classification":"Synthetic master data","geometry_disclaimer":"Illustrative synthetic geometry; not a real airport layout, boundary, route, or operational location.","generator_version":"4.0.0","random_seed":42},"geometry":{"type":"LineString","coordinates":[[2.358963,48.729499],[7.21587,43.658401]]}},{"type":"Feature","id":"route-syn-route-nce-lys","properties":{"route_id":"SYN-ROUTE-NCE-LYS","origin_airport_id":"SYN-AP-NCE","destination_airport_id":"SYN-AP-LYS","feature_type":"SyntheticRoute","illustrative_only":true,"schedule_representation":false,"is_synthetic":true,"data_classification":"Synthetic master data","geometry_disclaimer":"Illustrative synthetic geometry; not a real airport layout, boundary, route, or operational location.","generator_version":"4.0.0","random_seed":42},"geometry":{"type":"LineString","coordinates":[[7.21587,43.658401],[5.090139,45.725996]]}},{"type":"Feature","id":"route-syn-route-lys-mrs","properties":{"route_id":"SYN-ROUTE-LYS-MRS","origin_airport_id":"SYN-AP-LYS","destination_airport_id":"SYN-AP-MRS","feature_type":"SyntheticRoute","illustrative_only":true,"schedule_representation":false,"is_synthetic":true,"data_classification":"Synthetic master data","geometry_disclaimer":"Illustrative synthetic geometry; not a real airport layout, boundary, route, or operational location.","generator_version":"4.0.0","random_seed":42},"geometry":{"type":"LineString","coordinates":[[5.090139,45.725996],[5.2125,43.438088]]}},{"type":"Feature","id":"route-syn-route-mrs-tls","properties":{"route_id":"SYN-ROUTE-MRS-TLS","origin_airport_id":"SYN-AP-MRS","destination_airport_id":"SYN-AP-TLS","feature_type":"SyntheticRoute","illustrative_only":true,"schedule_representation":false,"is_synthetic":true,"data_classification":"Synthetic master data","geometry_disclaimer":"Illustrative synthetic geometry; not a real airport layout, boundary, route, or operational location.","generator_version":"4.0.0","random_seed":42},"geometry":{"type":"LineString","coordinates":[[5.2125,43.438088],[1.36382,43.629101]]}},{"type":"Feature","id":"route-syn-route-tls-fco","properties":{"route_id":"SYN-ROUTE-TLS-FCO","origin_airport_id":"SYN-AP-TLS","destination_airport_id":"SYN-AP-FCO","feature_type":"SyntheticRoute","illustrative_only":true,"schedule_representation":false,"is_synthetic":true,"data_classification":"Synthetic master data","geometry_disclaimer":"Illustrative synthetic geometry; not a real airport layout, boundary, route, or operational location.","generator_version":"4.0.0","random_seed":42},"geometry":{"type":"LineString","coordinates":[[1.36382,43.629101],[12.251998,41.804532]]}},{"type":"Feature","id":"route-syn-route-fco-mxp","properties":{"route_id":"SYN-ROUTE-FCO-MXP","origin_airport_id":"SYN-AP-FCO","destination_airport_id":"SYN-AP-MXP","feature_type":"SyntheticRoute","illustrative_only":true,"schedule_representation":false,"is_synthetic":true,"data_classification":"Synthetic master data","geometry_disclaimer":"Illustrative synthetic geometry; not a real airport layout, boundary, route, or operational location.","generator_version":"4.0.0","random_seed":42},"geometry":{"type":"LineString","coordinates":[[12.251998,41.804532],[8.72811,45.6306]]}},{"type":"Feature","id":"route-syn-route-mxp-vce","properties":{"route_id":"SYN-ROUTE-MXP-VCE","origin_airport_id":"SYN-AP-MXP","destination_airport_id":"SYN-AP-VCE","feature_type":"SyntheticRoute","illustrative_only":true,"schedule_representation":false,"is_synthetic":true,"data_classification":"Synthetic master data","geometry_disclaimer":"Illustrative synthetic geometry; not a real airport layout, boundary, route, or operational location.","generator_version":"4.0.0","random_seed":42},"geometry":{"type":"LineString","coordinates":[[8.72811,45.6306],[12.3519,45.505299]]}},{"type":"Feature","id":"route-syn-route-vce-nap","properties":{"route_id":"SYN-ROUTE-VCE-NAP","origin_airport_id":"SYN-AP-VCE","destination_airport_id":"SYN-AP-NAP","feature_type":"SyntheticRoute","illustrative_only":true,"schedule_representation":false,"is_synthetic":true,"data_classification":"Synthetic master data","geometry_disclaimer":"Illustrative synthetic geometry; not a real airport layout, boundary, route, or operational location.","generator_version":"4.0.0","random_seed":42},"geometry":{"type":"LineString","coordinates":[[12.3519,45.505299],[14.2908,40.886002]]}},{"type":"Feature","id":"route-syn-route-nap-blq","properties":{"route_id":"SYN-ROUTE-NAP-BLQ","origin_airport_id":"SYN-AP-NAP","destination_airport_id":"SYN-AP-BLQ","feature_type":"SyntheticRoute","illustrative_only":true,"schedule_representation":false,"is_synthetic":true,"data_classification":"Synthetic master data","geometry_disclaimer":"Illustrative synthetic geometry; not a real airport layout, boundary, route, or operational location.","generator_version":"4.0.0","random_seed":42},"geometry":{"type":"LineString","coordinates":[[14.2908,40.886002],[11.2887,44.5354]]}},{"type":"Feature","id":"route-syn-route-blq-lis","properties":{"route_id":"SYN-ROUTE-BLQ-LIS","origin_airport_id":"SYN-AP-BLQ","destination_airport_id":"SYN-AP-LIS","feature_type":"SyntheticRoute","illustrative_only":true,"schedule_representation":false,"is_synthetic":true,"data_classification":"Synthetic master data","geometry_disclaimer":"Illustrative synthetic geometry; not a real airport layout, boundary, route, or operational location.","generator_version":"4.0.0","random_seed":42},"geometry":{"type":"LineString","coordinates":[[11.2887,44.5354],[-9.13592,38.7813]]}},{"type":"Feature","id":"route-syn-route-lis-opo","properties":{"route_id":"SYN-ROUTE-LIS-OPO","origin_airport_id":"SYN-AP-LIS","destination_airport_id":"SYN-AP-OPO","feature_type":"SyntheticRoute","illustrative_only":true,"schedule_representation":false,"is_synthetic":true,"data_classification":"Synthetic master data","geometry_disclaimer":"Illustrative synthetic geometry; not a real airport layout, boundary, route, or operational location.","generator_version":"4.0.0","random_seed":42},"geometry":{"type":"LineString","coordinates":[[-9.13592,38.7813],[-8.68138980865,41.2481002808]]}},{"type":"Feature","id":"route-syn-route-opo-fao","properties":{"route_id":"SYN-ROUTE-OPO-FAO","origin_airport_id":"SYN-AP-OPO","destination_airport_id":"SYN-AP-FAO","feature_type":"SyntheticRoute","illustrative_only":true,"schedule_representation":false,"is_synthetic":true,"data_classification":"Synthetic master data","geometry_disclaimer":"Illustrative synthetic geometry; not a real airport layout, boundary, route, or operational location.","generator_version":"4.0.0","random_seed":42},"geometry":{"type":"LineString","coordinates":[[-8.68138980865,41.2481002808],[-7.970939,37.015909]]}},{"type":"Feature","id":"route-syn-route-fao-fnc","properties":{"route_id":"SYN-ROUTE-FAO-FNC","origin_airport_id":"SYN-AP-FAO","destination_airport_id":"SYN-AP-FNC","feature_type":"SyntheticRoute","illustrative_only":true,"schedule_representation":false,"is_synthetic":true,"data_classification":"Synthetic master data","geometry_disclaimer":"Illustrative synthetic geometry; not a real airport layout, boundary, route, or operational location.","generator_version":"4.0.0","random_seed":42},"geometry":{"type":"LineString","coordinates":[[-7.970939,37.015909],[-16.774613,32.697812]]}},{"type":"Feature","id":"route-syn-route-fnc-pdl","properties":{"route_id":"SYN-ROUTE-FNC-PDL","origin_airport_id":"SYN-AP-FNC","destination_airport_id":"SYN-AP-PDL","feature_type":"SyntheticRoute","illustrative_only":true,"schedule_representation":false,"is_synthetic":true,"data_classification":"Synthetic master data","geometry_disclaimer":"Illustrative synthetic geometry; not a real airport layout, boundary, route, or operational location.","generator_version":"4.0.0","random_seed":42},"geometry":{"type":"LineString","coordinates":[[-16.774613,32.697812],[-25.6979007721,37.7411994934]]}},{"type":"Feature","id":"route-syn-route-pdl-amm","properties":{"route_id":"SYN-ROUTE-PDL-AMM","origin_airport_id":"SYN-AP-PDL","destination_airport_id":"SYN-AP-AMM","feature_type":"SyntheticRoute","illustrative_only":true,"schedule_representation":false,"is_synthetic":true,"data_classification":"Synthetic master data","geometry_disclaimer":"Illustrative synthetic geometry; not a real airport layout, boundary, route, or operational location.","generator_version":"4.0.0","random_seed":42},"geometry":{"type":"LineString","coordinates":[[-25.6979007721,37.7411994934],[35.9931983948,31.7226009369]]}},{"type":"Feature","id":"route-syn-route-amm-aqj","properties":{"route_id":"SYN-ROUTE-AMM-AQJ","origin_airport_id":"SYN-AP-AMM","destination_airport_id":"SYN-AP-AQJ","feature_type":"SyntheticRoute","illustrative_only":true,"schedule_representation":false,"is_synthetic":true,"data_classification":"Synthetic master data","geometry_disclaimer":"Illustrative synthetic geometry; not a real airport layout, boundary, route, or operational location.","generator_version":"4.0.0","random_seed":42},"geometry":{"type":"LineString","coordinates":[[35.9931983948,31.7226009369],[35.018101,29.611601]]}},{"type":"Feature","id":"route-syn-route-aqj-cdg","properties":{"route_id":"SYN-ROUTE-AQJ-CDG","origin_airport_id":"SYN-AP-AQJ","destination_airport_id":"SYN-AP-CDG","feature_type":"SyntheticRoute","illustrative_only":true,"schedule_representation":false,"is_synthetic":true,"data_classification":"Synthetic master data","geometry_disclaimer":"Illustrative synthetic geometry; not a real airport layout, boundary, route, or operational location.","generator_version":"4.0.0","random_seed":42},"geometry":{"type":"LineString","coordinates":[[35.018101,29.611601],[2.554117,49.00896]]}}]}
