{"type":"FeatureCollection","name":"zones","features":[{"type":"Feature","id":"zone-syn-ap-cdg-t1-z1","properties":{"airport_id":"SYN-AP-CDG","terminal_id":"SYN-AP-CDG-T1","zone_id":"SYN-AP-CDG-T1-Z1","feature_type":"Zone","zone_type":"PublicProcessing","is_synthetic":true,"data_classification":"Synthetic master data","geometry_disclaimer":"Illustrative synthetic geometry; not a real airport layout, boundary, route, or operational location.","generator_version":"4.0.0","random_seed":42},"geometry":{"type":"Polygon","coordinates":[[[2.549217,49.007160000000006],[2.553017,49.007160000000006],[2.553017,49.00876],[2.549217,49.00876],[2.549217,49.007160000000006]]]}},{"type":"Feature","id":"zone-syn-ap-cdg-t1-z2","properties":{"airport_id":"SYN-AP-CDG","terminal_id":"SYN-AP-CDG-T1","zone_id":"SYN-AP-CDG-T1-Z2","feature_type":"Zone","zone_type":"SecureOperations","is_synthetic":true,"data_classification":"Synthetic master data","geometry_disclaimer":"Illustrative synthetic geometry; not a real airport layout, boundary, route, or operational location.","generator_version":"4.0.0","random_seed":42},"geometry":{"type":"Polygon","coordinates":[[[2.549217,49.00916],[2.553017,49.00916],[2.553017,49.01076],[2.549217,49.01076],[2.549217,49.00916]]]}},{"type":"Feature","id":"zone-syn-ap-cdg-t2-z1","properties":{"airport_id":"SYN-AP-CDG","terminal_id":"SYN-AP-CDG-T2","zone_id":"SYN-AP-CDG-T2-Z1","feature_type":"Zone","zone_type":"PublicProcessing","is_synthetic":true,"data_classification":"Synthetic master data","geometry_disclaimer":"Illustrative synthetic geometry; not a real airport layout, boundary, route, or operational location.","generator_version":"4.0.0","random_seed":42},"geometry":{"type":"Polygon","coordinates":[[[2.5552170000000003,49.007160000000006],[2.5590170000000003,49.007160000000006],[2.5590170000000003,49.00876],[2.5552170000000003,49.00876],[2.5552170000000003,49.007160000000006]]]}},{"type":"Feature","id":"zone-syn-ap-cdg-t2-z2","properties":{"airport_id":"SYN-AP-CDG","terminal_id":"SYN-AP-CDG-T2","zone_id":"SYN-AP-CDG-T2-Z2","feature_type":"Zone","zone_type":"SecureOperations","is_synthetic":true,"data_classification":"Synthetic master data","geometry_disclaimer":"Illustrative synthetic geometry; not a real airport layout, boundary, route, or operational location.","generator_version":"4.0.0","random_seed":42},"geometry":{"type":"Polygon","coordinates":[[[2.5552170000000003,49.00916],[2.5590170000000003,49.00916],[2.5590170000000003,49.01076],[2.5552170000000003,49.01076],[2.5552170000000003,49.00916]]]}},{"type":"Feature","id":"zone-syn-ap-ory-t1-z1","properties":{"airport_id":"SYN-AP-ORY","terminal_id":"SYN-AP-ORY-T1","zone_id":"SYN-AP-ORY-T1-Z1","feature_type":"Zone","zone_type":"PublicProcessing","is_synthetic":true,"data_classification":"Synthetic master data","geometry_disclaimer":"Illustrative synthetic geometry; not a real airport layout, boundary, route, or operational location.","generator_version":"4.0.0","random_seed":42},"geometry":{"type":"Polygon","coordinates":[[[2.354063,48.727699],[2.357863,48.727699],[2.357863,48.729299],[2.354063,48.729299],[2.354063,48.727699]]]}},{"type":"Feature","id":"zone-syn-ap-ory-t1-z2","properties":{"airport_id":"SYN-AP-ORY","terminal_id":"SYN-AP-ORY-T1","zone_id":"SYN-AP-ORY-T1-Z2","feature_type":"Zone","zone_type":"SecureOperations","is_synthetic":true,"data_classification":"Synthetic master data","geometry_disclaimer":"Illustrative synthetic geometry; not a real airport layout, boundary, route, or operational location.","generator_version":"4.0.0","random_seed":42},"geometry":{"type":"Polygon","coordinates":[[[2.354063,48.729699],[2.357863,48.729699],[2.357863,48.73129899999999],[2.354063,48.73129899999999],[2.354063,48.729699]]]}},{"type":"Feature","id":"zone-syn-ap-ory-t2-z1","properties":{"airport_id":"SYN-AP-ORY","terminal_id":"SYN-AP-ORY-T2","zone_id":"SYN-AP-ORY-T2-Z1","feature_type":"Zone","zone_type":"PublicProcessing","is_synthetic":true,"data_classification":"Synthetic master data","geometry_disclaimer":"Illustrative synthetic geometry; not a real airport layout, boundary, route, or operational location.","generator_version":"4.0.0","random_seed":42},"geometry":{"type":"Polygon","coordinates":[[[2.3600630000000002,48.727699],[2.3638630000000003,48.727699],[2.3638630000000003,48.729299],[2.3600630000000002,48.729299],[2.3600630000000002,48.727699]]]}},{"type":"Feature","id":"zone-syn-ap-ory-t2-z2","properties":{"airport_id":"SYN-AP-ORY","terminal_id":"SYN-AP-ORY-T2","zone_id":"SYN-AP-ORY-T2-Z2","feature_type":"Zone","zone_type":"SecureOperations","is_synthetic":true,"data_classification":"Synthetic master data","geometry_disclaimer":"Illustrative synthetic geometry; not a real airport layout, boundary, route, or operational location.","generator_version":"4.0.0","random_seed":42},"geometry":{"type":"Polygon","coordinates":[[[2.3600630000000002,48.729699],[2.3638630000000003,48.729699],[2.3638630000000003,48.73129899999999],[2.3600630000000002,48.73129899999999],[2.3600630000000002,48.729699]]]}},{"type":"Feature","id":"zone-syn-ap-nce-t1-z1","properties":{"airport_id":"SYN-AP-NCE","terminal_id":"SYN-AP-NCE-T1","zone_id":"SYN-AP-NCE-T1-Z1","feature_type":"Zone","zone_type":"PublicProcessing","is_synthetic":true,"data_classification":"Synthetic master data","geometry_disclaimer":"Illustrative synthetic geometry; not a real airport layout, boundary, route, or operational location.","generator_version":"4.0.0","random_seed":42},"geometry":{"type":"Polygon","coordinates":[[[7.21097,43.656601],[7.21477,43.656601],[7.21477,43.658201],[7.21097,43.658201],[7.21097,43.656601]]]}},{"type":"Feature","id":"zone-syn-ap-nce-t1-z2","properties":{"airport_id":"SYN-AP-NCE","terminal_id":"SYN-AP-NCE-T1","zone_id":"SYN-AP-NCE-T1-Z2","feature_type":"Zone","zone_type":"SecureOperations","is_synthetic":true,"data_classification":"Synthetic master data","geometry_disclaimer":"Illustrative synthetic geometry; not a real airport layout, boundary, route, or operational location.","generator_version":"4.0.0","random_seed":42},"geometry":{"type":"Polygon","coordinates":[[[7.21097,43.658601],[7.21477,43.658601],[7.21477,43.660200999999994],[7.21097,43.660200999999994],[7.21097,43.658601]]]}},{"type":"Feature","id":"zone-syn-ap-nce-t2-z1","properties":{"airport_id":"SYN-AP-NCE","terminal_id":"SYN-AP-NCE-T2","zone_id":"SYN-AP-NCE-T2-Z1","feature_type":"Zone","zone_type":"PublicProcessing","is_synthetic":true,"data_classification":"Synthetic master data","geometry_disclaimer":"Illustrative synthetic geometry; not a real airport layout, boundary, route, or operational location.","generator_version":"4.0.0","random_seed":42},"geometry":{"type":"Polygon","coordinates":[[[7.21697,43.656601],[7.22077,43.656601],[7.22077,43.658201],[7.21697,43.658201],[7.21697,43.656601]]]}},{"type":"Feature","id":"zone-syn-ap-nce-t2-z2","properties":{"airport_id":"SYN-AP-NCE","terminal_id":"SYN-AP-NCE-T2","zone_id":"SYN-AP-NCE-T2-Z2","feature_type":"Zone","zone_type":"SecureOperations","is_synthetic":true,"data_classification":"Synthetic master data","geometry_disclaimer":"Illustrative synthetic geometry; not a real airport layout, boundary, route, or operational location.","generator_version":"4.0.0","random_seed":42},"geometry":{"type":"Polygon","coordinates":[[[7.21697,43.658601],[7.22077,43.658601],[7.22077,43.660200999999994],[7.21697,43.660200999999994],[7.21697,43.658601]]]}},{"type":"Feature","id":"zone-syn-ap-lys-t1-z1","properties":{"airport_id":"SYN-AP-LYS","terminal_id":"SYN-AP-LYS-T1","zone_id":"SYN-AP-LYS-T1-Z1","feature_type":"Zone","zone_type":"PublicProcessing","is_synthetic":true,"data_classification":"Synthetic master data","geometry_disclaimer":"Illustrative synthetic geometry; not a real airport layout, boundary, route, or operational location.","generator_version":"4.0.0","random_seed":42},"geometry":{"type":"Polygon","coordinates":[[[5.085239,45.724196000000006],[5.089039,45.724196000000006],[5.089039,45.725796],[5.085239,45.725796],[5.085239,45.724196000000006]]]}},{"type":"Feature","id":"zone-syn-ap-lys-t1-z2","properties":{"airport_id":"SYN-AP-LYS","terminal_id":"SYN-AP-LYS-T1","zone_id":"SYN-AP-LYS-T1-Z2","feature_type":"Zone","zone_type":"SecureOperations","is_synthetic":true,"data_classification":"Synthetic master data","geometry_disclaimer":"Illustrative synthetic geometry; not a real airport layout, boundary, route, or operational location.","generator_version":"4.0.0","random_seed":42},"geometry":{"type":"Polygon","coordinates":[[[5.085239,45.726196],[5.089039,45.726196],[5.089039,45.727796],[5.085239,45.727796],[5.085239,45.726196]]]}},{"type":"Feature","id":"zone-syn-ap-lys-t2-z1","properties":{"airport_id":"SYN-AP-LYS","terminal_id":"SYN-AP-LYS-T2","zone_id":"SYN-AP-LYS-T2-Z1","feature_type":"Zone","zone_type":"PublicProcessing","is_synthetic":true,"data_classification":"Synthetic master data","geometry_disclaimer":"Illustrative synthetic geometry; not a real airport layout, boundary, route, or operational location.","generator_version":"4.0.0","random_seed":42},"geometry":{"type":"Polygon","coordinates":[[[5.091239,45.724196000000006],[5.095039,45.724196000000006],[5.095039,45.725796],[5.091239,45.725796],[5.091239,45.724196000000006]]]}},{"type":"Feature","id":"zone-syn-ap-lys-t2-z2","properties":{"airport_id":"SYN-AP-LYS","terminal_id":"SYN-AP-LYS-T2","zone_id":"SYN-AP-LYS-T2-Z2","feature_type":"Zone","zone_type":"SecureOperations","is_synthetic":true,"data_classification":"Synthetic master data","geometry_disclaimer":"Illustrative synthetic geometry; not a real airport layout, boundary, route, or operational location.","generator_version":"4.0.0","random_seed":42},"geometry":{"type":"Polygon","coordinates":[[[5.091239,45.726196],[5.095039,45.726196],[5.095039,45.727796],[5.091239,45.727796],[5.091239,45.726196]]]}},{"type":"Feature","id":"zone-syn-ap-mrs-t1-z1","properties":{"airport_id":"SYN-AP-MRS","terminal_id":"SYN-AP-MRS-T1","zone_id":"SYN-AP-MRS-T1-Z1","feature_type":"Zone","zone_type":"PublicProcessing","is_synthetic":true,"data_classification":"Synthetic master data","geometry_disclaimer":"Illustrative synthetic geometry; not a real airport layout, boundary, route, or operational location.","generator_version":"4.0.0","random_seed":42},"geometry":{"type":"Polygon","coordinates":[[[5.2076,43.436288000000005],[5.2114,43.436288000000005],[5.2114,43.437888],[5.2076,43.437888],[5.2076,43.436288000000005]]]}},{"type":"Feature","id":"zone-syn-ap-mrs-t1-z2","properties":{"airport_id":"SYN-AP-MRS","terminal_id":"SYN-AP-MRS-T1","zone_id":"SYN-AP-MRS-T1-Z2","feature_type":"Zone","zone_type":"SecureOperations","is_synthetic":true,"data_classification":"Synthetic master data","geometry_disclaimer":"Illustrative synthetic geometry; not a real airport layout, boundary, route, or operational location.","generator_version":"4.0.0","random_seed":42},"geometry":{"type":"Polygon","coordinates":[[[5.2076,43.438288],[5.2114,43.438288],[5.2114,43.439887999999996],[5.2076,43.439887999999996],[5.2076,43.438288]]]}},{"type":"Feature","id":"zone-syn-ap-mrs-t2-z1","properties":{"airport_id":"SYN-AP-MRS","terminal_id":"SYN-AP-MRS-T2","zone_id":"SYN-AP-MRS-T2-Z1","feature_type":"Zone","zone_type":"PublicProcessing","is_synthetic":true,"data_classification":"Synthetic master data","geometry_disclaimer":"Illustrative synthetic geometry; not a real airport layout, boundary, route, or operational location.","generator_version":"4.0.0","random_seed":42},"geometry":{"type":"Polygon","coordinates":[[[5.2136000000000005,43.436288000000005],[5.2174000000000005,43.436288000000005],[5.2174000000000005,43.437888],[5.2136000000000005,43.437888],[5.2136000000000005,43.436288000000005]]]}},{"type":"Feature","id":"zone-syn-ap-mrs-t2-z2","properties":{"airport_id":"SYN-AP-MRS","terminal_id":"SYN-AP-MRS-T2","zone_id":"SYN-AP-MRS-T2-Z2","feature_type":"Zone","zone_type":"SecureOperations","is_synthetic":true,"data_classification":"Synthetic master data","geometry_disclaimer":"Illustrative synthetic geometry; not a real airport layout, boundary, route, or operational location.","generator_version":"4.0.0","random_seed":42},"geometry":{"type":"Polygon","coordinates":[[[5.2136000000000005,43.438288],[5.2174000000000005,43.438288],[5.2174000000000005,43.439887999999996],[5.2136000000000005,43.439887999999996],[5.2136000000000005,43.438288]]]}},{"type":"Feature","id":"zone-syn-ap-tls-t1-z1","properties":{"airport_id":"SYN-AP-TLS","terminal_id":"SYN-AP-TLS-T1","zone_id":"SYN-AP-TLS-T1-Z1","feature_type":"Zone","zone_type":"PublicProcessing","is_synthetic":true,"data_classification":"Synthetic master data","geometry_disclaimer":"Illustrative synthetic geometry; not a real airport layout, boundary, route, or operational location.","generator_version":"4.0.0","random_seed":42},"geometry":{"type":"Polygon","coordinates":[[[1.3589200000000001,43.627301],[1.3627200000000002,43.627301],[1.3627200000000002,43.628901],[1.3589200000000001,43.628901],[1.3589200000000001,43.627301]]]}},{"type":"Feature","id":"zone-syn-ap-tls-t1-z2","properties":{"airport_id":"SYN-AP-TLS","terminal_id":"SYN-AP-TLS-T1","zone_id":"SYN-AP-TLS-T1-Z2","feature_type":"Zone","zone_type":"SecureOperations","is_synthetic":true,"data_classification":"Synthetic master data","geometry_disclaimer":"Illustrative synthetic geometry; not a real airport layout, boundary, route, or operational location.","generator_version":"4.0.0","random_seed":42},"geometry":{"type":"Polygon","coordinates":[[[1.3589200000000001,43.629301],[1.3627200000000002,43.629301],[1.3627200000000002,43.630900999999994],[1.3589200000000001,43.630900999999994],[1.3589200000000001,43.629301]]]}},{"type":"Feature","id":"zone-syn-ap-tls-t2-z1","properties":{"airport_id":"SYN-AP-TLS","terminal_id":"SYN-AP-TLS-T2","zone_id":"SYN-AP-TLS-T2-Z1","feature_type":"Zone","zone_type":"PublicProcessing","is_synthetic":true,"data_classification":"Synthetic master data","geometry_disclaimer":"Illustrative synthetic geometry; not a real airport layout, boundary, route, or operational location.","generator_version":"4.0.0","random_seed":42},"geometry":{"type":"Polygon","coordinates":[[[1.36492,43.627301],[1.36872,43.627301],[1.36872,43.628901],[1.36492,43.628901],[1.36492,43.627301]]]}},{"type":"Feature","id":"zone-syn-ap-tls-t2-z2","properties":{"airport_id":"SYN-AP-TLS","terminal_id":"SYN-AP-TLS-T2","zone_id":"SYN-AP-TLS-T2-Z2","feature_type":"Zone","zone_type":"SecureOperations","is_synthetic":true,"data_classification":"Synthetic master data","geometry_disclaimer":"Illustrative synthetic geometry; not a real airport layout, boundary, route, or operational location.","generator_version":"4.0.0","random_seed":42},"geometry":{"type":"Polygon","coordinates":[[[1.36492,43.629301],[1.36872,43.629301],[1.36872,43.630900999999994],[1.36492,43.630900999999994],[1.36492,43.629301]]]}},{"type":"Feature","id":"zone-syn-ap-fco-t1-z1","properties":{"airport_id":"SYN-AP-FCO","terminal_id":"SYN-AP-FCO-T1","zone_id":"SYN-AP-FCO-T1-Z1","feature_type":"Zone","zone_type":"PublicProcessing","is_synthetic":true,"data_classification":"Synthetic master data","geometry_disclaimer":"Illustrative synthetic geometry; not a real airport layout, boundary, route, or operational location.","generator_version":"4.0.0","random_seed":42},"geometry":{"type":"Polygon","coordinates":[[[12.247098000000001,41.802732000000006],[12.250898,41.802732000000006],[12.250898,41.804332],[12.247098000000001,41.804332],[12.247098000000001,41.802732000000006]]]}},{"type":"Feature","id":"zone-syn-ap-fco-t1-z2","properties":{"airport_id":"SYN-AP-FCO","terminal_id":"SYN-AP-FCO-T1","zone_id":"SYN-AP-FCO-T1-Z2","feature_type":"Zone","zone_type":"SecureOperations","is_synthetic":true,"data_classification":"Synthetic master data","geometry_disclaimer":"Illustrative synthetic geometry; not a real airport layout, boundary, route, or operational location.","generator_version":"4.0.0","random_seed":42},"geometry":{"type":"Polygon","coordinates":[[[12.247098000000001,41.804732],[12.250898,41.804732],[12.250898,41.806332],[12.247098000000001,41.806332],[12.247098000000001,41.804732]]]}},{"type":"Feature","id":"zone-syn-ap-fco-t2-z1","properties":{"airport_id":"SYN-AP-FCO","terminal_id":"SYN-AP-FCO-T2","zone_id":"SYN-AP-FCO-T2-Z1","feature_type":"Zone","zone_type":"PublicProcessing","is_synthetic":true,"data_classification":"Synthetic master data","geometry_disclaimer":"Illustrative synthetic geometry; not a real airport layout, boundary, route, or operational location.","generator_version":"4.0.0","random_seed":42},"geometry":{"type":"Polygon","coordinates":[[[12.253098000000001,41.802732000000006],[12.256898,41.802732000000006],[12.256898,41.804332],[12.253098000000001,41.804332],[12.253098000000001,41.802732000000006]]]}},{"type":"Feature","id":"zone-syn-ap-fco-t2-z2","properties":{"airport_id":"SYN-AP-FCO","terminal_id":"SYN-AP-FCO-T2","zone_id":"SYN-AP-FCO-T2-Z2","feature_type":"Zone","zone_type":"SecureOperations","is_synthetic":true,"data_classification":"Synthetic master data","geometry_disclaimer":"Illustrative synthetic geometry; not a real airport layout, boundary, route, or operational location.","generator_version":"4.0.0","random_seed":42},"geometry":{"type":"Polygon","coordinates":[[[12.253098000000001,41.804732],[12.256898,41.804732],[12.256898,41.806332],[12.253098000000001,41.806332],[12.253098000000001,41.804732]]]}},{"type":"Feature","id":"zone-syn-ap-mxp-t1-z1","properties":{"airport_id":"SYN-AP-MXP","terminal_id":"SYN-AP-MXP-T1","zone_id":"SYN-AP-MXP-T1-Z1","feature_type":"Zone","zone_type":"PublicProcessing","is_synthetic":true,"data_classification":"Synthetic master data","geometry_disclaimer":"Illustrative synthetic geometry; not a real airport layout, boundary, route, or operational location.","generator_version":"4.0.0","random_seed":42},"geometry":{"type":"Polygon","coordinates":[[[8.72321,45.628800000000005],[8.727009999999998,45.628800000000005],[8.727009999999998,45.6304],[8.72321,45.6304],[8.72321,45.628800000000005]]]}},{"type":"Feature","id":"zone-syn-ap-mxp-t1-z2","properties":{"airport_id":"SYN-AP-MXP","terminal_id":"SYN-AP-MXP-T1","zone_id":"SYN-AP-MXP-T1-Z2","feature_type":"Zone","zone_type":"SecureOperations","is_synthetic":true,"data_classification":"Synthetic master data","geometry_disclaimer":"Illustrative synthetic geometry; not a real airport layout, boundary, route, or operational location.","generator_version":"4.0.0","random_seed":42},"geometry":{"type":"Polygon","coordinates":[[[8.72321,45.6308],[8.727009999999998,45.6308],[8.727009999999998,45.6324],[8.72321,45.6324],[8.72321,45.6308]]]}},{"type":"Feature","id":"zone-syn-ap-mxp-t2-z1","properties":{"airport_id":"SYN-AP-MXP","terminal_id":"SYN-AP-MXP-T2","zone_id":"SYN-AP-MXP-T2-Z1","feature_type":"Zone","zone_type":"PublicProcessing","is_synthetic":true,"data_classification":"Synthetic master data","geometry_disclaimer":"Illustrative synthetic geometry; not a real airport layout, boundary, route, or operational location.","generator_version":"4.0.0","random_seed":42},"geometry":{"type":"Polygon","coordinates":[[[8.72921,45.628800000000005],[8.733009999999998,45.628800000000005],[8.733009999999998,45.6304],[8.72921,45.6304],[8.72921,45.628800000000005]]]}},{"type":"Feature","id":"zone-syn-ap-mxp-t2-z2","properties":{"airport_id":"SYN-AP-MXP","terminal_id":"SYN-AP-MXP-T2","zone_id":"SYN-AP-MXP-T2-Z2","feature_type":"Zone","zone_type":"SecureOperations","is_synthetic":true,"data_classification":"Synthetic master data","geometry_disclaimer":"Illustrative synthetic geometry; not a real airport layout, boundary, route, or operational location.","generator_version":"4.0.0","random_seed":42},"geometry":{"type":"Polygon","coordinates":[[[8.72921,45.6308],[8.733009999999998,45.6308],[8.733009999999998,45.6324],[8.72921,45.6324],[8.72921,45.6308]]]}},{"type":"Feature","id":"zone-syn-ap-vce-t1-z1","properties":{"airport_id":"SYN-AP-VCE","terminal_id":"SYN-AP-VCE-T1","zone_id":"SYN-AP-VCE-T1-Z1","feature_type":"Zone","zone_type":"PublicProcessing","is_synthetic":true,"data_classification":"Synthetic master data","geometry_disclaimer":"Illustrative synthetic geometry; not a real airport layout, boundary, route, or operational location.","generator_version":"4.0.0","random_seed":42},"geometry":{"type":"Polygon","coordinates":[[[12.347000000000001,45.503499000000005],[12.3508,45.503499000000005],[12.3508,45.505099],[12.347000000000001,45.505099],[12.347000000000001,45.503499000000005]]]}},{"type":"Feature","id":"zone-syn-ap-vce-t1-z2","properties":{"airport_id":"SYN-AP-VCE","terminal_id":"SYN-AP-VCE-T1","zone_id":"SYN-AP-VCE-T1-Z2","feature_type":"Zone","zone_type":"SecureOperations","is_synthetic":true,"data_classification":"Synthetic master data","geometry_disclaimer":"Illustrative synthetic geometry; not a real airport layout, boundary, route, or operational location.","generator_version":"4.0.0","random_seed":42},"geometry":{"type":"Polygon","coordinates":[[[12.347000000000001,45.505499],[12.3508,45.505499],[12.3508,45.507099],[12.347000000000001,45.507099],[12.347000000000001,45.505499]]]}},{"type":"Feature","id":"zone-syn-ap-vce-t2-z1","properties":{"airport_id":"SYN-AP-VCE","terminal_id":"SYN-AP-VCE-T2","zone_id":"SYN-AP-VCE-T2-Z1","feature_type":"Zone","zone_type":"PublicProcessing","is_synthetic":true,"data_classification":"Synthetic master data","geometry_disclaimer":"Illustrative synthetic geometry; not a real airport layout, boundary, route, or operational location.","generator_version":"4.0.0","random_seed":42},"geometry":{"type":"Polygon","coordinates":[[[12.353000000000002,45.503499000000005],[12.3568,45.503499000000005],[12.3568,45.505099],[12.353000000000002,45.505099],[12.353000000000002,45.503499000000005]]]}},{"type":"Feature","id":"zone-syn-ap-vce-t2-z2","properties":{"airport_id":"SYN-AP-VCE","terminal_id":"SYN-AP-VCE-T2","zone_id":"SYN-AP-VCE-T2-Z2","feature_type":"Zone","zone_type":"SecureOperations","is_synthetic":true,"data_classification":"Synthetic master data","geometry_disclaimer":"Illustrative synthetic geometry; not a real airport layout, boundary, route, or operational location.","generator_version":"4.0.0","random_seed":42},"geometry":{"type":"Polygon","coordinates":[[[12.353000000000002,45.505499],[12.3568,45.505499],[12.3568,45.507099],[12.353000000000002,45.507099],[12.353000000000002,45.505499]]]}},{"type":"Feature","id":"zone-syn-ap-nap-t1-z1","properties":{"airport_id":"SYN-AP-NAP","terminal_id":"SYN-AP-NAP-T1","zone_id":"SYN-AP-NAP-T1-Z1","feature_type":"Zone","zone_type":"PublicProcessing","is_synthetic":true,"data_classification":"Synthetic master data","geometry_disclaimer":"Illustrative synthetic geometry; not a real airport layout, boundary, route, or operational location.","generator_version":"4.0.0","random_seed":42},"geometry":{"type":"Polygon","coordinates":[[[14.285900000000002,40.884202],[14.2897,40.884202],[14.2897,40.885802],[14.285900000000002,40.885802],[14.285900000000002,40.884202]]]}},{"type":"Feature","id":"zone-syn-ap-nap-t1-z2","properties":{"airport_id":"SYN-AP-NAP","terminal_id":"SYN-AP-NAP-T1","zone_id":"SYN-AP-NAP-T1-Z2","feature_type":"Zone","zone_type":"SecureOperations","is_synthetic":true,"data_classification":"Synthetic master data","geometry_disclaimer":"Illustrative synthetic geometry; not a real airport layout, boundary, route, or operational location.","generator_version":"4.0.0","random_seed":42},"geometry":{"type":"Polygon","coordinates":[[[14.285900000000002,40.886202],[14.2897,40.886202],[14.2897,40.88780199999999],[14.285900000000002,40.88780199999999],[14.285900000000002,40.886202]]]}},{"type":"Feature","id":"zone-syn-ap-nap-t2-z1","properties":{"airport_id":"SYN-AP-NAP","terminal_id":"SYN-AP-NAP-T2","zone_id":"SYN-AP-NAP-T2-Z1","feature_type":"Zone","zone_type":"PublicProcessing","is_synthetic":true,"data_classification":"Synthetic master data","geometry_disclaimer":"Illustrative synthetic geometry; not a real airport layout, boundary, route, or operational location.","generator_version":"4.0.0","random_seed":42},"geometry":{"type":"Polygon","coordinates":[[[14.291900000000002,40.884202],[14.2957,40.884202],[14.2957,40.885802],[14.291900000000002,40.885802],[14.291900000000002,40.884202]]]}},{"type":"Feature","id":"zone-syn-ap-nap-t2-z2","properties":{"airport_id":"SYN-AP-NAP","terminal_id":"SYN-AP-NAP-T2","zone_id":"SYN-AP-NAP-T2-Z2","feature_type":"Zone","zone_type":"SecureOperations","is_synthetic":true,"data_classification":"Synthetic master data","geometry_disclaimer":"Illustrative synthetic geometry; not a real airport layout, boundary, route, or operational location.","generator_version":"4.0.0","random_seed":42},"geometry":{"type":"Polygon","coordinates":[[[14.291900000000002,40.886202],[14.2957,40.886202],[14.2957,40.88780199999999],[14.291900000000002,40.88780199999999],[14.291900000000002,40.886202]]]}},{"type":"Feature","id":"zone-syn-ap-blq-t1-z1","properties":{"airport_id":"SYN-AP-BLQ","terminal_id":"SYN-AP-BLQ-T1","zone_id":"SYN-AP-BLQ-T1-Z1","feature_type":"Zone","zone_type":"PublicProcessing","is_synthetic":true,"data_classification":"Synthetic master data","geometry_disclaimer":"Illustrative synthetic geometry; not a real airport layout, boundary, route, or operational location.","generator_version":"4.0.0","random_seed":42},"geometry":{"type":"Polygon","coordinates":[[[11.283800000000001,44.53360000000001],[11.2876,44.53360000000001],[11.2876,44.5352],[11.283800000000001,44.5352],[11.283800000000001,44.53360000000001]]]}},{"type":"Feature","id":"zone-syn-ap-blq-t1-z2","properties":{"airport_id":"SYN-AP-BLQ","terminal_id":"SYN-AP-BLQ-T1","zone_id":"SYN-AP-BLQ-T1-Z2","feature_type":"Zone","zone_type":"SecureOperations","is_synthetic":true,"data_classification":"Synthetic master data","geometry_disclaimer":"Illustrative synthetic geometry; not a real airport layout, boundary, route, or operational location.","generator_version":"4.0.0","random_seed":42},"geometry":{"type":"Polygon","coordinates":[[[11.283800000000001,44.5356],[11.2876,44.5356],[11.2876,44.5372],[11.283800000000001,44.5372],[11.283800000000001,44.5356]]]}},{"type":"Feature","id":"zone-syn-ap-blq-t2-z1","properties":{"airport_id":"SYN-AP-BLQ","terminal_id":"SYN-AP-BLQ-T2","zone_id":"SYN-AP-BLQ-T2-Z1","feature_type":"Zone","zone_type":"PublicProcessing","is_synthetic":true,"data_classification":"Synthetic master data","geometry_disclaimer":"Illustrative synthetic geometry; not a real airport layout, boundary, route, or operational location.","generator_version":"4.0.0","random_seed":42},"geometry":{"type":"Polygon","coordinates":[[[11.289800000000001,44.53360000000001],[11.2936,44.53360000000001],[11.2936,44.5352],[11.289800000000001,44.5352],[11.289800000000001,44.53360000000001]]]}},{"type":"Feature","id":"zone-syn-ap-blq-t2-z2","properties":{"airport_id":"SYN-AP-BLQ","terminal_id":"SYN-AP-BLQ-T2","zone_id":"SYN-AP-BLQ-T2-Z2","feature_type":"Zone","zone_type":"SecureOperations","is_synthetic":true,"data_classification":"Synthetic master data","geometry_disclaimer":"Illustrative synthetic geometry; not a real airport layout, boundary, route, or operational location.","generator_version":"4.0.0","random_seed":42},"geometry":{"type":"Polygon","coordinates":[[[11.289800000000001,44.5356],[11.2936,44.5356],[11.2936,44.5372],[11.289800000000001,44.5372],[11.289800000000001,44.5356]]]}},{"type":"Feature","id":"zone-syn-ap-lis-t1-z1","properties":{"airport_id":"SYN-AP-LIS","terminal_id":"SYN-AP-LIS-T1","zone_id":"SYN-AP-LIS-T1-Z1","feature_type":"Zone","zone_type":"PublicProcessing","is_synthetic":true,"data_classification":"Synthetic master data","geometry_disclaimer":"Illustrative synthetic geometry; not a real airport layout, boundary, route, or operational location.","generator_version":"4.0.0","random_seed":42},"geometry":{"type":"Polygon","coordinates":[[[-9.14082,38.779500000000006],[-9.137020000000001,38.779500000000006],[-9.137020000000001,38.7811],[-9.14082,38.7811],[-9.14082,38.779500000000006]]]}},{"type":"Feature","id":"zone-syn-ap-lis-t1-z2","properties":{"airport_id":"SYN-AP-LIS","terminal_id":"SYN-AP-LIS-T1","zone_id":"SYN-AP-LIS-T1-Z2","feature_type":"Zone","zone_type":"SecureOperations","is_synthetic":true,"data_classification":"Synthetic master data","geometry_disclaimer":"Illustrative synthetic geometry; not a real airport layout, boundary, route, or operational location.","generator_version":"4.0.0","random_seed":42},"geometry":{"type":"Polygon","coordinates":[[[-9.14082,38.7815],[-9.137020000000001,38.7815],[-9.137020000000001,38.7831],[-9.14082,38.7831],[-9.14082,38.7815]]]}},{"type":"Feature","id":"zone-syn-ap-lis-t2-z1","properties":{"airport_id":"SYN-AP-LIS","terminal_id":"SYN-AP-LIS-T2","zone_id":"SYN-AP-LIS-T2-Z1","feature_type":"Zone","zone_type":"PublicProcessing","is_synthetic":true,"data_classification":"Synthetic master data","geometry_disclaimer":"Illustrative synthetic geometry; not a real airport layout, boundary, route, or operational location.","generator_version":"4.0.0","random_seed":42},"geometry":{"type":"Polygon","coordinates":[[[-9.13482,38.779500000000006],[-9.131020000000001,38.779500000000006],[-9.131020000000001,38.7811],[-9.13482,38.7811],[-9.13482,38.779500000000006]]]}},{"type":"Feature","id":"zone-syn-ap-lis-t2-z2","properties":{"airport_id":"SYN-AP-LIS","terminal_id":"SYN-AP-LIS-T2","zone_id":"SYN-AP-LIS-T2-Z2","feature_type":"Zone","zone_type":"SecureOperations","is_synthetic":true,"data_classification":"Synthetic master data","geometry_disclaimer":"Illustrative synthetic geometry; not a real airport layout, boundary, route, or operational location.","generator_version":"4.0.0","random_seed":42},"geometry":{"type":"Polygon","coordinates":[[[-9.13482,38.7815],[-9.131020000000001,38.7815],[-9.131020000000001,38.7831],[-9.13482,38.7831],[-9.13482,38.7815]]]}},{"type":"Feature","id":"zone-syn-ap-opo-t1-z1","properties":{"airport_id":"SYN-AP-OPO","terminal_id":"SYN-AP-OPO-T1","zone_id":"SYN-AP-OPO-T1-Z1","feature_type":"Zone","zone_type":"PublicProcessing","is_synthetic":true,"data_classification":"Synthetic master data","geometry_disclaimer":"Illustrative synthetic geometry; not a real airport layout, boundary, route, or operational location.","generator_version":"4.0.0","random_seed":42},"geometry":{"type":"Polygon","coordinates":[[[-8.686289808649999,41.24630028080001],[-8.68248980865,41.24630028080001],[-8.68248980865,41.2479002808],[-8.686289808649999,41.2479002808],[-8.686289808649999,41.24630028080001]]]}},{"type":"Feature","id":"zone-syn-ap-opo-t1-z2","properties":{"airport_id":"SYN-AP-OPO","terminal_id":"SYN-AP-OPO-T1","zone_id":"SYN-AP-OPO-T1-Z2","feature_type":"Zone","zone_type":"SecureOperations","is_synthetic":true,"data_classification":"Synthetic master data","geometry_disclaimer":"Illustrative synthetic geometry; not a real airport layout, boundary, route, or operational location.","generator_version":"4.0.0","random_seed":42},"geometry":{"type":"Polygon","coordinates":[[[-8.686289808649999,41.2483002808],[-8.68248980865,41.2483002808],[-8.68248980865,41.2499002808],[-8.686289808649999,41.2499002808],[-8.686289808649999,41.2483002808]]]}},{"type":"Feature","id":"zone-syn-ap-opo-t2-z1","properties":{"airport_id":"SYN-AP-OPO","terminal_id":"SYN-AP-OPO-T2","zone_id":"SYN-AP-OPO-T2-Z1","feature_type":"Zone","zone_type":"PublicProcessing","is_synthetic":true,"data_classification":"Synthetic master data","geometry_disclaimer":"Illustrative synthetic geometry; not a real airport layout, boundary, route, or operational location.","generator_version":"4.0.0","random_seed":42},"geometry":{"type":"Polygon","coordinates":[[[-8.680289808649999,41.24630028080001],[-8.67648980865,41.24630028080001],[-8.67648980865,41.2479002808],[-8.680289808649999,41.2479002808],[-8.680289808649999,41.24630028080001]]]}},{"type":"Feature","id":"zone-syn-ap-opo-t2-z2","properties":{"airport_id":"SYN-AP-OPO","terminal_id":"SYN-AP-OPO-T2","zone_id":"SYN-AP-OPO-T2-Z2","feature_type":"Zone","zone_type":"SecureOperations","is_synthetic":true,"data_classification":"Synthetic master data","geometry_disclaimer":"Illustrative synthetic geometry; not a real airport layout, boundary, route, or operational location.","generator_version":"4.0.0","random_seed":42},"geometry":{"type":"Polygon","coordinates":[[[-8.680289808649999,41.2483002808],[-8.67648980865,41.2483002808],[-8.67648980865,41.2499002808],[-8.680289808649999,41.2499002808],[-8.680289808649999,41.2483002808]]]}},{"type":"Feature","id":"zone-syn-ap-fao-t1-z1","properties":{"airport_id":"SYN-AP-FAO","terminal_id":"SYN-AP-FAO-T1","zone_id":"SYN-AP-FAO-T1-Z1","feature_type":"Zone","zone_type":"PublicProcessing","is_synthetic":true,"data_classification":"Synthetic master data","geometry_disclaimer":"Illustrative synthetic geometry; not a real airport layout, boundary, route, or operational location.","generator_version":"4.0.0","random_seed":42},"geometry":{"type":"Polygon","coordinates":[[[-7.975839000000001,37.014109000000005],[-7.9720390000000005,37.014109000000005],[-7.9720390000000005,37.015709],[-7.975839000000001,37.015709],[-7.975839000000001,37.014109000000005]]]}},{"type":"Feature","id":"zone-syn-ap-fao-t1-z2","properties":{"airport_id":"SYN-AP-FAO","terminal_id":"SYN-AP-FAO-T1","zone_id":"SYN-AP-FAO-T1-Z2","feature_type":"Zone","zone_type":"SecureOperations","is_synthetic":true,"data_classification":"Synthetic master data","geometry_disclaimer":"Illustrative synthetic geometry; not a real airport layout, boundary, route, or operational location.","generator_version":"4.0.0","random_seed":42},"geometry":{"type":"Polygon","coordinates":[[[-7.975839000000001,37.016109],[-7.9720390000000005,37.016109],[-7.9720390000000005,37.017708999999996],[-7.975839000000001,37.017708999999996],[-7.975839000000001,37.016109]]]}},{"type":"Feature","id":"zone-syn-ap-fao-t2-z1","properties":{"airport_id":"SYN-AP-FAO","terminal_id":"SYN-AP-FAO-T2","zone_id":"SYN-AP-FAO-T2-Z1","feature_type":"Zone","zone_type":"PublicProcessing","is_synthetic":true,"data_classification":"Synthetic master data","geometry_disclaimer":"Illustrative synthetic geometry; not a real airport layout, boundary, route, or operational location.","generator_version":"4.0.0","random_seed":42},"geometry":{"type":"Polygon","coordinates":[[[-7.969839,37.014109000000005],[-7.966039,37.014109000000005],[-7.966039,37.015709],[-7.969839,37.015709],[-7.969839,37.014109000000005]]]}},{"type":"Feature","id":"zone-syn-ap-fao-t2-z2","properties":{"airport_id":"SYN-AP-FAO","terminal_id":"SYN-AP-FAO-T2","zone_id":"SYN-AP-FAO-T2-Z2","feature_type":"Zone","zone_type":"SecureOperations","is_synthetic":true,"data_classification":"Synthetic master data","geometry_disclaimer":"Illustrative synthetic geometry; not a real airport layout, boundary, route, or operational location.","generator_version":"4.0.0","random_seed":42},"geometry":{"type":"Polygon","coordinates":[[[-7.969839,37.016109],[-7.966039,37.016109],[-7.966039,37.017708999999996],[-7.969839,37.017708999999996],[-7.969839,37.016109]]]}},{"type":"Feature","id":"zone-syn-ap-fnc-t1-z1","properties":{"airport_id":"SYN-AP-FNC","terminal_id":"SYN-AP-FNC-T1","zone_id":"SYN-AP-FNC-T1-Z1","feature_type":"Zone","zone_type":"PublicProcessing","is_synthetic":true,"data_classification":"Synthetic master data","geometry_disclaimer":"Illustrative synthetic geometry; not a real airport layout, boundary, route, or operational location.","generator_version":"4.0.0","random_seed":42},"geometry":{"type":"Polygon","coordinates":[[[-16.779512999999998,32.696012],[-16.775713,32.696012],[-16.775713,32.697612],[-16.779512999999998,32.697612],[-16.779512999999998,32.696012]]]}},{"type":"Feature","id":"zone-syn-ap-fnc-t1-z2","properties":{"airport_id":"SYN-AP-FNC","terminal_id":"SYN-AP-FNC-T1","zone_id":"SYN-AP-FNC-T1-Z2","feature_type":"Zone","zone_type":"SecureOperations","is_synthetic":true,"data_classification":"Synthetic master data","geometry_disclaimer":"Illustrative synthetic geometry; not a real airport layout, boundary, route, or operational location.","generator_version":"4.0.0","random_seed":42},"geometry":{"type":"Polygon","coordinates":[[[-16.779512999999998,32.698012],[-16.775713,32.698012],[-16.775713,32.699611999999995],[-16.779512999999998,32.699611999999995],[-16.779512999999998,32.698012]]]}},{"type":"Feature","id":"zone-syn-ap-fnc-t2-z1","properties":{"airport_id":"SYN-AP-FNC","terminal_id":"SYN-AP-FNC-T2","zone_id":"SYN-AP-FNC-T2-Z1","feature_type":"Zone","zone_type":"PublicProcessing","is_synthetic":true,"data_classification":"Synthetic master data","geometry_disclaimer":"Illustrative synthetic geometry; not a real airport layout, boundary, route, or operational location.","generator_version":"4.0.0","random_seed":42},"geometry":{"type":"Polygon","coordinates":[[[-16.773512999999998,32.696012],[-16.769713,32.696012],[-16.769713,32.697612],[-16.773512999999998,32.697612],[-16.773512999999998,32.696012]]]}},{"type":"Feature","id":"zone-syn-ap-fnc-t2-z2","properties":{"airport_id":"SYN-AP-FNC","terminal_id":"SYN-AP-FNC-T2","zone_id":"SYN-AP-FNC-T2-Z2","feature_type":"Zone","zone_type":"SecureOperations","is_synthetic":true,"data_classification":"Synthetic master data","geometry_disclaimer":"Illustrative synthetic geometry; not a real airport layout, boundary, route, or operational location.","generator_version":"4.0.0","random_seed":42},"geometry":{"type":"Polygon","coordinates":[[[-16.773512999999998,32.698012],[-16.769713,32.698012],[-16.769713,32.699611999999995],[-16.773512999999998,32.699611999999995],[-16.773512999999998,32.698012]]]}},{"type":"Feature","id":"zone-syn-ap-pdl-t1-z1","properties":{"airport_id":"SYN-AP-PDL","terminal_id":"SYN-AP-PDL-T1","zone_id":"SYN-AP-PDL-T1-Z1","feature_type":"Zone","zone_type":"PublicProcessing","is_synthetic":true,"data_classification":"Synthetic master data","geometry_disclaimer":"Illustrative synthetic geometry; not a real airport layout, boundary, route, or operational location.","generator_version":"4.0.0","random_seed":42},"geometry":{"type":"Polygon","coordinates":[[[-25.702800772099998,37.73939949340001],[-25.6990007721,37.73939949340001],[-25.6990007721,37.740999493400004],[-25.702800772099998,37.740999493400004],[-25.702800772099998,37.73939949340001]]]}},{"type":"Feature","id":"zone-syn-ap-pdl-t1-z2","properties":{"airport_id":"SYN-AP-PDL","terminal_id":"SYN-AP-PDL-T1","zone_id":"SYN-AP-PDL-T1-Z2","feature_type":"Zone","zone_type":"SecureOperations","is_synthetic":true,"data_classification":"Synthetic master data","geometry_disclaimer":"Illustrative synthetic geometry; not a real airport layout, boundary, route, or operational location.","generator_version":"4.0.0","random_seed":42},"geometry":{"type":"Polygon","coordinates":[[[-25.702800772099998,37.7413994934],[-25.6990007721,37.7413994934],[-25.6990007721,37.7429994934],[-25.702800772099998,37.7429994934],[-25.702800772099998,37.7413994934]]]}},{"type":"Feature","id":"zone-syn-ap-pdl-t2-z1","properties":{"airport_id":"SYN-AP-PDL","terminal_id":"SYN-AP-PDL-T2","zone_id":"SYN-AP-PDL-T2-Z1","feature_type":"Zone","zone_type":"PublicProcessing","is_synthetic":true,"data_classification":"Synthetic master data","geometry_disclaimer":"Illustrative synthetic geometry; not a real airport layout, boundary, route, or operational location.","generator_version":"4.0.0","random_seed":42},"geometry":{"type":"Polygon","coordinates":[[[-25.696800772099998,37.73939949340001],[-25.6930007721,37.73939949340001],[-25.6930007721,37.740999493400004],[-25.696800772099998,37.740999493400004],[-25.696800772099998,37.73939949340001]]]}},{"type":"Feature","id":"zone-syn-ap-pdl-t2-z2","properties":{"airport_id":"SYN-AP-PDL","terminal_id":"SYN-AP-PDL-T2","zone_id":"SYN-AP-PDL-T2-Z2","feature_type":"Zone","zone_type":"SecureOperations","is_synthetic":true,"data_classification":"Synthetic master data","geometry_disclaimer":"Illustrative synthetic geometry; not a real airport layout, boundary, route, or operational location.","generator_version":"4.0.0","random_seed":42},"geometry":{"type":"Polygon","coordinates":[[[-25.696800772099998,37.7413994934],[-25.6930007721,37.7413994934],[-25.6930007721,37.7429994934],[-25.696800772099998,37.7429994934],[-25.696800772099998,37.7413994934]]]}},{"type":"Feature","id":"zone-syn-ap-amm-t1-z1","properties":{"airport_id":"SYN-AP-AMM","terminal_id":"SYN-AP-AMM-T1","zone_id":"SYN-AP-AMM-T1-Z1","feature_type":"Zone","zone_type":"PublicProcessing","is_synthetic":true,"data_classification":"Synthetic master data","geometry_disclaimer":"Illustrative synthetic geometry; not a real airport layout, boundary, route, or operational location.","generator_version":"4.0.0","random_seed":42},"geometry":{"type":"Polygon","coordinates":[[[35.9882983948,31.720800936899998],[35.992098394799996,31.720800936899998],[35.992098394799996,31.7224009369],[35.9882983948,31.7224009369],[35.9882983948,31.720800936899998]]]}},{"type":"Feature","id":"zone-syn-ap-amm-t1-z2","properties":{"airport_id":"SYN-AP-AMM","terminal_id":"SYN-AP-AMM-T1","zone_id":"SYN-AP-AMM-T1-Z2","feature_type":"Zone","zone_type":"SecureOperations","is_synthetic":true,"data_classification":"Synthetic master data","geometry_disclaimer":"Illustrative synthetic geometry; not a real airport layout, boundary, route, or operational location.","generator_version":"4.0.0","random_seed":42},"geometry":{"type":"Polygon","coordinates":[[[35.9882983948,31.7228009369],[35.992098394799996,31.7228009369],[35.992098394799996,31.724400936900004],[35.9882983948,31.724400936900004],[35.9882983948,31.7228009369]]]}},{"type":"Feature","id":"zone-syn-ap-amm-t2-z1","properties":{"airport_id":"SYN-AP-AMM","terminal_id":"SYN-AP-AMM-T2","zone_id":"SYN-AP-AMM-T2-Z1","feature_type":"Zone","zone_type":"PublicProcessing","is_synthetic":true,"data_classification":"Synthetic master data","geometry_disclaimer":"Illustrative synthetic geometry; not a real airport layout, boundary, route, or operational location.","generator_version":"4.0.0","random_seed":42},"geometry":{"type":"Polygon","coordinates":[[[35.9942983948,31.720800936899998],[35.998098394799996,31.720800936899998],[35.998098394799996,31.7224009369],[35.9942983948,31.7224009369],[35.9942983948,31.720800936899998]]]}},{"type":"Feature","id":"zone-syn-ap-amm-t2-z2","properties":{"airport_id":"SYN-AP-AMM","terminal_id":"SYN-AP-AMM-T2","zone_id":"SYN-AP-AMM-T2-Z2","feature_type":"Zone","zone_type":"SecureOperations","is_synthetic":true,"data_classification":"Synthetic master data","geometry_disclaimer":"Illustrative synthetic geometry; not a real airport layout, boundary, route, or operational location.","generator_version":"4.0.0","random_seed":42},"geometry":{"type":"Polygon","coordinates":[[[35.9942983948,31.7228009369],[35.998098394799996,31.7228009369],[35.998098394799996,31.724400936900004],[35.9942983948,31.724400936900004],[35.9942983948,31.7228009369]]]}},{"type":"Feature","id":"zone-syn-ap-aqj-t1-z1","properties":{"airport_id":"SYN-AP-AQJ","terminal_id":"SYN-AP-AQJ-T1","zone_id":"SYN-AP-AQJ-T1-Z1","feature_type":"Zone","zone_type":"PublicProcessing","is_synthetic":true,"data_classification":"Synthetic master data","geometry_disclaimer":"Illustrative synthetic geometry; not a real airport layout, boundary, route, or operational location.","generator_version":"4.0.0","random_seed":42},"geometry":{"type":"Polygon","coordinates":[[[35.013201,29.609800999999997],[35.017001,29.609800999999997],[35.017001,29.611401],[35.013201,29.611401],[35.013201,29.609800999999997]]]}},{"type":"Feature","id":"zone-syn-ap-aqj-t1-z2","properties":{"airport_id":"SYN-AP-AQJ","terminal_id":"SYN-AP-AQJ-T1","zone_id":"SYN-AP-AQJ-T1-Z2","feature_type":"Zone","zone_type":"SecureOperations","is_synthetic":true,"data_classification":"Synthetic master data","geometry_disclaimer":"Illustrative synthetic geometry; not a real airport layout, boundary, route, or operational location.","generator_version":"4.0.0","random_seed":42},"geometry":{"type":"Polygon","coordinates":[[[35.013201,29.611801],[35.017001,29.611801],[35.017001,29.613401000000003],[35.013201,29.613401000000003],[35.013201,29.611801]]]}},{"type":"Feature","id":"zone-syn-ap-aqj-t2-z1","properties":{"airport_id":"SYN-AP-AQJ","terminal_id":"SYN-AP-AQJ-T2","zone_id":"SYN-AP-AQJ-T2-Z1","feature_type":"Zone","zone_type":"PublicProcessing","is_synthetic":true,"data_classification":"Synthetic master data","geometry_disclaimer":"Illustrative synthetic geometry; not a real airport layout, boundary, route, or operational location.","generator_version":"4.0.0","random_seed":42},"geometry":{"type":"Polygon","coordinates":[[[35.019201,29.609800999999997],[35.023001,29.609800999999997],[35.023001,29.611401],[35.019201,29.611401],[35.019201,29.609800999999997]]]}},{"type":"Feature","id":"zone-syn-ap-aqj-t2-z2","properties":{"airport_id":"SYN-AP-AQJ","terminal_id":"SYN-AP-AQJ-T2","zone_id":"SYN-AP-AQJ-T2-Z2","feature_type":"Zone","zone_type":"SecureOperations","is_synthetic":true,"data_classification":"Synthetic master data","geometry_disclaimer":"Illustrative synthetic geometry; not a real airport layout, boundary, route, or operational location.","generator_version":"4.0.0","random_seed":42},"geometry":{"type":"Polygon","coordinates":[[[35.019201,29.611801],[35.023001,29.611801],[35.023001,29.613401000000003],[35.019201,29.613401000000003],[35.019201,29.611801]]]}}]}
