{"type":"FeatureCollection","name":"airports","features":[{"type":"Feature","id":"airport-syn-ap-cdg","properties":{"airport_id":"SYN-AP-CDG","iata_code":"CDG","icao_code":"LFPG","airport_name":"Paris Charles de Gaulle","country":"France","iana_time_zone":"Europe/Paris","is_synthetic":false,"reference_anchor_only":true,"fictional_group_assignment":true,"data_classification":"Synthetic master data","geometry_disclaimer":"Public approximate airport reference point; no operational layout, boundary, or ownership is represented.","source_name":"OurAirports open airport data and IANA Time Zone Database","source_url":"https://ourairports.com/data/airports.csv","source_as_of_date":"2026-08-08"},"geometry":{"type":"Point","coordinates":[2.554117,49.00896]}},{"type":"Feature","id":"airport-syn-ap-ory","properties":{"airport_id":"SYN-AP-ORY","iata_code":"ORY","icao_code":"LFPO","airport_name":"Paris Orly","country":"France","iana_time_zone":"Europe/Paris","is_synthetic":false,"reference_anchor_only":true,"fictional_group_assignment":true,"data_classification":"Synthetic master data","geometry_disclaimer":"Public approximate airport reference point; no operational layout, boundary, or ownership is represented.","source_name":"OurAirports open airport data and IANA Time Zone Database","source_url":"https://ourairports.com/data/airports.csv","source_as_of_date":"2026-08-08"},"geometry":{"type":"Point","coordinates":[2.358963,48.729499]}},{"type":"Feature","id":"airport-syn-ap-nce","properties":{"airport_id":"SYN-AP-NCE","iata_code":"NCE","icao_code":"LFMN","airport_name":"Nice Cote d'Azur","country":"France","iana_time_zone":"Europe/Paris","is_synthetic":false,"reference_anchor_only":true,"fictional_group_assignment":true,"data_classification":"Synthetic master data","geometry_disclaimer":"Public approximate airport reference point; no operational layout, boundary, or ownership is represented.","source_name":"OurAirports open airport data and IANA Time Zone Database","source_url":"https://ourairports.com/data/airports.csv","source_as_of_date":"2026-08-08"},"geometry":{"type":"Point","coordinates":[7.21587,43.658401]}},{"type":"Feature","id":"airport-syn-ap-lys","properties":{"airport_id":"SYN-AP-LYS","iata_code":"LYS","icao_code":"LFLL","airport_name":"Lyon Saint-Exupery","country":"France","iana_time_zone":"Europe/Paris","is_synthetic":false,"reference_anchor_only":true,"fictional_group_assignment":true,"data_classification":"Synthetic master data","geometry_disclaimer":"Public approximate airport reference point; no operational layout, boundary, or ownership is represented.","source_name":"OurAirports open airport data and IANA Time Zone Database","source_url":"https://ourairports.com/data/airports.csv","source_as_of_date":"2026-08-08"},"geometry":{"type":"Point","coordinates":[5.090139,45.725996]}},{"type":"Feature","id":"airport-syn-ap-mrs","properties":{"airport_id":"SYN-AP-MRS","iata_code":"MRS","icao_code":"LFML","airport_name":"Marseille Provence","country":"France","iana_time_zone":"Europe/Paris","is_synthetic":false,"reference_anchor_only":true,"fictional_group_assignment":true,"data_classification":"Synthetic master data","geometry_disclaimer":"Public approximate airport reference point; no operational layout, boundary, or ownership is represented.","source_name":"OurAirports open airport data and IANA Time Zone Database","source_url":"https://ourairports.com/data/airports.csv","source_as_of_date":"2026-08-08"},"geometry":{"type":"Point","coordinates":[5.2125,43.438088]}},{"type":"Feature","id":"airport-syn-ap-tls","properties":{"airport_id":"SYN-AP-TLS","iata_code":"TLS","icao_code":"LFBO","airport_name":"Toulouse-Blagnac","country":"France","iana_time_zone":"Europe/Paris","is_synthetic":false,"reference_anchor_only":true,"fictional_group_assignment":true,"data_classification":"Synthetic master data","geometry_disclaimer":"Public approximate airport reference point; no operational layout, boundary, or ownership is represented.","source_name":"OurAirports open airport data and IANA Time Zone Database","source_url":"https://ourairports.com/data/airports.csv","source_as_of_date":"2026-08-08"},"geometry":{"type":"Point","coordinates":[1.36382,43.629101]}},{"type":"Feature","id":"airport-syn-ap-fco","properties":{"airport_id":"SYN-AP-FCO","iata_code":"FCO","icao_code":"LIRF","airport_name":"Rome Fiumicino","country":"Italy","iana_time_zone":"Europe/Rome","is_synthetic":false,"reference_anchor_only":true,"fictional_group_assignment":true,"data_classification":"Synthetic master data","geometry_disclaimer":"Public approximate airport reference point; no operational layout, boundary, or ownership is represented.","source_name":"OurAirports open airport data and IANA Time Zone Database","source_url":"https://ourairports.com/data/airports.csv","source_as_of_date":"2026-08-08"},"geometry":{"type":"Point","coordinates":[12.251998,41.804532]}},{"type":"Feature","id":"airport-syn-ap-mxp","properties":{"airport_id":"SYN-AP-MXP","iata_code":"MXP","icao_code":"LIMC","airport_name":"Milan Malpensa","country":"Italy","iana_time_zone":"Europe/Rome","is_synthetic":false,"reference_anchor_only":true,"fictional_group_assignment":true,"data_classification":"Synthetic master data","geometry_disclaimer":"Public approximate airport reference point; no operational layout, boundary, or ownership is represented.","source_name":"OurAirports open airport data and IANA Time Zone Database","source_url":"https://ourairports.com/data/airports.csv","source_as_of_date":"2026-08-08"},"geometry":{"type":"Point","coordinates":[8.72811,45.6306]}},{"type":"Feature","id":"airport-syn-ap-vce","properties":{"airport_id":"SYN-AP-VCE","iata_code":"VCE","icao_code":"LIPZ","airport_name":"Venice Marco Polo","country":"Italy","iana_time_zone":"Europe/Rome","is_synthetic":false,"reference_anchor_only":true,"fictional_group_assignment":true,"data_classification":"Synthetic master data","geometry_disclaimer":"Public approximate airport reference point; no operational layout, boundary, or ownership is represented.","source_name":"OurAirports open airport data and IANA Time Zone Database","source_url":"https://ourairports.com/data/airports.csv","source_as_of_date":"2026-08-08"},"geometry":{"type":"Point","coordinates":[12.3519,45.505299]}},{"type":"Feature","id":"airport-syn-ap-nap","properties":{"airport_id":"SYN-AP-NAP","iata_code":"NAP","icao_code":"LIRN","airport_name":"Naples International","country":"Italy","iana_time_zone":"Europe/Rome","is_synthetic":false,"reference_anchor_only":true,"fictional_group_assignment":true,"data_classification":"Synthetic master data","geometry_disclaimer":"Public approximate airport reference point; no operational layout, boundary, or ownership is represented.","source_name":"OurAirports open airport data and IANA Time Zone Database","source_url":"https://ourairports.com/data/airports.csv","source_as_of_date":"2026-08-08"},"geometry":{"type":"Point","coordinates":[14.2908,40.886002]}},{"type":"Feature","id":"airport-syn-ap-blq","properties":{"airport_id":"SYN-AP-BLQ","iata_code":"BLQ","icao_code":"LIPE","airport_name":"Bologna Guglielmo Marconi","country":"Italy","iana_time_zone":"Europe/Rome","is_synthetic":false,"reference_anchor_only":true,"fictional_group_assignment":true,"data_classification":"Synthetic master data","geometry_disclaimer":"Public approximate airport reference point; no operational layout, boundary, or ownership is represented.","source_name":"OurAirports open airport data and IANA Time Zone Database","source_url":"https://ourairports.com/data/airports.csv","source_as_of_date":"2026-08-08"},"geometry":{"type":"Point","coordinates":[11.2887,44.5354]}},{"type":"Feature","id":"airport-syn-ap-lis","properties":{"airport_id":"SYN-AP-LIS","iata_code":"LIS","icao_code":"LPPT","airport_name":"Lisbon Humberto Delgado","country":"Portugal","iana_time_zone":"Europe/Lisbon","is_synthetic":false,"reference_anchor_only":true,"fictional_group_assignment":true,"data_classification":"Synthetic master data","geometry_disclaimer":"Public approximate airport reference point; no operational layout, boundary, or ownership is represented.","source_name":"OurAirports open airport data and IANA Time Zone Database","source_url":"https://ourairports.com/data/airports.csv","source_as_of_date":"2026-08-08"},"geometry":{"type":"Point","coordinates":[-9.13592,38.7813]}},{"type":"Feature","id":"airport-syn-ap-opo","properties":{"airport_id":"SYN-AP-OPO","iata_code":"OPO","icao_code":"LPPR","airport_name":"Porto Francisco Sa Carneiro","country":"Portugal","iana_time_zone":"Europe/Lisbon","is_synthetic":false,"reference_anchor_only":true,"fictional_group_assignment":true,"data_classification":"Synthetic master data","geometry_disclaimer":"Public approximate airport reference point; no operational layout, boundary, or ownership is represented.","source_name":"OurAirports open airport data and IANA Time Zone Database","source_url":"https://ourairports.com/data/airports.csv","source_as_of_date":"2026-08-08"},"geometry":{"type":"Point","coordinates":[-8.68138980865,41.2481002808]}},{"type":"Feature","id":"airport-syn-ap-fao","properties":{"airport_id":"SYN-AP-FAO","iata_code":"FAO","icao_code":"LPFR","airport_name":"Faro","country":"Portugal","iana_time_zone":"Europe/Lisbon","is_synthetic":false,"reference_anchor_only":true,"fictional_group_assignment":true,"data_classification":"Synthetic master data","geometry_disclaimer":"Public approximate airport reference point; no operational layout, boundary, or ownership is represented.","source_name":"OurAirports open airport data and IANA Time Zone Database","source_url":"https://ourairports.com/data/airports.csv","source_as_of_date":"2026-08-08"},"geometry":{"type":"Point","coordinates":[-7.970939,37.015909]}},{"type":"Feature","id":"airport-syn-ap-fnc","properties":{"airport_id":"SYN-AP-FNC","iata_code":"FNC","icao_code":"LPMA","airport_name":"Madeira Cristiano Ronaldo","country":"Portugal","iana_time_zone":"Atlantic/Madeira","is_synthetic":false,"reference_anchor_only":true,"fictional_group_assignment":true,"data_classification":"Synthetic master data","geometry_disclaimer":"Public approximate airport reference point; no operational layout, boundary, or ownership is represented.","source_name":"OurAirports open airport data and IANA Time Zone Database","source_url":"https://ourairports.com/data/airports.csv","source_as_of_date":"2026-08-08"},"geometry":{"type":"Point","coordinates":[-16.774613,32.697812]}},{"type":"Feature","id":"airport-syn-ap-pdl","properties":{"airport_id":"SYN-AP-PDL","iata_code":"PDL","icao_code":"LPPD","airport_name":"Joao Paulo II Airport","country":"Portugal","iana_time_zone":"Atlantic/Azores","is_synthetic":false,"reference_anchor_only":true,"fictional_group_assignment":true,"data_classification":"Synthetic master data","geometry_disclaimer":"Public approximate airport reference point; no operational layout, boundary, or ownership is represented.","source_name":"OurAirports open airport data and IANA Time Zone Database","source_url":"https://ourairports.com/data/airports.csv","source_as_of_date":"2026-08-08"},"geometry":{"type":"Point","coordinates":[-25.6979007721,37.7411994934]}},{"type":"Feature","id":"airport-syn-ap-amm","properties":{"airport_id":"SYN-AP-AMM","iata_code":"AMM","icao_code":"OJAI","airport_name":"Queen Alia International","country":"Jordan","iana_time_zone":"Asia/Amman","is_synthetic":false,"reference_anchor_only":true,"fictional_group_assignment":true,"data_classification":"Synthetic master data","geometry_disclaimer":"Public approximate airport reference point; no operational layout, boundary, or ownership is represented.","source_name":"OurAirports open airport data and IANA Time Zone Database","source_url":"https://ourairports.com/data/airports.csv","source_as_of_date":"2026-08-08"},"geometry":{"type":"Point","coordinates":[35.9931983948,31.7226009369]}},{"type":"Feature","id":"airport-syn-ap-aqj","properties":{"airport_id":"SYN-AP-AQJ","iata_code":"AQJ","icao_code":"OJAQ","airport_name":"King Hussein International","country":"Jordan","iana_time_zone":"Asia/Amman","is_synthetic":false,"reference_anchor_only":true,"fictional_group_assignment":true,"data_classification":"Synthetic master data","geometry_disclaimer":"Public approximate airport reference point; no operational layout, boundary, or ownership is represented.","source_name":"OurAirports open airport data and IANA Time Zone Database","source_url":"https://ourairports.com/data/airports.csv","source_as_of_date":"2026-08-08"},"geometry":{"type":"Point","coordinates":[35.018101,29.611601]}}]}
