{"type":"FeatureCollection","name":"assets","features":[{"type":"Feature","id":"asset-syn-ast-cdg-001","properties":{"airport_id":"SYN-AP-CDG","terminal_id":"SYN-AP-CDG-T1","gate_id":"SYN-AP-CDG-G1","asset_id":"SYN-AST-CDG-001","feature_type":"OperationalAsset","illustrative_only":true,"is_synthetic":true,"data_classification":"Synthetic master data","geometry_disclaimer":"Illustrative synthetic geometry; not a real airport layout, boundary, route, or operational location.","generator_version":"4.0.0","random_seed":42},"geometry":{"type":"Point","coordinates":[2.551717,49.008235]}},{"type":"Feature","id":"asset-syn-ast-cdg-002","properties":{"airport_id":"SYN-AP-CDG","terminal_id":"SYN-AP-CDG-T1","gate_id":"SYN-AP-CDG-G2","asset_id":"SYN-AST-CDG-002","feature_type":"OperationalAsset","illustrative_only":true,"is_synthetic":true,"data_classification":"Synthetic master data","geometry_disclaimer":"Illustrative synthetic geometry; not a real airport layout, boundary, route, or operational location.","generator_version":"4.0.0","random_seed":42},"geometry":{"type":"Point","coordinates":[2.551717,49.008585]}},{"type":"Feature","id":"asset-syn-ast-cdg-003","properties":{"airport_id":"SYN-AP-CDG","terminal_id":"SYN-AP-CDG-T1","gate_id":"SYN-AP-CDG-G3","asset_id":"SYN-AST-CDG-003","feature_type":"OperationalAsset","illustrative_only":true,"is_synthetic":true,"data_classification":"Synthetic master data","geometry_disclaimer":"Illustrative synthetic geometry; not a real airport layout, boundary, route, or operational location.","generator_version":"4.0.0","random_seed":42},"geometry":{"type":"Point","coordinates":[2.551717,49.008935]}},{"type":"Feature","id":"asset-syn-ast-cdg-004","properties":{"airport_id":"SYN-AP-CDG","terminal_id":"SYN-AP-CDG-T2","gate_id":"SYN-AP-CDG-G4","asset_id":"SYN-AST-CDG-004","feature_type":"OperationalAsset","illustrative_only":true,"is_synthetic":true,"data_classification":"Synthetic master data","geometry_disclaimer":"Illustrative synthetic geometry; not a real airport layout, boundary, route, or operational location.","generator_version":"4.0.0","random_seed":42},"geometry":{"type":"Point","coordinates":[2.5577170000000002,49.009285]}},{"type":"Feature","id":"asset-syn-ast-cdg-005","properties":{"airport_id":"SYN-AP-CDG","terminal_id":"SYN-AP-CDG-T2","gate_id":"SYN-AP-CDG-G5","asset_id":"SYN-AST-CDG-005","feature_type":"OperationalAsset","illustrative_only":true,"is_synthetic":true,"data_classification":"Synthetic master data","geometry_disclaimer":"Illustrative synthetic geometry; not a real airport layout, boundary, route, or operational location.","generator_version":"4.0.0","random_seed":42},"geometry":{"type":"Point","coordinates":[2.5577170000000002,49.009635]}},{"type":"Feature","id":"asset-syn-ast-cdg-006","properties":{"airport_id":"SYN-AP-CDG","terminal_id":"SYN-AP-CDG-T2","gate_id":"SYN-AP-CDG-G6","asset_id":"SYN-AST-CDG-006","feature_type":"OperationalAsset","illustrative_only":true,"is_synthetic":true,"data_classification":"Synthetic master data","geometry_disclaimer":"Illustrative synthetic geometry; not a real airport layout, boundary, route, or operational location.","generator_version":"4.0.0","random_seed":42},"geometry":{"type":"Point","coordinates":[2.5577170000000002,49.009985]}},{"type":"Feature","id":"asset-syn-ast-ory-001","properties":{"airport_id":"SYN-AP-ORY","terminal_id":"SYN-AP-ORY-T1","gate_id":"SYN-AP-ORY-G1","asset_id":"SYN-AST-ORY-001","feature_type":"OperationalAsset","illustrative_only":true,"is_synthetic":true,"data_classification":"Synthetic master data","geometry_disclaimer":"Illustrative synthetic geometry; not a real airport layout, boundary, route, or operational location.","generator_version":"4.0.0","random_seed":42},"geometry":{"type":"Point","coordinates":[2.356563,48.728773999999994]}},{"type":"Feature","id":"asset-syn-ast-ory-002","properties":{"airport_id":"SYN-AP-ORY","terminal_id":"SYN-AP-ORY-T1","gate_id":"SYN-AP-ORY-G2","asset_id":"SYN-AST-ORY-002","feature_type":"OperationalAsset","illustrative_only":true,"is_synthetic":true,"data_classification":"Synthetic master data","geometry_disclaimer":"Illustrative synthetic geometry; not a real airport layout, boundary, route, or operational location.","generator_version":"4.0.0","random_seed":42},"geometry":{"type":"Point","coordinates":[2.356563,48.72912399999999]}},{"type":"Feature","id":"asset-syn-ast-ory-003","properties":{"airport_id":"SYN-AP-ORY","terminal_id":"SYN-AP-ORY-T1","gate_id":"SYN-AP-ORY-G3","asset_id":"SYN-AST-ORY-003","feature_type":"OperationalAsset","illustrative_only":true,"is_synthetic":true,"data_classification":"Synthetic master data","geometry_disclaimer":"Illustrative synthetic geometry; not a real airport layout, boundary, route, or operational location.","generator_version":"4.0.0","random_seed":42},"geometry":{"type":"Point","coordinates":[2.356563,48.729473999999996]}},{"type":"Feature","id":"asset-syn-ast-ory-004","properties":{"airport_id":"SYN-AP-ORY","terminal_id":"SYN-AP-ORY-T2","gate_id":"SYN-AP-ORY-G4","asset_id":"SYN-AST-ORY-004","feature_type":"OperationalAsset","illustrative_only":true,"is_synthetic":true,"data_classification":"Synthetic master data","geometry_disclaimer":"Illustrative synthetic geometry; not a real airport layout, boundary, route, or operational location.","generator_version":"4.0.0","random_seed":42},"geometry":{"type":"Point","coordinates":[2.362563,48.729823999999994]}},{"type":"Feature","id":"asset-syn-ast-ory-005","properties":{"airport_id":"SYN-AP-ORY","terminal_id":"SYN-AP-ORY-T2","gate_id":"SYN-AP-ORY-G5","asset_id":"SYN-AST-ORY-005","feature_type":"OperationalAsset","illustrative_only":true,"is_synthetic":true,"data_classification":"Synthetic master data","geometry_disclaimer":"Illustrative synthetic geometry; not a real airport layout, boundary, route, or operational location.","generator_version":"4.0.0","random_seed":42},"geometry":{"type":"Point","coordinates":[2.362563,48.730174]}},{"type":"Feature","id":"asset-syn-ast-ory-006","properties":{"airport_id":"SYN-AP-ORY","terminal_id":"SYN-AP-ORY-T2","gate_id":"SYN-AP-ORY-G6","asset_id":"SYN-AST-ORY-006","feature_type":"OperationalAsset","illustrative_only":true,"is_synthetic":true,"data_classification":"Synthetic master data","geometry_disclaimer":"Illustrative synthetic geometry; not a real airport layout, boundary, route, or operational location.","generator_version":"4.0.0","random_seed":42},"geometry":{"type":"Point","coordinates":[2.362563,48.730523999999996]}},{"type":"Feature","id":"asset-syn-ast-nce-001","properties":{"airport_id":"SYN-AP-NCE","terminal_id":"SYN-AP-NCE-T1","gate_id":"SYN-AP-NCE-G1","asset_id":"SYN-AST-NCE-001","feature_type":"OperationalAsset","illustrative_only":true,"is_synthetic":true,"data_classification":"Synthetic master data","geometry_disclaimer":"Illustrative synthetic geometry; not a real airport layout, boundary, route, or operational location.","generator_version":"4.0.0","random_seed":42},"geometry":{"type":"Point","coordinates":[7.21347,43.657675999999995]}},{"type":"Feature","id":"asset-syn-ast-nce-002","properties":{"airport_id":"SYN-AP-NCE","terminal_id":"SYN-AP-NCE-T1","gate_id":"SYN-AP-NCE-G2","asset_id":"SYN-AST-NCE-002","feature_type":"OperationalAsset","illustrative_only":true,"is_synthetic":true,"data_classification":"Synthetic master data","geometry_disclaimer":"Illustrative synthetic geometry; not a real airport layout, boundary, route, or operational location.","generator_version":"4.0.0","random_seed":42},"geometry":{"type":"Point","coordinates":[7.21347,43.65802599999999]}},{"type":"Feature","id":"asset-syn-ast-nce-003","properties":{"airport_id":"SYN-AP-NCE","terminal_id":"SYN-AP-NCE-T1","gate_id":"SYN-AP-NCE-G3","asset_id":"SYN-AST-NCE-003","feature_type":"OperationalAsset","illustrative_only":true,"is_synthetic":true,"data_classification":"Synthetic master data","geometry_disclaimer":"Illustrative synthetic geometry; not a real airport layout, boundary, route, or operational location.","generator_version":"4.0.0","random_seed":42},"geometry":{"type":"Point","coordinates":[7.21347,43.658376]}},{"type":"Feature","id":"asset-syn-ast-nce-004","properties":{"airport_id":"SYN-AP-NCE","terminal_id":"SYN-AP-NCE-T2","gate_id":"SYN-AP-NCE-G4","asset_id":"SYN-AST-NCE-004","feature_type":"OperationalAsset","illustrative_only":true,"is_synthetic":true,"data_classification":"Synthetic master data","geometry_disclaimer":"Illustrative synthetic geometry; not a real airport layout, boundary, route, or operational location.","generator_version":"4.0.0","random_seed":42},"geometry":{"type":"Point","coordinates":[7.21947,43.658725999999994]}},{"type":"Feature","id":"asset-syn-ast-nce-005","properties":{"airport_id":"SYN-AP-NCE","terminal_id":"SYN-AP-NCE-T2","gate_id":"SYN-AP-NCE-G5","asset_id":"SYN-AST-NCE-005","feature_type":"OperationalAsset","illustrative_only":true,"is_synthetic":true,"data_classification":"Synthetic master data","geometry_disclaimer":"Illustrative synthetic geometry; not a real airport layout, boundary, route, or operational location.","generator_version":"4.0.0","random_seed":42},"geometry":{"type":"Point","coordinates":[7.21947,43.659076]}},{"type":"Feature","id":"asset-syn-ast-nce-006","properties":{"airport_id":"SYN-AP-NCE","terminal_id":"SYN-AP-NCE-T2","gate_id":"SYN-AP-NCE-G6","asset_id":"SYN-AST-NCE-006","feature_type":"OperationalAsset","illustrative_only":true,"is_synthetic":true,"data_classification":"Synthetic master data","geometry_disclaimer":"Illustrative synthetic geometry; not a real airport layout, boundary, route, or operational location.","generator_version":"4.0.0","random_seed":42},"geometry":{"type":"Point","coordinates":[7.21947,43.659425999999996]}},{"type":"Feature","id":"asset-syn-ast-lys-001","properties":{"airport_id":"SYN-AP-LYS","terminal_id":"SYN-AP-LYS-T1","gate_id":"SYN-AP-LYS-G1","asset_id":"SYN-AST-LYS-001","feature_type":"OperationalAsset","illustrative_only":true,"is_synthetic":true,"data_classification":"Synthetic master data","geometry_disclaimer":"Illustrative synthetic geometry; not a real airport layout, boundary, route, or operational location.","generator_version":"4.0.0","random_seed":42},"geometry":{"type":"Point","coordinates":[5.087739,45.725271]}},{"type":"Feature","id":"asset-syn-ast-lys-002","properties":{"airport_id":"SYN-AP-LYS","terminal_id":"SYN-AP-LYS-T1","gate_id":"SYN-AP-LYS-G2","asset_id":"SYN-AST-LYS-002","feature_type":"OperationalAsset","illustrative_only":true,"is_synthetic":true,"data_classification":"Synthetic master data","geometry_disclaimer":"Illustrative synthetic geometry; not a real airport layout, boundary, route, or operational location.","generator_version":"4.0.0","random_seed":42},"geometry":{"type":"Point","coordinates":[5.087739,45.725621]}},{"type":"Feature","id":"asset-syn-ast-lys-003","properties":{"airport_id":"SYN-AP-LYS","terminal_id":"SYN-AP-LYS-T1","gate_id":"SYN-AP-LYS-G3","asset_id":"SYN-AST-LYS-003","feature_type":"OperationalAsset","illustrative_only":true,"is_synthetic":true,"data_classification":"Synthetic master data","geometry_disclaimer":"Illustrative synthetic geometry; not a real airport layout, boundary, route, or operational location.","generator_version":"4.0.0","random_seed":42},"geometry":{"type":"Point","coordinates":[5.087739,45.725971]}},{"type":"Feature","id":"asset-syn-ast-lys-004","properties":{"airport_id":"SYN-AP-LYS","terminal_id":"SYN-AP-LYS-T2","gate_id":"SYN-AP-LYS-G4","asset_id":"SYN-AST-LYS-004","feature_type":"OperationalAsset","illustrative_only":true,"is_synthetic":true,"data_classification":"Synthetic master data","geometry_disclaimer":"Illustrative synthetic geometry; not a real airport layout, boundary, route, or operational location.","generator_version":"4.0.0","random_seed":42},"geometry":{"type":"Point","coordinates":[5.093739,45.726321]}},{"type":"Feature","id":"asset-syn-ast-lys-005","properties":{"airport_id":"SYN-AP-LYS","terminal_id":"SYN-AP-LYS-T2","gate_id":"SYN-AP-LYS-G5","asset_id":"SYN-AST-LYS-005","feature_type":"OperationalAsset","illustrative_only":true,"is_synthetic":true,"data_classification":"Synthetic master data","geometry_disclaimer":"Illustrative synthetic geometry; not a real airport layout, boundary, route, or operational location.","generator_version":"4.0.0","random_seed":42},"geometry":{"type":"Point","coordinates":[5.093739,45.726671]}},{"type":"Feature","id":"asset-syn-ast-lys-006","properties":{"airport_id":"SYN-AP-LYS","terminal_id":"SYN-AP-LYS-T2","gate_id":"SYN-AP-LYS-G6","asset_id":"SYN-AST-LYS-006","feature_type":"OperationalAsset","illustrative_only":true,"is_synthetic":true,"data_classification":"Synthetic master data","geometry_disclaimer":"Illustrative synthetic geometry; not a real airport layout, boundary, route, or operational location.","generator_version":"4.0.0","random_seed":42},"geometry":{"type":"Point","coordinates":[5.093739,45.727021]}},{"type":"Feature","id":"asset-syn-ast-mrs-001","properties":{"airport_id":"SYN-AP-MRS","terminal_id":"SYN-AP-MRS-T1","gate_id":"SYN-AP-MRS-G1","asset_id":"SYN-AST-MRS-001","feature_type":"OperationalAsset","illustrative_only":true,"is_synthetic":true,"data_classification":"Synthetic master data","geometry_disclaimer":"Illustrative synthetic geometry; not a real airport layout, boundary, route, or operational location.","generator_version":"4.0.0","random_seed":42},"geometry":{"type":"Point","coordinates":[5.210100000000001,43.437363]}},{"type":"Feature","id":"asset-syn-ast-mrs-002","properties":{"airport_id":"SYN-AP-MRS","terminal_id":"SYN-AP-MRS-T1","gate_id":"SYN-AP-MRS-G2","asset_id":"SYN-AST-MRS-002","feature_type":"OperationalAsset","illustrative_only":true,"is_synthetic":true,"data_classification":"Synthetic master data","geometry_disclaimer":"Illustrative synthetic geometry; not a real airport layout, boundary, route, or operational location.","generator_version":"4.0.0","random_seed":42},"geometry":{"type":"Point","coordinates":[5.210100000000001,43.437712999999995]}},{"type":"Feature","id":"asset-syn-ast-mrs-003","properties":{"airport_id":"SYN-AP-MRS","terminal_id":"SYN-AP-MRS-T1","gate_id":"SYN-AP-MRS-G3","asset_id":"SYN-AST-MRS-003","feature_type":"OperationalAsset","illustrative_only":true,"is_synthetic":true,"data_classification":"Synthetic master data","geometry_disclaimer":"Illustrative synthetic geometry; not a real airport layout, boundary, route, or operational location.","generator_version":"4.0.0","random_seed":42},"geometry":{"type":"Point","coordinates":[5.210100000000001,43.438063]}},{"type":"Feature","id":"asset-syn-ast-mrs-004","properties":{"airport_id":"SYN-AP-MRS","terminal_id":"SYN-AP-MRS-T2","gate_id":"SYN-AP-MRS-G4","asset_id":"SYN-AST-MRS-004","feature_type":"OperationalAsset","illustrative_only":true,"is_synthetic":true,"data_classification":"Synthetic master data","geometry_disclaimer":"Illustrative synthetic geometry; not a real airport layout, boundary, route, or operational location.","generator_version":"4.0.0","random_seed":42},"geometry":{"type":"Point","coordinates":[5.216100000000001,43.438413]}},{"type":"Feature","id":"asset-syn-ast-mrs-005","properties":{"airport_id":"SYN-AP-MRS","terminal_id":"SYN-AP-MRS-T2","gate_id":"SYN-AP-MRS-G5","asset_id":"SYN-AST-MRS-005","feature_type":"OperationalAsset","illustrative_only":true,"is_synthetic":true,"data_classification":"Synthetic master data","geometry_disclaimer":"Illustrative synthetic geometry; not a real airport layout, boundary, route, or operational location.","generator_version":"4.0.0","random_seed":42},"geometry":{"type":"Point","coordinates":[5.216100000000001,43.438763]}},{"type":"Feature","id":"asset-syn-ast-mrs-006","properties":{"airport_id":"SYN-AP-MRS","terminal_id":"SYN-AP-MRS-T2","gate_id":"SYN-AP-MRS-G6","asset_id":"SYN-AST-MRS-006","feature_type":"OperationalAsset","illustrative_only":true,"is_synthetic":true,"data_classification":"Synthetic master data","geometry_disclaimer":"Illustrative synthetic geometry; not a real airport layout, boundary, route, or operational location.","generator_version":"4.0.0","random_seed":42},"geometry":{"type":"Point","coordinates":[5.216100000000001,43.439113]}},{"type":"Feature","id":"asset-syn-ast-tls-001","properties":{"airport_id":"SYN-AP-TLS","terminal_id":"SYN-AP-TLS-T1","gate_id":"SYN-AP-TLS-G1","asset_id":"SYN-AST-TLS-001","feature_type":"OperationalAsset","illustrative_only":true,"is_synthetic":true,"data_classification":"Synthetic master data","geometry_disclaimer":"Illustrative synthetic geometry; not a real airport layout, boundary, route, or operational location.","generator_version":"4.0.0","random_seed":42},"geometry":{"type":"Point","coordinates":[1.36142,43.628375999999996]}},{"type":"Feature","id":"asset-syn-ast-tls-002","properties":{"airport_id":"SYN-AP-TLS","terminal_id":"SYN-AP-TLS-T1","gate_id":"SYN-AP-TLS-G2","asset_id":"SYN-AST-TLS-002","feature_type":"OperationalAsset","illustrative_only":true,"is_synthetic":true,"data_classification":"Synthetic master data","geometry_disclaimer":"Illustrative synthetic geometry; not a real airport layout, boundary, route, or operational location.","generator_version":"4.0.0","random_seed":42},"geometry":{"type":"Point","coordinates":[1.36142,43.62872599999999]}},{"type":"Feature","id":"asset-syn-ast-tls-003","properties":{"airport_id":"SYN-AP-TLS","terminal_id":"SYN-AP-TLS-T1","gate_id":"SYN-AP-TLS-G3","asset_id":"SYN-AST-TLS-003","feature_type":"OperationalAsset","illustrative_only":true,"is_synthetic":true,"data_classification":"Synthetic master data","geometry_disclaimer":"Illustrative synthetic geometry; not a real airport layout, boundary, route, or operational location.","generator_version":"4.0.0","random_seed":42},"geometry":{"type":"Point","coordinates":[1.36142,43.629076]}},{"type":"Feature","id":"asset-syn-ast-tls-004","properties":{"airport_id":"SYN-AP-TLS","terminal_id":"SYN-AP-TLS-T2","gate_id":"SYN-AP-TLS-G4","asset_id":"SYN-AST-TLS-004","feature_type":"OperationalAsset","illustrative_only":true,"is_synthetic":true,"data_classification":"Synthetic master data","geometry_disclaimer":"Illustrative synthetic geometry; not a real airport layout, boundary, route, or operational location.","generator_version":"4.0.0","random_seed":42},"geometry":{"type":"Point","coordinates":[1.3674199999999999,43.629425999999995]}},{"type":"Feature","id":"asset-syn-ast-tls-005","properties":{"airport_id":"SYN-AP-TLS","terminal_id":"SYN-AP-TLS-T2","gate_id":"SYN-AP-TLS-G5","asset_id":"SYN-AST-TLS-005","feature_type":"OperationalAsset","illustrative_only":true,"is_synthetic":true,"data_classification":"Synthetic master data","geometry_disclaimer":"Illustrative synthetic geometry; not a real airport layout, boundary, route, or operational location.","generator_version":"4.0.0","random_seed":42},"geometry":{"type":"Point","coordinates":[1.3674199999999999,43.629776]}},{"type":"Feature","id":"asset-syn-ast-tls-006","properties":{"airport_id":"SYN-AP-TLS","terminal_id":"SYN-AP-TLS-T2","gate_id":"SYN-AP-TLS-G6","asset_id":"SYN-AST-TLS-006","feature_type":"OperationalAsset","illustrative_only":true,"is_synthetic":true,"data_classification":"Synthetic master data","geometry_disclaimer":"Illustrative synthetic geometry; not a real airport layout, boundary, route, or operational location.","generator_version":"4.0.0","random_seed":42},"geometry":{"type":"Point","coordinates":[1.3674199999999999,43.630126]}},{"type":"Feature","id":"asset-syn-ast-fco-001","properties":{"airport_id":"SYN-AP-FCO","terminal_id":"SYN-AP-FCO-T1","gate_id":"SYN-AP-FCO-G1","asset_id":"SYN-AST-FCO-001","feature_type":"OperationalAsset","illustrative_only":true,"is_synthetic":true,"data_classification":"Synthetic master data","geometry_disclaimer":"Illustrative synthetic geometry; not a real airport layout, boundary, route, or operational location.","generator_version":"4.0.0","random_seed":42},"geometry":{"type":"Point","coordinates":[12.249598,41.803807]}},{"type":"Feature","id":"asset-syn-ast-fco-002","properties":{"airport_id":"SYN-AP-FCO","terminal_id":"SYN-AP-FCO-T1","gate_id":"SYN-AP-FCO-G2","asset_id":"SYN-AST-FCO-002","feature_type":"OperationalAsset","illustrative_only":true,"is_synthetic":true,"data_classification":"Synthetic master data","geometry_disclaimer":"Illustrative synthetic geometry; not a real airport layout, boundary, route, or operational location.","generator_version":"4.0.0","random_seed":42},"geometry":{"type":"Point","coordinates":[12.249598,41.804157]}},{"type":"Feature","id":"asset-syn-ast-fco-003","properties":{"airport_id":"SYN-AP-FCO","terminal_id":"SYN-AP-FCO-T1","gate_id":"SYN-AP-FCO-G3","asset_id":"SYN-AST-FCO-003","feature_type":"OperationalAsset","illustrative_only":true,"is_synthetic":true,"data_classification":"Synthetic master data","geometry_disclaimer":"Illustrative synthetic geometry; not a real airport layout, boundary, route, or operational location.","generator_version":"4.0.0","random_seed":42},"geometry":{"type":"Point","coordinates":[12.249598,41.804507]}},{"type":"Feature","id":"asset-syn-ast-fco-004","properties":{"airport_id":"SYN-AP-FCO","terminal_id":"SYN-AP-FCO-T2","gate_id":"SYN-AP-FCO-G4","asset_id":"SYN-AST-FCO-004","feature_type":"OperationalAsset","illustrative_only":true,"is_synthetic":true,"data_classification":"Synthetic master data","geometry_disclaimer":"Illustrative synthetic geometry; not a real airport layout, boundary, route, or operational location.","generator_version":"4.0.0","random_seed":42},"geometry":{"type":"Point","coordinates":[12.255598,41.804857]}},{"type":"Feature","id":"asset-syn-ast-fco-005","properties":{"airport_id":"SYN-AP-FCO","terminal_id":"SYN-AP-FCO-T2","gate_id":"SYN-AP-FCO-G5","asset_id":"SYN-AST-FCO-005","feature_type":"OperationalAsset","illustrative_only":true,"is_synthetic":true,"data_classification":"Synthetic master data","geometry_disclaimer":"Illustrative synthetic geometry; not a real airport layout, boundary, route, or operational location.","generator_version":"4.0.0","random_seed":42},"geometry":{"type":"Point","coordinates":[12.255598,41.805207]}},{"type":"Feature","id":"asset-syn-ast-fco-006","properties":{"airport_id":"SYN-AP-FCO","terminal_id":"SYN-AP-FCO-T2","gate_id":"SYN-AP-FCO-G6","asset_id":"SYN-AST-FCO-006","feature_type":"OperationalAsset","illustrative_only":true,"is_synthetic":true,"data_classification":"Synthetic master data","geometry_disclaimer":"Illustrative synthetic geometry; not a real airport layout, boundary, route, or operational location.","generator_version":"4.0.0","random_seed":42},"geometry":{"type":"Point","coordinates":[12.255598,41.805557]}},{"type":"Feature","id":"asset-syn-ast-mxp-001","properties":{"airport_id":"SYN-AP-MXP","terminal_id":"SYN-AP-MXP-T1","gate_id":"SYN-AP-MXP-G1","asset_id":"SYN-AST-MXP-001","feature_type":"OperationalAsset","illustrative_only":true,"is_synthetic":true,"data_classification":"Synthetic master data","geometry_disclaimer":"Illustrative synthetic geometry; not a real airport layout, boundary, route, or operational location.","generator_version":"4.0.0","random_seed":42},"geometry":{"type":"Point","coordinates":[8.72571,45.629875]}},{"type":"Feature","id":"asset-syn-ast-mxp-002","properties":{"airport_id":"SYN-AP-MXP","terminal_id":"SYN-AP-MXP-T1","gate_id":"SYN-AP-MXP-G2","asset_id":"SYN-AST-MXP-002","feature_type":"OperationalAsset","illustrative_only":true,"is_synthetic":true,"data_classification":"Synthetic master data","geometry_disclaimer":"Illustrative synthetic geometry; not a real airport layout, boundary, route, or operational location.","generator_version":"4.0.0","random_seed":42},"geometry":{"type":"Point","coordinates":[8.72571,45.630224999999996]}},{"type":"Feature","id":"asset-syn-ast-mxp-003","properties":{"airport_id":"SYN-AP-MXP","terminal_id":"SYN-AP-MXP-T1","gate_id":"SYN-AP-MXP-G3","asset_id":"SYN-AST-MXP-003","feature_type":"OperationalAsset","illustrative_only":true,"is_synthetic":true,"data_classification":"Synthetic master data","geometry_disclaimer":"Illustrative synthetic geometry; not a real airport layout, boundary, route, or operational location.","generator_version":"4.0.0","random_seed":42},"geometry":{"type":"Point","coordinates":[8.72571,45.630575]}},{"type":"Feature","id":"asset-syn-ast-mxp-004","properties":{"airport_id":"SYN-AP-MXP","terminal_id":"SYN-AP-MXP-T2","gate_id":"SYN-AP-MXP-G4","asset_id":"SYN-AST-MXP-004","feature_type":"OperationalAsset","illustrative_only":true,"is_synthetic":true,"data_classification":"Synthetic master data","geometry_disclaimer":"Illustrative synthetic geometry; not a real airport layout, boundary, route, or operational location.","generator_version":"4.0.0","random_seed":42},"geometry":{"type":"Point","coordinates":[8.73171,45.630925]}},{"type":"Feature","id":"asset-syn-ast-mxp-005","properties":{"airport_id":"SYN-AP-MXP","terminal_id":"SYN-AP-MXP-T2","gate_id":"SYN-AP-MXP-G5","asset_id":"SYN-AST-MXP-005","feature_type":"OperationalAsset","illustrative_only":true,"is_synthetic":true,"data_classification":"Synthetic master data","geometry_disclaimer":"Illustrative synthetic geometry; not a real airport layout, boundary, route, or operational location.","generator_version":"4.0.0","random_seed":42},"geometry":{"type":"Point","coordinates":[8.73171,45.631275]}},{"type":"Feature","id":"asset-syn-ast-mxp-006","properties":{"airport_id":"SYN-AP-MXP","terminal_id":"SYN-AP-MXP-T2","gate_id":"SYN-AP-MXP-G6","asset_id":"SYN-AST-MXP-006","feature_type":"OperationalAsset","illustrative_only":true,"is_synthetic":true,"data_classification":"Synthetic master data","geometry_disclaimer":"Illustrative synthetic geometry; not a real airport layout, boundary, route, or operational location.","generator_version":"4.0.0","random_seed":42},"geometry":{"type":"Point","coordinates":[8.73171,45.631625]}},{"type":"Feature","id":"asset-syn-ast-vce-001","properties":{"airport_id":"SYN-AP-VCE","terminal_id":"SYN-AP-VCE-T1","gate_id":"SYN-AP-VCE-G1","asset_id":"SYN-AST-VCE-001","feature_type":"OperationalAsset","illustrative_only":true,"is_synthetic":true,"data_classification":"Synthetic master data","geometry_disclaimer":"Illustrative synthetic geometry; not a real airport layout, boundary, route, or operational location.","generator_version":"4.0.0","random_seed":42},"geometry":{"type":"Point","coordinates":[12.3495,45.504574]}},{"type":"Feature","id":"asset-syn-ast-vce-002","properties":{"airport_id":"SYN-AP-VCE","terminal_id":"SYN-AP-VCE-T1","gate_id":"SYN-AP-VCE-G2","asset_id":"SYN-AST-VCE-002","feature_type":"OperationalAsset","illustrative_only":true,"is_synthetic":true,"data_classification":"Synthetic master data","geometry_disclaimer":"Illustrative synthetic geometry; not a real airport layout, boundary, route, or operational location.","generator_version":"4.0.0","random_seed":42},"geometry":{"type":"Point","coordinates":[12.3495,45.504923999999995]}},{"type":"Feature","id":"asset-syn-ast-vce-003","properties":{"airport_id":"SYN-AP-VCE","terminal_id":"SYN-AP-VCE-T1","gate_id":"SYN-AP-VCE-G3","asset_id":"SYN-AST-VCE-003","feature_type":"OperationalAsset","illustrative_only":true,"is_synthetic":true,"data_classification":"Synthetic master data","geometry_disclaimer":"Illustrative synthetic geometry; not a real airport layout, boundary, route, or operational location.","generator_version":"4.0.0","random_seed":42},"geometry":{"type":"Point","coordinates":[12.3495,45.505274]}},{"type":"Feature","id":"asset-syn-ast-vce-004","properties":{"airport_id":"SYN-AP-VCE","terminal_id":"SYN-AP-VCE-T2","gate_id":"SYN-AP-VCE-G4","asset_id":"SYN-AST-VCE-004","feature_type":"OperationalAsset","illustrative_only":true,"is_synthetic":true,"data_classification":"Synthetic master data","geometry_disclaimer":"Illustrative synthetic geometry; not a real airport layout, boundary, route, or operational location.","generator_version":"4.0.0","random_seed":42},"geometry":{"type":"Point","coordinates":[12.355500000000001,45.505624]}},{"type":"Feature","id":"asset-syn-ast-vce-005","properties":{"airport_id":"SYN-AP-VCE","terminal_id":"SYN-AP-VCE-T2","gate_id":"SYN-AP-VCE-G5","asset_id":"SYN-AST-VCE-005","feature_type":"OperationalAsset","illustrative_only":true,"is_synthetic":true,"data_classification":"Synthetic master data","geometry_disclaimer":"Illustrative synthetic geometry; not a real airport layout, boundary, route, or operational location.","generator_version":"4.0.0","random_seed":42},"geometry":{"type":"Point","coordinates":[12.355500000000001,45.505974]}},{"type":"Feature","id":"asset-syn-ast-vce-006","properties":{"airport_id":"SYN-AP-VCE","terminal_id":"SYN-AP-VCE-T2","gate_id":"SYN-AP-VCE-G6","asset_id":"SYN-AST-VCE-006","feature_type":"OperationalAsset","illustrative_only":true,"is_synthetic":true,"data_classification":"Synthetic master data","geometry_disclaimer":"Illustrative synthetic geometry; not a real airport layout, boundary, route, or operational location.","generator_version":"4.0.0","random_seed":42},"geometry":{"type":"Point","coordinates":[12.355500000000001,45.506324]}},{"type":"Feature","id":"asset-syn-ast-nap-001","properties":{"airport_id":"SYN-AP-NAP","terminal_id":"SYN-AP-NAP-T1","gate_id":"SYN-AP-NAP-G1","asset_id":"SYN-AST-NAP-001","feature_type":"OperationalAsset","illustrative_only":true,"is_synthetic":true,"data_classification":"Synthetic master data","geometry_disclaimer":"Illustrative synthetic geometry; not a real airport layout, boundary, route, or operational location.","generator_version":"4.0.0","random_seed":42},"geometry":{"type":"Point","coordinates":[14.288400000000001,40.885276999999995]}},{"type":"Feature","id":"asset-syn-ast-nap-002","properties":{"airport_id":"SYN-AP-NAP","terminal_id":"SYN-AP-NAP-T1","gate_id":"SYN-AP-NAP-G2","asset_id":"SYN-AST-NAP-002","feature_type":"OperationalAsset","illustrative_only":true,"is_synthetic":true,"data_classification":"Synthetic master data","geometry_disclaimer":"Illustrative synthetic geometry; not a real airport layout, boundary, route, or operational location.","generator_version":"4.0.0","random_seed":42},"geometry":{"type":"Point","coordinates":[14.288400000000001,40.88562699999999]}},{"type":"Feature","id":"asset-syn-ast-nap-003","properties":{"airport_id":"SYN-AP-NAP","terminal_id":"SYN-AP-NAP-T1","gate_id":"SYN-AP-NAP-G3","asset_id":"SYN-AST-NAP-003","feature_type":"OperationalAsset","illustrative_only":true,"is_synthetic":true,"data_classification":"Synthetic master data","geometry_disclaimer":"Illustrative synthetic geometry; not a real airport layout, boundary, route, or operational location.","generator_version":"4.0.0","random_seed":42},"geometry":{"type":"Point","coordinates":[14.288400000000001,40.885977]}},{"type":"Feature","id":"asset-syn-ast-nap-004","properties":{"airport_id":"SYN-AP-NAP","terminal_id":"SYN-AP-NAP-T2","gate_id":"SYN-AP-NAP-G4","asset_id":"SYN-AST-NAP-004","feature_type":"OperationalAsset","illustrative_only":true,"is_synthetic":true,"data_classification":"Synthetic master data","geometry_disclaimer":"Illustrative synthetic geometry; not a real airport layout, boundary, route, or operational location.","generator_version":"4.0.0","random_seed":42},"geometry":{"type":"Point","coordinates":[14.294400000000001,40.886326999999994]}},{"type":"Feature","id":"asset-syn-ast-nap-005","properties":{"airport_id":"SYN-AP-NAP","terminal_id":"SYN-AP-NAP-T2","gate_id":"SYN-AP-NAP-G5","asset_id":"SYN-AST-NAP-005","feature_type":"OperationalAsset","illustrative_only":true,"is_synthetic":true,"data_classification":"Synthetic master data","geometry_disclaimer":"Illustrative synthetic geometry; not a real airport layout, boundary, route, or operational location.","generator_version":"4.0.0","random_seed":42},"geometry":{"type":"Point","coordinates":[14.294400000000001,40.886677]}},{"type":"Feature","id":"asset-syn-ast-nap-006","properties":{"airport_id":"SYN-AP-NAP","terminal_id":"SYN-AP-NAP-T2","gate_id":"SYN-AP-NAP-G6","asset_id":"SYN-AST-NAP-006","feature_type":"OperationalAsset","illustrative_only":true,"is_synthetic":true,"data_classification":"Synthetic master data","geometry_disclaimer":"Illustrative synthetic geometry; not a real airport layout, boundary, route, or operational location.","generator_version":"4.0.0","random_seed":42},"geometry":{"type":"Point","coordinates":[14.294400000000001,40.887026999999996]}},{"type":"Feature","id":"asset-syn-ast-blq-001","properties":{"airport_id":"SYN-AP-BLQ","terminal_id":"SYN-AP-BLQ-T1","gate_id":"SYN-AP-BLQ-G1","asset_id":"SYN-AST-BLQ-001","feature_type":"OperationalAsset","illustrative_only":true,"is_synthetic":true,"data_classification":"Synthetic master data","geometry_disclaimer":"Illustrative synthetic geometry; not a real airport layout, boundary, route, or operational location.","generator_version":"4.0.0","random_seed":42},"geometry":{"type":"Point","coordinates":[11.2863,44.534675]}},{"type":"Feature","id":"asset-syn-ast-blq-002","properties":{"airport_id":"SYN-AP-BLQ","terminal_id":"SYN-AP-BLQ-T1","gate_id":"SYN-AP-BLQ-G2","asset_id":"SYN-AST-BLQ-002","feature_type":"OperationalAsset","illustrative_only":true,"is_synthetic":true,"data_classification":"Synthetic master data","geometry_disclaimer":"Illustrative synthetic geometry; not a real airport layout, boundary, route, or operational location.","generator_version":"4.0.0","random_seed":42},"geometry":{"type":"Point","coordinates":[11.2863,44.535025]}},{"type":"Feature","id":"asset-syn-ast-blq-003","properties":{"airport_id":"SYN-AP-BLQ","terminal_id":"SYN-AP-BLQ-T1","gate_id":"SYN-AP-BLQ-G3","asset_id":"SYN-AST-BLQ-003","feature_type":"OperationalAsset","illustrative_only":true,"is_synthetic":true,"data_classification":"Synthetic master data","geometry_disclaimer":"Illustrative synthetic geometry; not a real airport layout, boundary, route, or operational location.","generator_version":"4.0.0","random_seed":42},"geometry":{"type":"Point","coordinates":[11.2863,44.535375]}},{"type":"Feature","id":"asset-syn-ast-blq-004","properties":{"airport_id":"SYN-AP-BLQ","terminal_id":"SYN-AP-BLQ-T2","gate_id":"SYN-AP-BLQ-G4","asset_id":"SYN-AST-BLQ-004","feature_type":"OperationalAsset","illustrative_only":true,"is_synthetic":true,"data_classification":"Synthetic master data","geometry_disclaimer":"Illustrative synthetic geometry; not a real airport layout, boundary, route, or operational location.","generator_version":"4.0.0","random_seed":42},"geometry":{"type":"Point","coordinates":[11.292300000000001,44.535725]}},{"type":"Feature","id":"asset-syn-ast-blq-005","properties":{"airport_id":"SYN-AP-BLQ","terminal_id":"SYN-AP-BLQ-T2","gate_id":"SYN-AP-BLQ-G5","asset_id":"SYN-AST-BLQ-005","feature_type":"OperationalAsset","illustrative_only":true,"is_synthetic":true,"data_classification":"Synthetic master data","geometry_disclaimer":"Illustrative synthetic geometry; not a real airport layout, boundary, route, or operational location.","generator_version":"4.0.0","random_seed":42},"geometry":{"type":"Point","coordinates":[11.292300000000001,44.536075000000004]}},{"type":"Feature","id":"asset-syn-ast-blq-006","properties":{"airport_id":"SYN-AP-BLQ","terminal_id":"SYN-AP-BLQ-T2","gate_id":"SYN-AP-BLQ-G6","asset_id":"SYN-AST-BLQ-006","feature_type":"OperationalAsset","illustrative_only":true,"is_synthetic":true,"data_classification":"Synthetic master data","geometry_disclaimer":"Illustrative synthetic geometry; not a real airport layout, boundary, route, or operational location.","generator_version":"4.0.0","random_seed":42},"geometry":{"type":"Point","coordinates":[11.292300000000001,44.536425]}},{"type":"Feature","id":"asset-syn-ast-lis-001","properties":{"airport_id":"SYN-AP-LIS","terminal_id":"SYN-AP-LIS-T1","gate_id":"SYN-AP-LIS-G1","asset_id":"SYN-AST-LIS-001","feature_type":"OperationalAsset","illustrative_only":true,"is_synthetic":true,"data_classification":"Synthetic master data","geometry_disclaimer":"Illustrative synthetic geometry; not a real airport layout, boundary, route, or operational location.","generator_version":"4.0.0","random_seed":42},"geometry":{"type":"Point","coordinates":[-9.13832,38.780575]}},{"type":"Feature","id":"asset-syn-ast-lis-002","properties":{"airport_id":"SYN-AP-LIS","terminal_id":"SYN-AP-LIS-T1","gate_id":"SYN-AP-LIS-G2","asset_id":"SYN-AST-LIS-002","feature_type":"OperationalAsset","illustrative_only":true,"is_synthetic":true,"data_classification":"Synthetic master data","geometry_disclaimer":"Illustrative synthetic geometry; not a real airport layout, boundary, route, or operational location.","generator_version":"4.0.0","random_seed":42},"geometry":{"type":"Point","coordinates":[-9.13832,38.780924999999996]}},{"type":"Feature","id":"asset-syn-ast-lis-003","properties":{"airport_id":"SYN-AP-LIS","terminal_id":"SYN-AP-LIS-T1","gate_id":"SYN-AP-LIS-G3","asset_id":"SYN-AST-LIS-003","feature_type":"OperationalAsset","illustrative_only":true,"is_synthetic":true,"data_classification":"Synthetic master data","geometry_disclaimer":"Illustrative synthetic geometry; not a real airport layout, boundary, route, or operational location.","generator_version":"4.0.0","random_seed":42},"geometry":{"type":"Point","coordinates":[-9.13832,38.781275]}},{"type":"Feature","id":"asset-syn-ast-lis-004","properties":{"airport_id":"SYN-AP-LIS","terminal_id":"SYN-AP-LIS-T2","gate_id":"SYN-AP-LIS-G4","asset_id":"SYN-AST-LIS-004","feature_type":"OperationalAsset","illustrative_only":true,"is_synthetic":true,"data_classification":"Synthetic master data","geometry_disclaimer":"Illustrative synthetic geometry; not a real airport layout, boundary, route, or operational location.","generator_version":"4.0.0","random_seed":42},"geometry":{"type":"Point","coordinates":[-9.13232,38.781625]}},{"type":"Feature","id":"asset-syn-ast-lis-005","properties":{"airport_id":"SYN-AP-LIS","terminal_id":"SYN-AP-LIS-T2","gate_id":"SYN-AP-LIS-G5","asset_id":"SYN-AST-LIS-005","feature_type":"OperationalAsset","illustrative_only":true,"is_synthetic":true,"data_classification":"Synthetic master data","geometry_disclaimer":"Illustrative synthetic geometry; not a real airport layout, boundary, route, or operational location.","generator_version":"4.0.0","random_seed":42},"geometry":{"type":"Point","coordinates":[-9.13232,38.781975]}},{"type":"Feature","id":"asset-syn-ast-lis-006","properties":{"airport_id":"SYN-AP-LIS","terminal_id":"SYN-AP-LIS-T2","gate_id":"SYN-AP-LIS-G6","asset_id":"SYN-AST-LIS-006","feature_type":"OperationalAsset","illustrative_only":true,"is_synthetic":true,"data_classification":"Synthetic master data","geometry_disclaimer":"Illustrative synthetic geometry; not a real airport layout, boundary, route, or operational location.","generator_version":"4.0.0","random_seed":42},"geometry":{"type":"Point","coordinates":[-9.13232,38.782325]}},{"type":"Feature","id":"asset-syn-ast-opo-001","properties":{"airport_id":"SYN-AP-OPO","terminal_id":"SYN-AP-OPO-T1","gate_id":"SYN-AP-OPO-G1","asset_id":"SYN-AST-OPO-001","feature_type":"OperationalAsset","illustrative_only":true,"is_synthetic":true,"data_classification":"Synthetic master data","geometry_disclaimer":"Illustrative synthetic geometry; not a real airport layout, boundary, route, or operational location.","generator_version":"4.0.0","random_seed":42},"geometry":{"type":"Point","coordinates":[-8.68378980865,41.2473752808]}},{"type":"Feature","id":"asset-syn-ast-opo-002","properties":{"airport_id":"SYN-AP-OPO","terminal_id":"SYN-AP-OPO-T1","gate_id":"SYN-AP-OPO-G2","asset_id":"SYN-AST-OPO-002","feature_type":"OperationalAsset","illustrative_only":true,"is_synthetic":true,"data_classification":"Synthetic master data","geometry_disclaimer":"Illustrative synthetic geometry; not a real airport layout, boundary, route, or operational location.","generator_version":"4.0.0","random_seed":42},"geometry":{"type":"Point","coordinates":[-8.68378980865,41.2477252808]}},{"type":"Feature","id":"asset-syn-ast-opo-003","properties":{"airport_id":"SYN-AP-OPO","terminal_id":"SYN-AP-OPO-T1","gate_id":"SYN-AP-OPO-G3","asset_id":"SYN-AST-OPO-003","feature_type":"OperationalAsset","illustrative_only":true,"is_synthetic":true,"data_classification":"Synthetic master data","geometry_disclaimer":"Illustrative synthetic geometry; not a real airport layout, boundary, route, or operational location.","generator_version":"4.0.0","random_seed":42},"geometry":{"type":"Point","coordinates":[-8.68378980865,41.2480752808]}},{"type":"Feature","id":"asset-syn-ast-opo-004","properties":{"airport_id":"SYN-AP-OPO","terminal_id":"SYN-AP-OPO-T2","gate_id":"SYN-AP-OPO-G4","asset_id":"SYN-AST-OPO-004","feature_type":"OperationalAsset","illustrative_only":true,"is_synthetic":true,"data_classification":"Synthetic master data","geometry_disclaimer":"Illustrative synthetic geometry; not a real airport layout, boundary, route, or operational location.","generator_version":"4.0.0","random_seed":42},"geometry":{"type":"Point","coordinates":[-8.67778980865,41.2484252808]}},{"type":"Feature","id":"asset-syn-ast-opo-005","properties":{"airport_id":"SYN-AP-OPO","terminal_id":"SYN-AP-OPO-T2","gate_id":"SYN-AP-OPO-G5","asset_id":"SYN-AST-OPO-005","feature_type":"OperationalAsset","illustrative_only":true,"is_synthetic":true,"data_classification":"Synthetic master data","geometry_disclaimer":"Illustrative synthetic geometry; not a real airport layout, boundary, route, or operational location.","generator_version":"4.0.0","random_seed":42},"geometry":{"type":"Point","coordinates":[-8.67778980865,41.248775280800004]}},{"type":"Feature","id":"asset-syn-ast-opo-006","properties":{"airport_id":"SYN-AP-OPO","terminal_id":"SYN-AP-OPO-T2","gate_id":"SYN-AP-OPO-G6","asset_id":"SYN-AST-OPO-006","feature_type":"OperationalAsset","illustrative_only":true,"is_synthetic":true,"data_classification":"Synthetic master data","geometry_disclaimer":"Illustrative synthetic geometry; not a real airport layout, boundary, route, or operational location.","generator_version":"4.0.0","random_seed":42},"geometry":{"type":"Point","coordinates":[-8.67778980865,41.2491252808]}},{"type":"Feature","id":"asset-syn-ast-fao-001","properties":{"airport_id":"SYN-AP-FAO","terminal_id":"SYN-AP-FAO-T1","gate_id":"SYN-AP-FAO-G1","asset_id":"SYN-AST-FAO-001","feature_type":"OperationalAsset","illustrative_only":true,"is_synthetic":true,"data_classification":"Synthetic master data","geometry_disclaimer":"Illustrative synthetic geometry; not a real airport layout, boundary, route, or operational location.","generator_version":"4.0.0","random_seed":42},"geometry":{"type":"Point","coordinates":[-7.973339,37.015184]}},{"type":"Feature","id":"asset-syn-ast-fao-002","properties":{"airport_id":"SYN-AP-FAO","terminal_id":"SYN-AP-FAO-T1","gate_id":"SYN-AP-FAO-G2","asset_id":"SYN-AST-FAO-002","feature_type":"OperationalAsset","illustrative_only":true,"is_synthetic":true,"data_classification":"Synthetic master data","geometry_disclaimer":"Illustrative synthetic geometry; not a real airport layout, boundary, route, or operational location.","generator_version":"4.0.0","random_seed":42},"geometry":{"type":"Point","coordinates":[-7.973339,37.015533999999995]}},{"type":"Feature","id":"asset-syn-ast-fao-003","properties":{"airport_id":"SYN-AP-FAO","terminal_id":"SYN-AP-FAO-T1","gate_id":"SYN-AP-FAO-G3","asset_id":"SYN-AST-FAO-003","feature_type":"OperationalAsset","illustrative_only":true,"is_synthetic":true,"data_classification":"Synthetic master data","geometry_disclaimer":"Illustrative synthetic geometry; not a real airport layout, boundary, route, or operational location.","generator_version":"4.0.0","random_seed":42},"geometry":{"type":"Point","coordinates":[-7.973339,37.015884]}},{"type":"Feature","id":"asset-syn-ast-fao-004","properties":{"airport_id":"SYN-AP-FAO","terminal_id":"SYN-AP-FAO-T2","gate_id":"SYN-AP-FAO-G4","asset_id":"SYN-AST-FAO-004","feature_type":"OperationalAsset","illustrative_only":true,"is_synthetic":true,"data_classification":"Synthetic master data","geometry_disclaimer":"Illustrative synthetic geometry; not a real airport layout, boundary, route, or operational location.","generator_version":"4.0.0","random_seed":42},"geometry":{"type":"Point","coordinates":[-7.967339,37.016234]}},{"type":"Feature","id":"asset-syn-ast-fao-005","properties":{"airport_id":"SYN-AP-FAO","terminal_id":"SYN-AP-FAO-T2","gate_id":"SYN-AP-FAO-G5","asset_id":"SYN-AST-FAO-005","feature_type":"OperationalAsset","illustrative_only":true,"is_synthetic":true,"data_classification":"Synthetic master data","geometry_disclaimer":"Illustrative synthetic geometry; not a real airport layout, boundary, route, or operational location.","generator_version":"4.0.0","random_seed":42},"geometry":{"type":"Point","coordinates":[-7.967339,37.016584]}},{"type":"Feature","id":"asset-syn-ast-fao-006","properties":{"airport_id":"SYN-AP-FAO","terminal_id":"SYN-AP-FAO-T2","gate_id":"SYN-AP-FAO-G6","asset_id":"SYN-AST-FAO-006","feature_type":"OperationalAsset","illustrative_only":true,"is_synthetic":true,"data_classification":"Synthetic master data","geometry_disclaimer":"Illustrative synthetic geometry; not a real airport layout, boundary, route, or operational location.","generator_version":"4.0.0","random_seed":42},"geometry":{"type":"Point","coordinates":[-7.967339,37.016934]}},{"type":"Feature","id":"asset-syn-ast-fnc-001","properties":{"airport_id":"SYN-AP-FNC","terminal_id":"SYN-AP-FNC-T1","gate_id":"SYN-AP-FNC-G1","asset_id":"SYN-AST-FNC-001","feature_type":"OperationalAsset","illustrative_only":true,"is_synthetic":true,"data_classification":"Synthetic master data","geometry_disclaimer":"Illustrative synthetic geometry; not a real airport layout, boundary, route, or operational location.","generator_version":"4.0.0","random_seed":42},"geometry":{"type":"Point","coordinates":[-16.777013,32.697086999999996]}},{"type":"Feature","id":"asset-syn-ast-fnc-002","properties":{"airport_id":"SYN-AP-FNC","terminal_id":"SYN-AP-FNC-T1","gate_id":"SYN-AP-FNC-G2","asset_id":"SYN-AST-FNC-002","feature_type":"OperationalAsset","illustrative_only":true,"is_synthetic":true,"data_classification":"Synthetic master data","geometry_disclaimer":"Illustrative synthetic geometry; not a real airport layout, boundary, route, or operational location.","generator_version":"4.0.0","random_seed":42},"geometry":{"type":"Point","coordinates":[-16.777013,32.697436999999994]}},{"type":"Feature","id":"asset-syn-ast-fnc-003","properties":{"airport_id":"SYN-AP-FNC","terminal_id":"SYN-AP-FNC-T1","gate_id":"SYN-AP-FNC-G3","asset_id":"SYN-AST-FNC-003","feature_type":"OperationalAsset","illustrative_only":true,"is_synthetic":true,"data_classification":"Synthetic master data","geometry_disclaimer":"Illustrative synthetic geometry; not a real airport layout, boundary, route, or operational location.","generator_version":"4.0.0","random_seed":42},"geometry":{"type":"Point","coordinates":[-16.777013,32.697787]}},{"type":"Feature","id":"asset-syn-ast-fnc-004","properties":{"airport_id":"SYN-AP-FNC","terminal_id":"SYN-AP-FNC-T2","gate_id":"SYN-AP-FNC-G4","asset_id":"SYN-AST-FNC-004","feature_type":"OperationalAsset","illustrative_only":true,"is_synthetic":true,"data_classification":"Synthetic master data","geometry_disclaimer":"Illustrative synthetic geometry; not a real airport layout, boundary, route, or operational location.","generator_version":"4.0.0","random_seed":42},"geometry":{"type":"Point","coordinates":[-16.771013,32.698136999999996]}},{"type":"Feature","id":"asset-syn-ast-fnc-005","properties":{"airport_id":"SYN-AP-FNC","terminal_id":"SYN-AP-FNC-T2","gate_id":"SYN-AP-FNC-G5","asset_id":"SYN-AST-FNC-005","feature_type":"OperationalAsset","illustrative_only":true,"is_synthetic":true,"data_classification":"Synthetic master data","geometry_disclaimer":"Illustrative synthetic geometry; not a real airport layout, boundary, route, or operational location.","generator_version":"4.0.0","random_seed":42},"geometry":{"type":"Point","coordinates":[-16.771013,32.698487]}},{"type":"Feature","id":"asset-syn-ast-fnc-006","properties":{"airport_id":"SYN-AP-FNC","terminal_id":"SYN-AP-FNC-T2","gate_id":"SYN-AP-FNC-G6","asset_id":"SYN-AST-FNC-006","feature_type":"OperationalAsset","illustrative_only":true,"is_synthetic":true,"data_classification":"Synthetic master data","geometry_disclaimer":"Illustrative synthetic geometry; not a real airport layout, boundary, route, or operational location.","generator_version":"4.0.0","random_seed":42},"geometry":{"type":"Point","coordinates":[-16.771013,32.698837]}},{"type":"Feature","id":"asset-syn-ast-pdl-001","properties":{"airport_id":"SYN-AP-PDL","terminal_id":"SYN-AP-PDL-T1","gate_id":"SYN-AP-PDL-G1","asset_id":"SYN-AST-PDL-001","feature_type":"OperationalAsset","illustrative_only":true,"is_synthetic":true,"data_classification":"Synthetic master data","geometry_disclaimer":"Illustrative synthetic geometry; not a real airport layout, boundary, route, or operational location.","generator_version":"4.0.0","random_seed":42},"geometry":{"type":"Point","coordinates":[-25.7003007721,37.7404744934]}},{"type":"Feature","id":"asset-syn-ast-pdl-002","properties":{"airport_id":"SYN-AP-PDL","terminal_id":"SYN-AP-PDL-T1","gate_id":"SYN-AP-PDL-G2","asset_id":"SYN-AST-PDL-002","feature_type":"OperationalAsset","illustrative_only":true,"is_synthetic":true,"data_classification":"Synthetic master data","geometry_disclaimer":"Illustrative synthetic geometry; not a real airport layout, boundary, route, or operational location.","generator_version":"4.0.0","random_seed":42},"geometry":{"type":"Point","coordinates":[-25.7003007721,37.7408244934]}},{"type":"Feature","id":"asset-syn-ast-pdl-003","properties":{"airport_id":"SYN-AP-PDL","terminal_id":"SYN-AP-PDL-T1","gate_id":"SYN-AP-PDL-G3","asset_id":"SYN-AST-PDL-003","feature_type":"OperationalAsset","illustrative_only":true,"is_synthetic":true,"data_classification":"Synthetic master data","geometry_disclaimer":"Illustrative synthetic geometry; not a real airport layout, boundary, route, or operational location.","generator_version":"4.0.0","random_seed":42},"geometry":{"type":"Point","coordinates":[-25.7003007721,37.7411744934]}},{"type":"Feature","id":"asset-syn-ast-pdl-004","properties":{"airport_id":"SYN-AP-PDL","terminal_id":"SYN-AP-PDL-T2","gate_id":"SYN-AP-PDL-G4","asset_id":"SYN-AST-PDL-004","feature_type":"OperationalAsset","illustrative_only":true,"is_synthetic":true,"data_classification":"Synthetic master data","geometry_disclaimer":"Illustrative synthetic geometry; not a real airport layout, boundary, route, or operational location.","generator_version":"4.0.0","random_seed":42},"geometry":{"type":"Point","coordinates":[-25.6943007721,37.7415244934]}},{"type":"Feature","id":"asset-syn-ast-pdl-005","properties":{"airport_id":"SYN-AP-PDL","terminal_id":"SYN-AP-PDL-T2","gate_id":"SYN-AP-PDL-G5","asset_id":"SYN-AST-PDL-005","feature_type":"OperationalAsset","illustrative_only":true,"is_synthetic":true,"data_classification":"Synthetic master data","geometry_disclaimer":"Illustrative synthetic geometry; not a real airport layout, boundary, route, or operational location.","generator_version":"4.0.0","random_seed":42},"geometry":{"type":"Point","coordinates":[-25.6943007721,37.741874493400005]}},{"type":"Feature","id":"asset-syn-ast-pdl-006","properties":{"airport_id":"SYN-AP-PDL","terminal_id":"SYN-AP-PDL-T2","gate_id":"SYN-AP-PDL-G6","asset_id":"SYN-AST-PDL-006","feature_type":"OperationalAsset","illustrative_only":true,"is_synthetic":true,"data_classification":"Synthetic master data","geometry_disclaimer":"Illustrative synthetic geometry; not a real airport layout, boundary, route, or operational location.","generator_version":"4.0.0","random_seed":42},"geometry":{"type":"Point","coordinates":[-25.6943007721,37.7422244934]}},{"type":"Feature","id":"asset-syn-ast-amm-001","properties":{"airport_id":"SYN-AP-AMM","terminal_id":"SYN-AP-AMM-T1","gate_id":"SYN-AP-AMM-G1","asset_id":"SYN-AST-AMM-001","feature_type":"OperationalAsset","illustrative_only":true,"is_synthetic":true,"data_classification":"Synthetic master data","geometry_disclaimer":"Illustrative synthetic geometry; not a real airport layout, boundary, route, or operational location.","generator_version":"4.0.0","random_seed":42},"geometry":{"type":"Point","coordinates":[35.990798394799995,31.721875936900002]}},{"type":"Feature","id":"asset-syn-ast-amm-002","properties":{"airport_id":"SYN-AP-AMM","terminal_id":"SYN-AP-AMM-T1","gate_id":"SYN-AP-AMM-G2","asset_id":"SYN-AST-AMM-002","feature_type":"OperationalAsset","illustrative_only":true,"is_synthetic":true,"data_classification":"Synthetic master data","geometry_disclaimer":"Illustrative synthetic geometry; not a real airport layout, boundary, route, or operational location.","generator_version":"4.0.0","random_seed":42},"geometry":{"type":"Point","coordinates":[35.990798394799995,31.722225936900003]}},{"type":"Feature","id":"asset-syn-ast-amm-003","properties":{"airport_id":"SYN-AP-AMM","terminal_id":"SYN-AP-AMM-T1","gate_id":"SYN-AP-AMM-G3","asset_id":"SYN-AST-AMM-003","feature_type":"OperationalAsset","illustrative_only":true,"is_synthetic":true,"data_classification":"Synthetic master data","geometry_disclaimer":"Illustrative synthetic geometry; not a real airport layout, boundary, route, or operational location.","generator_version":"4.0.0","random_seed":42},"geometry":{"type":"Point","coordinates":[35.990798394799995,31.722575936900004]}},{"type":"Feature","id":"asset-syn-ast-amm-004","properties":{"airport_id":"SYN-AP-AMM","terminal_id":"SYN-AP-AMM-T2","gate_id":"SYN-AP-AMM-G4","asset_id":"SYN-AST-AMM-004","feature_type":"OperationalAsset","illustrative_only":true,"is_synthetic":true,"data_classification":"Synthetic master data","geometry_disclaimer":"Illustrative synthetic geometry; not a real airport layout, boundary, route, or operational location.","generator_version":"4.0.0","random_seed":42},"geometry":{"type":"Point","coordinates":[35.996798394799995,31.7229259369]}},{"type":"Feature","id":"asset-syn-ast-amm-005","properties":{"airport_id":"SYN-AP-AMM","terminal_id":"SYN-AP-AMM-T2","gate_id":"SYN-AP-AMM-G5","asset_id":"SYN-AST-AMM-005","feature_type":"OperationalAsset","illustrative_only":true,"is_synthetic":true,"data_classification":"Synthetic master data","geometry_disclaimer":"Illustrative synthetic geometry; not a real airport layout, boundary, route, or operational location.","generator_version":"4.0.0","random_seed":42},"geometry":{"type":"Point","coordinates":[35.996798394799995,31.723275936900002]}},{"type":"Feature","id":"asset-syn-ast-amm-006","properties":{"airport_id":"SYN-AP-AMM","terminal_id":"SYN-AP-AMM-T2","gate_id":"SYN-AP-AMM-G6","asset_id":"SYN-AST-AMM-006","feature_type":"OperationalAsset","illustrative_only":true,"is_synthetic":true,"data_classification":"Synthetic master data","geometry_disclaimer":"Illustrative synthetic geometry; not a real airport layout, boundary, route, or operational location.","generator_version":"4.0.0","random_seed":42},"geometry":{"type":"Point","coordinates":[35.996798394799995,31.723625936900003]}},{"type":"Feature","id":"asset-syn-ast-aqj-001","properties":{"airport_id":"SYN-AP-AQJ","terminal_id":"SYN-AP-AQJ-T1","gate_id":"SYN-AP-AQJ-G1","asset_id":"SYN-AST-AQJ-001","feature_type":"OperationalAsset","illustrative_only":true,"is_synthetic":true,"data_classification":"Synthetic master data","geometry_disclaimer":"Illustrative synthetic geometry; not a real airport layout, boundary, route, or operational location.","generator_version":"4.0.0","random_seed":42},"geometry":{"type":"Point","coordinates":[35.015701,29.610876]}},{"type":"Feature","id":"asset-syn-ast-aqj-002","properties":{"airport_id":"SYN-AP-AQJ","terminal_id":"SYN-AP-AQJ-T1","gate_id":"SYN-AP-AQJ-G2","asset_id":"SYN-AST-AQJ-002","feature_type":"OperationalAsset","illustrative_only":true,"is_synthetic":true,"data_classification":"Synthetic master data","geometry_disclaimer":"Illustrative synthetic geometry; not a real airport layout, boundary, route, or operational location.","generator_version":"4.0.0","random_seed":42},"geometry":{"type":"Point","coordinates":[35.015701,29.611226000000002]}},{"type":"Feature","id":"asset-syn-ast-aqj-003","properties":{"airport_id":"SYN-AP-AQJ","terminal_id":"SYN-AP-AQJ-T1","gate_id":"SYN-AP-AQJ-G3","asset_id":"SYN-AST-AQJ-003","feature_type":"OperationalAsset","illustrative_only":true,"is_synthetic":true,"data_classification":"Synthetic master data","geometry_disclaimer":"Illustrative synthetic geometry; not a real airport layout, boundary, route, or operational location.","generator_version":"4.0.0","random_seed":42},"geometry":{"type":"Point","coordinates":[35.015701,29.611576000000003]}},{"type":"Feature","id":"asset-syn-ast-aqj-004","properties":{"airport_id":"SYN-AP-AQJ","terminal_id":"SYN-AP-AQJ-T2","gate_id":"SYN-AP-AQJ-G4","asset_id":"SYN-AST-AQJ-004","feature_type":"OperationalAsset","illustrative_only":true,"is_synthetic":true,"data_classification":"Synthetic master data","geometry_disclaimer":"Illustrative synthetic geometry; not a real airport layout, boundary, route, or operational location.","generator_version":"4.0.0","random_seed":42},"geometry":{"type":"Point","coordinates":[35.021701,29.611926]}},{"type":"Feature","id":"asset-syn-ast-aqj-005","properties":{"airport_id":"SYN-AP-AQJ","terminal_id":"SYN-AP-AQJ-T2","gate_id":"SYN-AP-AQJ-G5","asset_id":"SYN-AST-AQJ-005","feature_type":"OperationalAsset","illustrative_only":true,"is_synthetic":true,"data_classification":"Synthetic master data","geometry_disclaimer":"Illustrative synthetic geometry; not a real airport layout, boundary, route, or operational location.","generator_version":"4.0.0","random_seed":42},"geometry":{"type":"Point","coordinates":[35.021701,29.612276]}},{"type":"Feature","id":"asset-syn-ast-aqj-006","properties":{"airport_id":"SYN-AP-AQJ","terminal_id":"SYN-AP-AQJ-T2","gate_id":"SYN-AP-AQJ-G6","asset_id":"SYN-AST-AQJ-006","feature_type":"OperationalAsset","illustrative_only":true,"is_synthetic":true,"data_classification":"Synthetic master data","geometry_disclaimer":"Illustrative synthetic geometry; not a real airport layout, boundary, route, or operational location.","generator_version":"4.0.0","random_seed":42},"geometry":{"type":"Point","coordinates":[35.021701,29.612626000000002]}}]}
