{"type":"FeatureCollection","name":"stands","features":[{"type":"Feature","id":"stand-syn-ap-cdg-s1","properties":{"airport_id":"SYN-AP-CDG","terminal_id":"SYN-AP-CDG-T1","gate_id":"SYN-AP-CDG-G1","stand_id":"SYN-AP-CDG-S1","feature_type":"Stand","is_synthetic":true,"data_classification":"Synthetic master data","geometry_disclaimer":"Illustrative synthetic geometry; not a real airport layout, boundary, route, or operational location.","generator_version":"4.0.0","random_seed":42},"geometry":{"type":"Point","coordinates":[2.552617,49.008085]}},{"type":"Feature","id":"stand-syn-ap-cdg-s2","properties":{"airport_id":"SYN-AP-CDG","terminal_id":"SYN-AP-CDG-T1","gate_id":"SYN-AP-CDG-G2","stand_id":"SYN-AP-CDG-S2","feature_type":"Stand","is_synthetic":true,"data_classification":"Synthetic master data","geometry_disclaimer":"Illustrative synthetic geometry; not a real airport layout, boundary, route, or operational location.","generator_version":"4.0.0","random_seed":42},"geometry":{"type":"Point","coordinates":[2.552617,49.008435]}},{"type":"Feature","id":"stand-syn-ap-cdg-s3","properties":{"airport_id":"SYN-AP-CDG","terminal_id":"SYN-AP-CDG-T1","gate_id":"SYN-AP-CDG-G3","stand_id":"SYN-AP-CDG-S3","feature_type":"Stand","is_synthetic":true,"data_classification":"Synthetic master data","geometry_disclaimer":"Illustrative synthetic geometry; not a real airport layout, boundary, route, or operational location.","generator_version":"4.0.0","random_seed":42},"geometry":{"type":"Point","coordinates":[2.552617,49.008785]}},{"type":"Feature","id":"stand-syn-ap-cdg-s4","properties":{"airport_id":"SYN-AP-CDG","terminal_id":"SYN-AP-CDG-T2","gate_id":"SYN-AP-CDG-G4","stand_id":"SYN-AP-CDG-S4","feature_type":"Stand","is_synthetic":true,"data_classification":"Synthetic master data","geometry_disclaimer":"Illustrative synthetic geometry; not a real airport layout, boundary, route, or operational location.","generator_version":"4.0.0","random_seed":42},"geometry":{"type":"Point","coordinates":[2.5586170000000004,49.009135]}},{"type":"Feature","id":"stand-syn-ap-cdg-s5","properties":{"airport_id":"SYN-AP-CDG","terminal_id":"SYN-AP-CDG-T2","gate_id":"SYN-AP-CDG-G5","stand_id":"SYN-AP-CDG-S5","feature_type":"Stand","is_synthetic":true,"data_classification":"Synthetic master data","geometry_disclaimer":"Illustrative synthetic geometry; not a real airport layout, boundary, route, or operational location.","generator_version":"4.0.0","random_seed":42},"geometry":{"type":"Point","coordinates":[2.5586170000000004,49.009485000000005]}},{"type":"Feature","id":"stand-syn-ap-cdg-s6","properties":{"airport_id":"SYN-AP-CDG","terminal_id":"SYN-AP-CDG-T2","gate_id":"SYN-AP-CDG-G6","stand_id":"SYN-AP-CDG-S6","feature_type":"Stand","is_synthetic":true,"data_classification":"Synthetic master data","geometry_disclaimer":"Illustrative synthetic geometry; not a real airport layout, boundary, route, or operational location.","generator_version":"4.0.0","random_seed":42},"geometry":{"type":"Point","coordinates":[2.5586170000000004,49.009835]}},{"type":"Feature","id":"stand-syn-ap-ory-s1","properties":{"airport_id":"SYN-AP-ORY","terminal_id":"SYN-AP-ORY-T1","gate_id":"SYN-AP-ORY-G1","stand_id":"SYN-AP-ORY-S1","feature_type":"Stand","is_synthetic":true,"data_classification":"Synthetic master data","geometry_disclaimer":"Illustrative synthetic geometry; not a real airport layout, boundary, route, or operational location.","generator_version":"4.0.0","random_seed":42},"geometry":{"type":"Point","coordinates":[2.357463,48.728623999999996]}},{"type":"Feature","id":"stand-syn-ap-ory-s2","properties":{"airport_id":"SYN-AP-ORY","terminal_id":"SYN-AP-ORY-T1","gate_id":"SYN-AP-ORY-G2","stand_id":"SYN-AP-ORY-S2","feature_type":"Stand","is_synthetic":true,"data_classification":"Synthetic master data","geometry_disclaimer":"Illustrative synthetic geometry; not a real airport layout, boundary, route, or operational location.","generator_version":"4.0.0","random_seed":42},"geometry":{"type":"Point","coordinates":[2.357463,48.728973999999994]}},{"type":"Feature","id":"stand-syn-ap-ory-s3","properties":{"airport_id":"SYN-AP-ORY","terminal_id":"SYN-AP-ORY-T1","gate_id":"SYN-AP-ORY-G3","stand_id":"SYN-AP-ORY-S3","feature_type":"Stand","is_synthetic":true,"data_classification":"Synthetic master data","geometry_disclaimer":"Illustrative synthetic geometry; not a real airport layout, boundary, route, or operational location.","generator_version":"4.0.0","random_seed":42},"geometry":{"type":"Point","coordinates":[2.357463,48.729324]}},{"type":"Feature","id":"stand-syn-ap-ory-s4","properties":{"airport_id":"SYN-AP-ORY","terminal_id":"SYN-AP-ORY-T2","gate_id":"SYN-AP-ORY-G4","stand_id":"SYN-AP-ORY-S4","feature_type":"Stand","is_synthetic":true,"data_classification":"Synthetic master data","geometry_disclaimer":"Illustrative synthetic geometry; not a real airport layout, boundary, route, or operational location.","generator_version":"4.0.0","random_seed":42},"geometry":{"type":"Point","coordinates":[2.3634630000000003,48.729673999999996]}},{"type":"Feature","id":"stand-syn-ap-ory-s5","properties":{"airport_id":"SYN-AP-ORY","terminal_id":"SYN-AP-ORY-T2","gate_id":"SYN-AP-ORY-G5","stand_id":"SYN-AP-ORY-S5","feature_type":"Stand","is_synthetic":true,"data_classification":"Synthetic master data","geometry_disclaimer":"Illustrative synthetic geometry; not a real airport layout, boundary, route, or operational location.","generator_version":"4.0.0","random_seed":42},"geometry":{"type":"Point","coordinates":[2.3634630000000003,48.730024]}},{"type":"Feature","id":"stand-syn-ap-ory-s6","properties":{"airport_id":"SYN-AP-ORY","terminal_id":"SYN-AP-ORY-T2","gate_id":"SYN-AP-ORY-G6","stand_id":"SYN-AP-ORY-S6","feature_type":"Stand","is_synthetic":true,"data_classification":"Synthetic master data","geometry_disclaimer":"Illustrative synthetic geometry; not a real airport layout, boundary, route, or operational location.","generator_version":"4.0.0","random_seed":42},"geometry":{"type":"Point","coordinates":[2.3634630000000003,48.730374]}},{"type":"Feature","id":"stand-syn-ap-nce-s1","properties":{"airport_id":"SYN-AP-NCE","terminal_id":"SYN-AP-NCE-T1","gate_id":"SYN-AP-NCE-G1","stand_id":"SYN-AP-NCE-S1","feature_type":"Stand","is_synthetic":true,"data_classification":"Synthetic master data","geometry_disclaimer":"Illustrative synthetic geometry; not a real airport layout, boundary, route, or operational location.","generator_version":"4.0.0","random_seed":42},"geometry":{"type":"Point","coordinates":[7.21437,43.657526]}},{"type":"Feature","id":"stand-syn-ap-nce-s2","properties":{"airport_id":"SYN-AP-NCE","terminal_id":"SYN-AP-NCE-T1","gate_id":"SYN-AP-NCE-G2","stand_id":"SYN-AP-NCE-S2","feature_type":"Stand","is_synthetic":true,"data_classification":"Synthetic master data","geometry_disclaimer":"Illustrative synthetic geometry; not a real airport layout, boundary, route, or operational location.","generator_version":"4.0.0","random_seed":42},"geometry":{"type":"Point","coordinates":[7.21437,43.657875999999995]}},{"type":"Feature","id":"stand-syn-ap-nce-s3","properties":{"airport_id":"SYN-AP-NCE","terminal_id":"SYN-AP-NCE-T1","gate_id":"SYN-AP-NCE-G3","stand_id":"SYN-AP-NCE-S3","feature_type":"Stand","is_synthetic":true,"data_classification":"Synthetic master data","geometry_disclaimer":"Illustrative synthetic geometry; not a real airport layout, boundary, route, or operational location.","generator_version":"4.0.0","random_seed":42},"geometry":{"type":"Point","coordinates":[7.21437,43.658226]}},{"type":"Feature","id":"stand-syn-ap-nce-s4","properties":{"airport_id":"SYN-AP-NCE","terminal_id":"SYN-AP-NCE-T2","gate_id":"SYN-AP-NCE-G4","stand_id":"SYN-AP-NCE-S4","feature_type":"Stand","is_synthetic":true,"data_classification":"Synthetic master data","geometry_disclaimer":"Illustrative synthetic geometry; not a real airport layout, boundary, route, or operational location.","generator_version":"4.0.0","random_seed":42},"geometry":{"type":"Point","coordinates":[7.22037,43.658576]}},{"type":"Feature","id":"stand-syn-ap-nce-s5","properties":{"airport_id":"SYN-AP-NCE","terminal_id":"SYN-AP-NCE-T2","gate_id":"SYN-AP-NCE-G5","stand_id":"SYN-AP-NCE-S5","feature_type":"Stand","is_synthetic":true,"data_classification":"Synthetic master data","geometry_disclaimer":"Illustrative synthetic geometry; not a real airport layout, boundary, route, or operational location.","generator_version":"4.0.0","random_seed":42},"geometry":{"type":"Point","coordinates":[7.22037,43.658926]}},{"type":"Feature","id":"stand-syn-ap-nce-s6","properties":{"airport_id":"SYN-AP-NCE","terminal_id":"SYN-AP-NCE-T2","gate_id":"SYN-AP-NCE-G6","stand_id":"SYN-AP-NCE-S6","feature_type":"Stand","is_synthetic":true,"data_classification":"Synthetic master data","geometry_disclaimer":"Illustrative synthetic geometry; not a real airport layout, boundary, route, or operational location.","generator_version":"4.0.0","random_seed":42},"geometry":{"type":"Point","coordinates":[7.22037,43.659276]}},{"type":"Feature","id":"stand-syn-ap-lys-s1","properties":{"airport_id":"SYN-AP-LYS","terminal_id":"SYN-AP-LYS-T1","gate_id":"SYN-AP-LYS-G1","stand_id":"SYN-AP-LYS-S1","feature_type":"Stand","is_synthetic":true,"data_classification":"Synthetic master data","geometry_disclaimer":"Illustrative synthetic geometry; not a real airport layout, boundary, route, or operational location.","generator_version":"4.0.0","random_seed":42},"geometry":{"type":"Point","coordinates":[5.088639,45.725121]}},{"type":"Feature","id":"stand-syn-ap-lys-s2","properties":{"airport_id":"SYN-AP-LYS","terminal_id":"SYN-AP-LYS-T1","gate_id":"SYN-AP-LYS-G2","stand_id":"SYN-AP-LYS-S2","feature_type":"Stand","is_synthetic":true,"data_classification":"Synthetic master data","geometry_disclaimer":"Illustrative synthetic geometry; not a real airport layout, boundary, route, or operational location.","generator_version":"4.0.0","random_seed":42},"geometry":{"type":"Point","coordinates":[5.088639,45.725471]}},{"type":"Feature","id":"stand-syn-ap-lys-s3","properties":{"airport_id":"SYN-AP-LYS","terminal_id":"SYN-AP-LYS-T1","gate_id":"SYN-AP-LYS-G3","stand_id":"SYN-AP-LYS-S3","feature_type":"Stand","is_synthetic":true,"data_classification":"Synthetic master data","geometry_disclaimer":"Illustrative synthetic geometry; not a real airport layout, boundary, route, or operational location.","generator_version":"4.0.0","random_seed":42},"geometry":{"type":"Point","coordinates":[5.088639,45.725821]}},{"type":"Feature","id":"stand-syn-ap-lys-s4","properties":{"airport_id":"SYN-AP-LYS","terminal_id":"SYN-AP-LYS-T2","gate_id":"SYN-AP-LYS-G4","stand_id":"SYN-AP-LYS-S4","feature_type":"Stand","is_synthetic":true,"data_classification":"Synthetic master data","geometry_disclaimer":"Illustrative synthetic geometry; not a real airport layout, boundary, route, or operational location.","generator_version":"4.0.0","random_seed":42},"geometry":{"type":"Point","coordinates":[5.094639,45.726171]}},{"type":"Feature","id":"stand-syn-ap-lys-s5","properties":{"airport_id":"SYN-AP-LYS","terminal_id":"SYN-AP-LYS-T2","gate_id":"SYN-AP-LYS-G5","stand_id":"SYN-AP-LYS-S5","feature_type":"Stand","is_synthetic":true,"data_classification":"Synthetic master data","geometry_disclaimer":"Illustrative synthetic geometry; not a real airport layout, boundary, route, or operational location.","generator_version":"4.0.0","random_seed":42},"geometry":{"type":"Point","coordinates":[5.094639,45.726521000000005]}},{"type":"Feature","id":"stand-syn-ap-lys-s6","properties":{"airport_id":"SYN-AP-LYS","terminal_id":"SYN-AP-LYS-T2","gate_id":"SYN-AP-LYS-G6","stand_id":"SYN-AP-LYS-S6","feature_type":"Stand","is_synthetic":true,"data_classification":"Synthetic master data","geometry_disclaimer":"Illustrative synthetic geometry; not a real airport layout, boundary, route, or operational location.","generator_version":"4.0.0","random_seed":42},"geometry":{"type":"Point","coordinates":[5.094639,45.726871]}},{"type":"Feature","id":"stand-syn-ap-mrs-s1","properties":{"airport_id":"SYN-AP-MRS","terminal_id":"SYN-AP-MRS-T1","gate_id":"SYN-AP-MRS-G1","stand_id":"SYN-AP-MRS-S1","feature_type":"Stand","is_synthetic":true,"data_classification":"Synthetic master data","geometry_disclaimer":"Illustrative synthetic geometry; not a real airport layout, boundary, route, or operational location.","generator_version":"4.0.0","random_seed":42},"geometry":{"type":"Point","coordinates":[5.211,43.437213]}},{"type":"Feature","id":"stand-syn-ap-mrs-s2","properties":{"airport_id":"SYN-AP-MRS","terminal_id":"SYN-AP-MRS-T1","gate_id":"SYN-AP-MRS-G2","stand_id":"SYN-AP-MRS-S2","feature_type":"Stand","is_synthetic":true,"data_classification":"Synthetic master data","geometry_disclaimer":"Illustrative synthetic geometry; not a real airport layout, boundary, route, or operational location.","generator_version":"4.0.0","random_seed":42},"geometry":{"type":"Point","coordinates":[5.211,43.437563]}},{"type":"Feature","id":"stand-syn-ap-mrs-s3","properties":{"airport_id":"SYN-AP-MRS","terminal_id":"SYN-AP-MRS-T1","gate_id":"SYN-AP-MRS-G3","stand_id":"SYN-AP-MRS-S3","feature_type":"Stand","is_synthetic":true,"data_classification":"Synthetic master data","geometry_disclaimer":"Illustrative synthetic geometry; not a real airport layout, boundary, route, or operational location.","generator_version":"4.0.0","random_seed":42},"geometry":{"type":"Point","coordinates":[5.211,43.437913]}},{"type":"Feature","id":"stand-syn-ap-mrs-s4","properties":{"airport_id":"SYN-AP-MRS","terminal_id":"SYN-AP-MRS-T2","gate_id":"SYN-AP-MRS-G4","stand_id":"SYN-AP-MRS-S4","feature_type":"Stand","is_synthetic":true,"data_classification":"Synthetic master data","geometry_disclaimer":"Illustrative synthetic geometry; not a real airport layout, boundary, route, or operational location.","generator_version":"4.0.0","random_seed":42},"geometry":{"type":"Point","coordinates":[5.2170000000000005,43.438263]}},{"type":"Feature","id":"stand-syn-ap-mrs-s5","properties":{"airport_id":"SYN-AP-MRS","terminal_id":"SYN-AP-MRS-T2","gate_id":"SYN-AP-MRS-G5","stand_id":"SYN-AP-MRS-S5","feature_type":"Stand","is_synthetic":true,"data_classification":"Synthetic master data","geometry_disclaimer":"Illustrative synthetic geometry; not a real airport layout, boundary, route, or operational location.","generator_version":"4.0.0","random_seed":42},"geometry":{"type":"Point","coordinates":[5.2170000000000005,43.438613000000004]}},{"type":"Feature","id":"stand-syn-ap-mrs-s6","properties":{"airport_id":"SYN-AP-MRS","terminal_id":"SYN-AP-MRS-T2","gate_id":"SYN-AP-MRS-G6","stand_id":"SYN-AP-MRS-S6","feature_type":"Stand","is_synthetic":true,"data_classification":"Synthetic master data","geometry_disclaimer":"Illustrative synthetic geometry; not a real airport layout, boundary, route, or operational location.","generator_version":"4.0.0","random_seed":42},"geometry":{"type":"Point","coordinates":[5.2170000000000005,43.438963]}},{"type":"Feature","id":"stand-syn-ap-tls-s1","properties":{"airport_id":"SYN-AP-TLS","terminal_id":"SYN-AP-TLS-T1","gate_id":"SYN-AP-TLS-G1","stand_id":"SYN-AP-TLS-S1","feature_type":"Stand","is_synthetic":true,"data_classification":"Synthetic master data","geometry_disclaimer":"Illustrative synthetic geometry; not a real airport layout, boundary, route, or operational location.","generator_version":"4.0.0","random_seed":42},"geometry":{"type":"Point","coordinates":[1.3623200000000002,43.628226]}},{"type":"Feature","id":"stand-syn-ap-tls-s2","properties":{"airport_id":"SYN-AP-TLS","terminal_id":"SYN-AP-TLS-T1","gate_id":"SYN-AP-TLS-G2","stand_id":"SYN-AP-TLS-S2","feature_type":"Stand","is_synthetic":true,"data_classification":"Synthetic master data","geometry_disclaimer":"Illustrative synthetic geometry; not a real airport layout, boundary, route, or operational location.","generator_version":"4.0.0","random_seed":42},"geometry":{"type":"Point","coordinates":[1.3623200000000002,43.628575999999995]}},{"type":"Feature","id":"stand-syn-ap-tls-s3","properties":{"airport_id":"SYN-AP-TLS","terminal_id":"SYN-AP-TLS-T1","gate_id":"SYN-AP-TLS-G3","stand_id":"SYN-AP-TLS-S3","feature_type":"Stand","is_synthetic":true,"data_classification":"Synthetic master data","geometry_disclaimer":"Illustrative synthetic geometry; not a real airport layout, boundary, route, or operational location.","generator_version":"4.0.0","random_seed":42},"geometry":{"type":"Point","coordinates":[1.3623200000000002,43.628926]}},{"type":"Feature","id":"stand-syn-ap-tls-s4","properties":{"airport_id":"SYN-AP-TLS","terminal_id":"SYN-AP-TLS-T2","gate_id":"SYN-AP-TLS-G4","stand_id":"SYN-AP-TLS-S4","feature_type":"Stand","is_synthetic":true,"data_classification":"Synthetic master data","geometry_disclaimer":"Illustrative synthetic geometry; not a real airport layout, boundary, route, or operational location.","generator_version":"4.0.0","random_seed":42},"geometry":{"type":"Point","coordinates":[1.36832,43.629276]}},{"type":"Feature","id":"stand-syn-ap-tls-s5","properties":{"airport_id":"SYN-AP-TLS","terminal_id":"SYN-AP-TLS-T2","gate_id":"SYN-AP-TLS-G5","stand_id":"SYN-AP-TLS-S5","feature_type":"Stand","is_synthetic":true,"data_classification":"Synthetic master data","geometry_disclaimer":"Illustrative synthetic geometry; not a real airport layout, boundary, route, or operational location.","generator_version":"4.0.0","random_seed":42},"geometry":{"type":"Point","coordinates":[1.36832,43.629626]}},{"type":"Feature","id":"stand-syn-ap-tls-s6","properties":{"airport_id":"SYN-AP-TLS","terminal_id":"SYN-AP-TLS-T2","gate_id":"SYN-AP-TLS-G6","stand_id":"SYN-AP-TLS-S6","feature_type":"Stand","is_synthetic":true,"data_classification":"Synthetic master data","geometry_disclaimer":"Illustrative synthetic geometry; not a real airport layout, boundary, route, or operational location.","generator_version":"4.0.0","random_seed":42},"geometry":{"type":"Point","coordinates":[1.36832,43.629976]}},{"type":"Feature","id":"stand-syn-ap-fco-s1","properties":{"airport_id":"SYN-AP-FCO","terminal_id":"SYN-AP-FCO-T1","gate_id":"SYN-AP-FCO-G1","stand_id":"SYN-AP-FCO-S1","feature_type":"Stand","is_synthetic":true,"data_classification":"Synthetic master data","geometry_disclaimer":"Illustrative synthetic geometry; not a real airport layout, boundary, route, or operational location.","generator_version":"4.0.0","random_seed":42},"geometry":{"type":"Point","coordinates":[12.250498,41.803657]}},{"type":"Feature","id":"stand-syn-ap-fco-s2","properties":{"airport_id":"SYN-AP-FCO","terminal_id":"SYN-AP-FCO-T1","gate_id":"SYN-AP-FCO-G2","stand_id":"SYN-AP-FCO-S2","feature_type":"Stand","is_synthetic":true,"data_classification":"Synthetic master data","geometry_disclaimer":"Illustrative synthetic geometry; not a real airport layout, boundary, route, or operational location.","generator_version":"4.0.0","random_seed":42},"geometry":{"type":"Point","coordinates":[12.250498,41.804007]}},{"type":"Feature","id":"stand-syn-ap-fco-s3","properties":{"airport_id":"SYN-AP-FCO","terminal_id":"SYN-AP-FCO-T1","gate_id":"SYN-AP-FCO-G3","stand_id":"SYN-AP-FCO-S3","feature_type":"Stand","is_synthetic":true,"data_classification":"Synthetic master data","geometry_disclaimer":"Illustrative synthetic geometry; not a real airport layout, boundary, route, or operational location.","generator_version":"4.0.0","random_seed":42},"geometry":{"type":"Point","coordinates":[12.250498,41.804357]}},{"type":"Feature","id":"stand-syn-ap-fco-s4","properties":{"airport_id":"SYN-AP-FCO","terminal_id":"SYN-AP-FCO-T2","gate_id":"SYN-AP-FCO-G4","stand_id":"SYN-AP-FCO-S4","feature_type":"Stand","is_synthetic":true,"data_classification":"Synthetic master data","geometry_disclaimer":"Illustrative synthetic geometry; not a real airport layout, boundary, route, or operational location.","generator_version":"4.0.0","random_seed":42},"geometry":{"type":"Point","coordinates":[12.256498,41.804707]}},{"type":"Feature","id":"stand-syn-ap-fco-s5","properties":{"airport_id":"SYN-AP-FCO","terminal_id":"SYN-AP-FCO-T2","gate_id":"SYN-AP-FCO-G5","stand_id":"SYN-AP-FCO-S5","feature_type":"Stand","is_synthetic":true,"data_classification":"Synthetic master data","geometry_disclaimer":"Illustrative synthetic geometry; not a real airport layout, boundary, route, or operational location.","generator_version":"4.0.0","random_seed":42},"geometry":{"type":"Point","coordinates":[12.256498,41.805057000000005]}},{"type":"Feature","id":"stand-syn-ap-fco-s6","properties":{"airport_id":"SYN-AP-FCO","terminal_id":"SYN-AP-FCO-T2","gate_id":"SYN-AP-FCO-G6","stand_id":"SYN-AP-FCO-S6","feature_type":"Stand","is_synthetic":true,"data_classification":"Synthetic master data","geometry_disclaimer":"Illustrative synthetic geometry; not a real airport layout, boundary, route, or operational location.","generator_version":"4.0.0","random_seed":42},"geometry":{"type":"Point","coordinates":[12.256498,41.805407]}},{"type":"Feature","id":"stand-syn-ap-mxp-s1","properties":{"airport_id":"SYN-AP-MXP","terminal_id":"SYN-AP-MXP-T1","gate_id":"SYN-AP-MXP-G1","stand_id":"SYN-AP-MXP-S1","feature_type":"Stand","is_synthetic":true,"data_classification":"Synthetic master data","geometry_disclaimer":"Illustrative synthetic geometry; not a real airport layout, boundary, route, or operational location.","generator_version":"4.0.0","random_seed":42},"geometry":{"type":"Point","coordinates":[8.726609999999999,45.629725]}},{"type":"Feature","id":"stand-syn-ap-mxp-s2","properties":{"airport_id":"SYN-AP-MXP","terminal_id":"SYN-AP-MXP-T1","gate_id":"SYN-AP-MXP-G2","stand_id":"SYN-AP-MXP-S2","feature_type":"Stand","is_synthetic":true,"data_classification":"Synthetic master data","geometry_disclaimer":"Illustrative synthetic geometry; not a real airport layout, boundary, route, or operational location.","generator_version":"4.0.0","random_seed":42},"geometry":{"type":"Point","coordinates":[8.726609999999999,45.630075]}},{"type":"Feature","id":"stand-syn-ap-mxp-s3","properties":{"airport_id":"SYN-AP-MXP","terminal_id":"SYN-AP-MXP-T1","gate_id":"SYN-AP-MXP-G3","stand_id":"SYN-AP-MXP-S3","feature_type":"Stand","is_synthetic":true,"data_classification":"Synthetic master data","geometry_disclaimer":"Illustrative synthetic geometry; not a real airport layout, boundary, route, or operational location.","generator_version":"4.0.0","random_seed":42},"geometry":{"type":"Point","coordinates":[8.726609999999999,45.630425]}},{"type":"Feature","id":"stand-syn-ap-mxp-s4","properties":{"airport_id":"SYN-AP-MXP","terminal_id":"SYN-AP-MXP-T2","gate_id":"SYN-AP-MXP-G4","stand_id":"SYN-AP-MXP-S4","feature_type":"Stand","is_synthetic":true,"data_classification":"Synthetic master data","geometry_disclaimer":"Illustrative synthetic geometry; not a real airport layout, boundary, route, or operational location.","generator_version":"4.0.0","random_seed":42},"geometry":{"type":"Point","coordinates":[8.73261,45.630775]}},{"type":"Feature","id":"stand-syn-ap-mxp-s5","properties":{"airport_id":"SYN-AP-MXP","terminal_id":"SYN-AP-MXP-T2","gate_id":"SYN-AP-MXP-G5","stand_id":"SYN-AP-MXP-S5","feature_type":"Stand","is_synthetic":true,"data_classification":"Synthetic master data","geometry_disclaimer":"Illustrative synthetic geometry; not a real airport layout, boundary, route, or operational location.","generator_version":"4.0.0","random_seed":42},"geometry":{"type":"Point","coordinates":[8.73261,45.631125000000004]}},{"type":"Feature","id":"stand-syn-ap-mxp-s6","properties":{"airport_id":"SYN-AP-MXP","terminal_id":"SYN-AP-MXP-T2","gate_id":"SYN-AP-MXP-G6","stand_id":"SYN-AP-MXP-S6","feature_type":"Stand","is_synthetic":true,"data_classification":"Synthetic master data","geometry_disclaimer":"Illustrative synthetic geometry; not a real airport layout, boundary, route, or operational location.","generator_version":"4.0.0","random_seed":42},"geometry":{"type":"Point","coordinates":[8.73261,45.631475]}},{"type":"Feature","id":"stand-syn-ap-vce-s1","properties":{"airport_id":"SYN-AP-VCE","terminal_id":"SYN-AP-VCE-T1","gate_id":"SYN-AP-VCE-G1","stand_id":"SYN-AP-VCE-S1","feature_type":"Stand","is_synthetic":true,"data_classification":"Synthetic master data","geometry_disclaimer":"Illustrative synthetic geometry; not a real airport layout, boundary, route, or operational location.","generator_version":"4.0.0","random_seed":42},"geometry":{"type":"Point","coordinates":[12.3504,45.504424]}},{"type":"Feature","id":"stand-syn-ap-vce-s2","properties":{"airport_id":"SYN-AP-VCE","terminal_id":"SYN-AP-VCE-T1","gate_id":"SYN-AP-VCE-G2","stand_id":"SYN-AP-VCE-S2","feature_type":"Stand","is_synthetic":true,"data_classification":"Synthetic master data","geometry_disclaimer":"Illustrative synthetic geometry; not a real airport layout, boundary, route, or operational location.","generator_version":"4.0.0","random_seed":42},"geometry":{"type":"Point","coordinates":[12.3504,45.504774]}},{"type":"Feature","id":"stand-syn-ap-vce-s3","properties":{"airport_id":"SYN-AP-VCE","terminal_id":"SYN-AP-VCE-T1","gate_id":"SYN-AP-VCE-G3","stand_id":"SYN-AP-VCE-S3","feature_type":"Stand","is_synthetic":true,"data_classification":"Synthetic master data","geometry_disclaimer":"Illustrative synthetic geometry; not a real airport layout, boundary, route, or operational location.","generator_version":"4.0.0","random_seed":42},"geometry":{"type":"Point","coordinates":[12.3504,45.505124]}},{"type":"Feature","id":"stand-syn-ap-vce-s4","properties":{"airport_id":"SYN-AP-VCE","terminal_id":"SYN-AP-VCE-T2","gate_id":"SYN-AP-VCE-G4","stand_id":"SYN-AP-VCE-S4","feature_type":"Stand","is_synthetic":true,"data_classification":"Synthetic master data","geometry_disclaimer":"Illustrative synthetic geometry; not a real airport layout, boundary, route, or operational location.","generator_version":"4.0.0","random_seed":42},"geometry":{"type":"Point","coordinates":[12.3564,45.505474]}},{"type":"Feature","id":"stand-syn-ap-vce-s5","properties":{"airport_id":"SYN-AP-VCE","terminal_id":"SYN-AP-VCE-T2","gate_id":"SYN-AP-VCE-G5","stand_id":"SYN-AP-VCE-S5","feature_type":"Stand","is_synthetic":true,"data_classification":"Synthetic master data","geometry_disclaimer":"Illustrative synthetic geometry; not a real airport layout, boundary, route, or operational location.","generator_version":"4.0.0","random_seed":42},"geometry":{"type":"Point","coordinates":[12.3564,45.505824000000004]}},{"type":"Feature","id":"stand-syn-ap-vce-s6","properties":{"airport_id":"SYN-AP-VCE","terminal_id":"SYN-AP-VCE-T2","gate_id":"SYN-AP-VCE-G6","stand_id":"SYN-AP-VCE-S6","feature_type":"Stand","is_synthetic":true,"data_classification":"Synthetic master data","geometry_disclaimer":"Illustrative synthetic geometry; not a real airport layout, boundary, route, or operational location.","generator_version":"4.0.0","random_seed":42},"geometry":{"type":"Point","coordinates":[12.3564,45.506174]}},{"type":"Feature","id":"stand-syn-ap-nap-s1","properties":{"airport_id":"SYN-AP-NAP","terminal_id":"SYN-AP-NAP-T1","gate_id":"SYN-AP-NAP-G1","stand_id":"SYN-AP-NAP-S1","feature_type":"Stand","is_synthetic":true,"data_classification":"Synthetic master data","geometry_disclaimer":"Illustrative synthetic geometry; not a real airport layout, boundary, route, or operational location.","generator_version":"4.0.0","random_seed":42},"geometry":{"type":"Point","coordinates":[14.2893,40.885127]}},{"type":"Feature","id":"stand-syn-ap-nap-s2","properties":{"airport_id":"SYN-AP-NAP","terminal_id":"SYN-AP-NAP-T1","gate_id":"SYN-AP-NAP-G2","stand_id":"SYN-AP-NAP-S2","feature_type":"Stand","is_synthetic":true,"data_classification":"Synthetic master data","geometry_disclaimer":"Illustrative synthetic geometry; not a real airport layout, boundary, route, or operational location.","generator_version":"4.0.0","random_seed":42},"geometry":{"type":"Point","coordinates":[14.2893,40.885476999999995]}},{"type":"Feature","id":"stand-syn-ap-nap-s3","properties":{"airport_id":"SYN-AP-NAP","terminal_id":"SYN-AP-NAP-T1","gate_id":"SYN-AP-NAP-G3","stand_id":"SYN-AP-NAP-S3","feature_type":"Stand","is_synthetic":true,"data_classification":"Synthetic master data","geometry_disclaimer":"Illustrative synthetic geometry; not a real airport layout, boundary, route, or operational location.","generator_version":"4.0.0","random_seed":42},"geometry":{"type":"Point","coordinates":[14.2893,40.885827]}},{"type":"Feature","id":"stand-syn-ap-nap-s4","properties":{"airport_id":"SYN-AP-NAP","terminal_id":"SYN-AP-NAP-T2","gate_id":"SYN-AP-NAP-G4","stand_id":"SYN-AP-NAP-S4","feature_type":"Stand","is_synthetic":true,"data_classification":"Synthetic master data","geometry_disclaimer":"Illustrative synthetic geometry; not a real airport layout, boundary, route, or operational location.","generator_version":"4.0.0","random_seed":42},"geometry":{"type":"Point","coordinates":[14.295300000000001,40.886176999999996]}},{"type":"Feature","id":"stand-syn-ap-nap-s5","properties":{"airport_id":"SYN-AP-NAP","terminal_id":"SYN-AP-NAP-T2","gate_id":"SYN-AP-NAP-G5","stand_id":"SYN-AP-NAP-S5","feature_type":"Stand","is_synthetic":true,"data_classification":"Synthetic master data","geometry_disclaimer":"Illustrative synthetic geometry; not a real airport layout, boundary, route, or operational location.","generator_version":"4.0.0","random_seed":42},"geometry":{"type":"Point","coordinates":[14.295300000000001,40.886527]}},{"type":"Feature","id":"stand-syn-ap-nap-s6","properties":{"airport_id":"SYN-AP-NAP","terminal_id":"SYN-AP-NAP-T2","gate_id":"SYN-AP-NAP-G6","stand_id":"SYN-AP-NAP-S6","feature_type":"Stand","is_synthetic":true,"data_classification":"Synthetic master data","geometry_disclaimer":"Illustrative synthetic geometry; not a real airport layout, boundary, route, or operational location.","generator_version":"4.0.0","random_seed":42},"geometry":{"type":"Point","coordinates":[14.295300000000001,40.886877]}},{"type":"Feature","id":"stand-syn-ap-blq-s1","properties":{"airport_id":"SYN-AP-BLQ","terminal_id":"SYN-AP-BLQ-T1","gate_id":"SYN-AP-BLQ-G1","stand_id":"SYN-AP-BLQ-S1","feature_type":"Stand","is_synthetic":true,"data_classification":"Synthetic master data","geometry_disclaimer":"Illustrative synthetic geometry; not a real airport layout, boundary, route, or operational location.","generator_version":"4.0.0","random_seed":42},"geometry":{"type":"Point","coordinates":[11.2872,44.534525]}},{"type":"Feature","id":"stand-syn-ap-blq-s2","properties":{"airport_id":"SYN-AP-BLQ","terminal_id":"SYN-AP-BLQ-T1","gate_id":"SYN-AP-BLQ-G2","stand_id":"SYN-AP-BLQ-S2","feature_type":"Stand","is_synthetic":true,"data_classification":"Synthetic master data","geometry_disclaimer":"Illustrative synthetic geometry; not a real airport layout, boundary, route, or operational location.","generator_version":"4.0.0","random_seed":42},"geometry":{"type":"Point","coordinates":[11.2872,44.534875]}},{"type":"Feature","id":"stand-syn-ap-blq-s3","properties":{"airport_id":"SYN-AP-BLQ","terminal_id":"SYN-AP-BLQ-T1","gate_id":"SYN-AP-BLQ-G3","stand_id":"SYN-AP-BLQ-S3","feature_type":"Stand","is_synthetic":true,"data_classification":"Synthetic master data","geometry_disclaimer":"Illustrative synthetic geometry; not a real airport layout, boundary, route, or operational location.","generator_version":"4.0.0","random_seed":42},"geometry":{"type":"Point","coordinates":[11.2872,44.535225000000004]}},{"type":"Feature","id":"stand-syn-ap-blq-s4","properties":{"airport_id":"SYN-AP-BLQ","terminal_id":"SYN-AP-BLQ-T2","gate_id":"SYN-AP-BLQ-G4","stand_id":"SYN-AP-BLQ-S4","feature_type":"Stand","is_synthetic":true,"data_classification":"Synthetic master data","geometry_disclaimer":"Illustrative synthetic geometry; not a real airport layout, boundary, route, or operational location.","generator_version":"4.0.0","random_seed":42},"geometry":{"type":"Point","coordinates":[11.2932,44.535575]}},{"type":"Feature","id":"stand-syn-ap-blq-s5","properties":{"airport_id":"SYN-AP-BLQ","terminal_id":"SYN-AP-BLQ-T2","gate_id":"SYN-AP-BLQ-G5","stand_id":"SYN-AP-BLQ-S5","feature_type":"Stand","is_synthetic":true,"data_classification":"Synthetic master data","geometry_disclaimer":"Illustrative synthetic geometry; not a real airport layout, boundary, route, or operational location.","generator_version":"4.0.0","random_seed":42},"geometry":{"type":"Point","coordinates":[11.2932,44.535925000000006]}},{"type":"Feature","id":"stand-syn-ap-blq-s6","properties":{"airport_id":"SYN-AP-BLQ","terminal_id":"SYN-AP-BLQ-T2","gate_id":"SYN-AP-BLQ-G6","stand_id":"SYN-AP-BLQ-S6","feature_type":"Stand","is_synthetic":true,"data_classification":"Synthetic master data","geometry_disclaimer":"Illustrative synthetic geometry; not a real airport layout, boundary, route, or operational location.","generator_version":"4.0.0","random_seed":42},"geometry":{"type":"Point","coordinates":[11.2932,44.536275]}},{"type":"Feature","id":"stand-syn-ap-lis-s1","properties":{"airport_id":"SYN-AP-LIS","terminal_id":"SYN-AP-LIS-T1","gate_id":"SYN-AP-LIS-G1","stand_id":"SYN-AP-LIS-S1","feature_type":"Stand","is_synthetic":true,"data_classification":"Synthetic master data","geometry_disclaimer":"Illustrative synthetic geometry; not a real airport layout, boundary, route, or operational location.","generator_version":"4.0.0","random_seed":42},"geometry":{"type":"Point","coordinates":[-9.13742,38.780425]}},{"type":"Feature","id":"stand-syn-ap-lis-s2","properties":{"airport_id":"SYN-AP-LIS","terminal_id":"SYN-AP-LIS-T1","gate_id":"SYN-AP-LIS-G2","stand_id":"SYN-AP-LIS-S2","feature_type":"Stand","is_synthetic":true,"data_classification":"Synthetic master data","geometry_disclaimer":"Illustrative synthetic geometry; not a real airport layout, boundary, route, or operational location.","generator_version":"4.0.0","random_seed":42},"geometry":{"type":"Point","coordinates":[-9.13742,38.780775]}},{"type":"Feature","id":"stand-syn-ap-lis-s3","properties":{"airport_id":"SYN-AP-LIS","terminal_id":"SYN-AP-LIS-T1","gate_id":"SYN-AP-LIS-G3","stand_id":"SYN-AP-LIS-S3","feature_type":"Stand","is_synthetic":true,"data_classification":"Synthetic master data","geometry_disclaimer":"Illustrative synthetic geometry; not a real airport layout, boundary, route, or operational location.","generator_version":"4.0.0","random_seed":42},"geometry":{"type":"Point","coordinates":[-9.13742,38.781125]}},{"type":"Feature","id":"stand-syn-ap-lis-s4","properties":{"airport_id":"SYN-AP-LIS","terminal_id":"SYN-AP-LIS-T2","gate_id":"SYN-AP-LIS-G4","stand_id":"SYN-AP-LIS-S4","feature_type":"Stand","is_synthetic":true,"data_classification":"Synthetic master data","geometry_disclaimer":"Illustrative synthetic geometry; not a real airport layout, boundary, route, or operational location.","generator_version":"4.0.0","random_seed":42},"geometry":{"type":"Point","coordinates":[-9.13142,38.781475]}},{"type":"Feature","id":"stand-syn-ap-lis-s5","properties":{"airport_id":"SYN-AP-LIS","terminal_id":"SYN-AP-LIS-T2","gate_id":"SYN-AP-LIS-G5","stand_id":"SYN-AP-LIS-S5","feature_type":"Stand","is_synthetic":true,"data_classification":"Synthetic master data","geometry_disclaimer":"Illustrative synthetic geometry; not a real airport layout, boundary, route, or operational location.","generator_version":"4.0.0","random_seed":42},"geometry":{"type":"Point","coordinates":[-9.13142,38.781825000000005]}},{"type":"Feature","id":"stand-syn-ap-lis-s6","properties":{"airport_id":"SYN-AP-LIS","terminal_id":"SYN-AP-LIS-T2","gate_id":"SYN-AP-LIS-G6","stand_id":"SYN-AP-LIS-S6","feature_type":"Stand","is_synthetic":true,"data_classification":"Synthetic master data","geometry_disclaimer":"Illustrative synthetic geometry; not a real airport layout, boundary, route, or operational location.","generator_version":"4.0.0","random_seed":42},"geometry":{"type":"Point","coordinates":[-9.13142,38.782175]}},{"type":"Feature","id":"stand-syn-ap-opo-s1","properties":{"airport_id":"SYN-AP-OPO","terminal_id":"SYN-AP-OPO-T1","gate_id":"SYN-AP-OPO-G1","stand_id":"SYN-AP-OPO-S1","feature_type":"Stand","is_synthetic":true,"data_classification":"Synthetic master data","geometry_disclaimer":"Illustrative synthetic geometry; not a real airport layout, boundary, route, or operational location.","generator_version":"4.0.0","random_seed":42},"geometry":{"type":"Point","coordinates":[-8.68288980865,41.2472252808]}},{"type":"Feature","id":"stand-syn-ap-opo-s2","properties":{"airport_id":"SYN-AP-OPO","terminal_id":"SYN-AP-OPO-T1","gate_id":"SYN-AP-OPO-G2","stand_id":"SYN-AP-OPO-S2","feature_type":"Stand","is_synthetic":true,"data_classification":"Synthetic master data","geometry_disclaimer":"Illustrative synthetic geometry; not a real airport layout, boundary, route, or operational location.","generator_version":"4.0.0","random_seed":42},"geometry":{"type":"Point","coordinates":[-8.68288980865,41.2475752808]}},{"type":"Feature","id":"stand-syn-ap-opo-s3","properties":{"airport_id":"SYN-AP-OPO","terminal_id":"SYN-AP-OPO-T1","gate_id":"SYN-AP-OPO-G3","stand_id":"SYN-AP-OPO-S3","feature_type":"Stand","is_synthetic":true,"data_classification":"Synthetic master data","geometry_disclaimer":"Illustrative synthetic geometry; not a real airport layout, boundary, route, or operational location.","generator_version":"4.0.0","random_seed":42},"geometry":{"type":"Point","coordinates":[-8.68288980865,41.247925280800004]}},{"type":"Feature","id":"stand-syn-ap-opo-s4","properties":{"airport_id":"SYN-AP-OPO","terminal_id":"SYN-AP-OPO-T2","gate_id":"SYN-AP-OPO-G4","stand_id":"SYN-AP-OPO-S4","feature_type":"Stand","is_synthetic":true,"data_classification":"Synthetic master data","geometry_disclaimer":"Illustrative synthetic geometry; not a real airport layout, boundary, route, or operational location.","generator_version":"4.0.0","random_seed":42},"geometry":{"type":"Point","coordinates":[-8.67688980865,41.2482752808]}},{"type":"Feature","id":"stand-syn-ap-opo-s5","properties":{"airport_id":"SYN-AP-OPO","terminal_id":"SYN-AP-OPO-T2","gate_id":"SYN-AP-OPO-G5","stand_id":"SYN-AP-OPO-S5","feature_type":"Stand","is_synthetic":true,"data_classification":"Synthetic master data","geometry_disclaimer":"Illustrative synthetic geometry; not a real airport layout, boundary, route, or operational location.","generator_version":"4.0.0","random_seed":42},"geometry":{"type":"Point","coordinates":[-8.67688980865,41.248625280800006]}},{"type":"Feature","id":"stand-syn-ap-opo-s6","properties":{"airport_id":"SYN-AP-OPO","terminal_id":"SYN-AP-OPO-T2","gate_id":"SYN-AP-OPO-G6","stand_id":"SYN-AP-OPO-S6","feature_type":"Stand","is_synthetic":true,"data_classification":"Synthetic master data","geometry_disclaimer":"Illustrative synthetic geometry; not a real airport layout, boundary, route, or operational location.","generator_version":"4.0.0","random_seed":42},"geometry":{"type":"Point","coordinates":[-8.67688980865,41.2489752808]}},{"type":"Feature","id":"stand-syn-ap-fao-s1","properties":{"airport_id":"SYN-AP-FAO","terminal_id":"SYN-AP-FAO-T1","gate_id":"SYN-AP-FAO-G1","stand_id":"SYN-AP-FAO-S1","feature_type":"Stand","is_synthetic":true,"data_classification":"Synthetic master data","geometry_disclaimer":"Illustrative synthetic geometry; not a real airport layout, boundary, route, or operational location.","generator_version":"4.0.0","random_seed":42},"geometry":{"type":"Point","coordinates":[-7.9724390000000005,37.015034]}},{"type":"Feature","id":"stand-syn-ap-fao-s2","properties":{"airport_id":"SYN-AP-FAO","terminal_id":"SYN-AP-FAO-T1","gate_id":"SYN-AP-FAO-G2","stand_id":"SYN-AP-FAO-S2","feature_type":"Stand","is_synthetic":true,"data_classification":"Synthetic master data","geometry_disclaimer":"Illustrative synthetic geometry; not a real airport layout, boundary, route, or operational location.","generator_version":"4.0.0","random_seed":42},"geometry":{"type":"Point","coordinates":[-7.9724390000000005,37.015384]}},{"type":"Feature","id":"stand-syn-ap-fao-s3","properties":{"airport_id":"SYN-AP-FAO","terminal_id":"SYN-AP-FAO-T1","gate_id":"SYN-AP-FAO-G3","stand_id":"SYN-AP-FAO-S3","feature_type":"Stand","is_synthetic":true,"data_classification":"Synthetic master data","geometry_disclaimer":"Illustrative synthetic geometry; not a real airport layout, boundary, route, or operational location.","generator_version":"4.0.0","random_seed":42},"geometry":{"type":"Point","coordinates":[-7.9724390000000005,37.015734]}},{"type":"Feature","id":"stand-syn-ap-fao-s4","properties":{"airport_id":"SYN-AP-FAO","terminal_id":"SYN-AP-FAO-T2","gate_id":"SYN-AP-FAO-G4","stand_id":"SYN-AP-FAO-S4","feature_type":"Stand","is_synthetic":true,"data_classification":"Synthetic master data","geometry_disclaimer":"Illustrative synthetic geometry; not a real airport layout, boundary, route, or operational location.","generator_version":"4.0.0","random_seed":42},"geometry":{"type":"Point","coordinates":[-7.966439,37.016084]}},{"type":"Feature","id":"stand-syn-ap-fao-s5","properties":{"airport_id":"SYN-AP-FAO","terminal_id":"SYN-AP-FAO-T2","gate_id":"SYN-AP-FAO-G5","stand_id":"SYN-AP-FAO-S5","feature_type":"Stand","is_synthetic":true,"data_classification":"Synthetic master data","geometry_disclaimer":"Illustrative synthetic geometry; not a real airport layout, boundary, route, or operational location.","generator_version":"4.0.0","random_seed":42},"geometry":{"type":"Point","coordinates":[-7.966439,37.016434000000004]}},{"type":"Feature","id":"stand-syn-ap-fao-s6","properties":{"airport_id":"SYN-AP-FAO","terminal_id":"SYN-AP-FAO-T2","gate_id":"SYN-AP-FAO-G6","stand_id":"SYN-AP-FAO-S6","feature_type":"Stand","is_synthetic":true,"data_classification":"Synthetic master data","geometry_disclaimer":"Illustrative synthetic geometry; not a real airport layout, boundary, route, or operational location.","generator_version":"4.0.0","random_seed":42},"geometry":{"type":"Point","coordinates":[-7.966439,37.016784]}},{"type":"Feature","id":"stand-syn-ap-fnc-s1","properties":{"airport_id":"SYN-AP-FNC","terminal_id":"SYN-AP-FNC-T1","gate_id":"SYN-AP-FNC-G1","stand_id":"SYN-AP-FNC-S1","feature_type":"Stand","is_synthetic":true,"data_classification":"Synthetic master data","geometry_disclaimer":"Illustrative synthetic geometry; not a real airport layout, boundary, route, or operational location.","generator_version":"4.0.0","random_seed":42},"geometry":{"type":"Point","coordinates":[-16.776113,32.696937]}},{"type":"Feature","id":"stand-syn-ap-fnc-s2","properties":{"airport_id":"SYN-AP-FNC","terminal_id":"SYN-AP-FNC-T1","gate_id":"SYN-AP-FNC-G2","stand_id":"SYN-AP-FNC-S2","feature_type":"Stand","is_synthetic":true,"data_classification":"Synthetic master data","geometry_disclaimer":"Illustrative synthetic geometry; not a real airport layout, boundary, route, or operational location.","generator_version":"4.0.0","random_seed":42},"geometry":{"type":"Point","coordinates":[-16.776113,32.697286999999996]}},{"type":"Feature","id":"stand-syn-ap-fnc-s3","properties":{"airport_id":"SYN-AP-FNC","terminal_id":"SYN-AP-FNC-T1","gate_id":"SYN-AP-FNC-G3","stand_id":"SYN-AP-FNC-S3","feature_type":"Stand","is_synthetic":true,"data_classification":"Synthetic master data","geometry_disclaimer":"Illustrative synthetic geometry; not a real airport layout, boundary, route, or operational location.","generator_version":"4.0.0","random_seed":42},"geometry":{"type":"Point","coordinates":[-16.776113,32.697637]}},{"type":"Feature","id":"stand-syn-ap-fnc-s4","properties":{"airport_id":"SYN-AP-FNC","terminal_id":"SYN-AP-FNC-T2","gate_id":"SYN-AP-FNC-G4","stand_id":"SYN-AP-FNC-S4","feature_type":"Stand","is_synthetic":true,"data_classification":"Synthetic master data","geometry_disclaimer":"Illustrative synthetic geometry; not a real airport layout, boundary, route, or operational location.","generator_version":"4.0.0","random_seed":42},"geometry":{"type":"Point","coordinates":[-16.770113,32.697987]}},{"type":"Feature","id":"stand-syn-ap-fnc-s5","properties":{"airport_id":"SYN-AP-FNC","terminal_id":"SYN-AP-FNC-T2","gate_id":"SYN-AP-FNC-G5","stand_id":"SYN-AP-FNC-S5","feature_type":"Stand","is_synthetic":true,"data_classification":"Synthetic master data","geometry_disclaimer":"Illustrative synthetic geometry; not a real airport layout, boundary, route, or operational location.","generator_version":"4.0.0","random_seed":42},"geometry":{"type":"Point","coordinates":[-16.770113,32.698337]}},{"type":"Feature","id":"stand-syn-ap-fnc-s6","properties":{"airport_id":"SYN-AP-FNC","terminal_id":"SYN-AP-FNC-T2","gate_id":"SYN-AP-FNC-G6","stand_id":"SYN-AP-FNC-S6","feature_type":"Stand","is_synthetic":true,"data_classification":"Synthetic master data","geometry_disclaimer":"Illustrative synthetic geometry; not a real airport layout, boundary, route, or operational location.","generator_version":"4.0.0","random_seed":42},"geometry":{"type":"Point","coordinates":[-16.770113,32.698687]}},{"type":"Feature","id":"stand-syn-ap-pdl-s1","properties":{"airport_id":"SYN-AP-PDL","terminal_id":"SYN-AP-PDL-T1","gate_id":"SYN-AP-PDL-G1","stand_id":"SYN-AP-PDL-S1","feature_type":"Stand","is_synthetic":true,"data_classification":"Synthetic master data","geometry_disclaimer":"Illustrative synthetic geometry; not a real airport layout, boundary, route, or operational location.","generator_version":"4.0.0","random_seed":42},"geometry":{"type":"Point","coordinates":[-25.6994007721,37.7403244934]}},{"type":"Feature","id":"stand-syn-ap-pdl-s2","properties":{"airport_id":"SYN-AP-PDL","terminal_id":"SYN-AP-PDL-T1","gate_id":"SYN-AP-PDL-G2","stand_id":"SYN-AP-PDL-S2","feature_type":"Stand","is_synthetic":true,"data_classification":"Synthetic master data","geometry_disclaimer":"Illustrative synthetic geometry; not a real airport layout, boundary, route, or operational location.","generator_version":"4.0.0","random_seed":42},"geometry":{"type":"Point","coordinates":[-25.6994007721,37.7406744934]}},{"type":"Feature","id":"stand-syn-ap-pdl-s3","properties":{"airport_id":"SYN-AP-PDL","terminal_id":"SYN-AP-PDL-T1","gate_id":"SYN-AP-PDL-G3","stand_id":"SYN-AP-PDL-S3","feature_type":"Stand","is_synthetic":true,"data_classification":"Synthetic master data","geometry_disclaimer":"Illustrative synthetic geometry; not a real airport layout, boundary, route, or operational location.","generator_version":"4.0.0","random_seed":42},"geometry":{"type":"Point","coordinates":[-25.6994007721,37.741024493400005]}},{"type":"Feature","id":"stand-syn-ap-pdl-s4","properties":{"airport_id":"SYN-AP-PDL","terminal_id":"SYN-AP-PDL-T2","gate_id":"SYN-AP-PDL-G4","stand_id":"SYN-AP-PDL-S4","feature_type":"Stand","is_synthetic":true,"data_classification":"Synthetic master data","geometry_disclaimer":"Illustrative synthetic geometry; not a real airport layout, boundary, route, or operational location.","generator_version":"4.0.0","random_seed":42},"geometry":{"type":"Point","coordinates":[-25.6934007721,37.7413744934]}},{"type":"Feature","id":"stand-syn-ap-pdl-s5","properties":{"airport_id":"SYN-AP-PDL","terminal_id":"SYN-AP-PDL-T2","gate_id":"SYN-AP-PDL-G5","stand_id":"SYN-AP-PDL-S5","feature_type":"Stand","is_synthetic":true,"data_classification":"Synthetic master data","geometry_disclaimer":"Illustrative synthetic geometry; not a real airport layout, boundary, route, or operational location.","generator_version":"4.0.0","random_seed":42},"geometry":{"type":"Point","coordinates":[-25.6934007721,37.74172449340001]}},{"type":"Feature","id":"stand-syn-ap-pdl-s6","properties":{"airport_id":"SYN-AP-PDL","terminal_id":"SYN-AP-PDL-T2","gate_id":"SYN-AP-PDL-G6","stand_id":"SYN-AP-PDL-S6","feature_type":"Stand","is_synthetic":true,"data_classification":"Synthetic master data","geometry_disclaimer":"Illustrative synthetic geometry; not a real airport layout, boundary, route, or operational location.","generator_version":"4.0.0","random_seed":42},"geometry":{"type":"Point","coordinates":[-25.6934007721,37.742074493400004]}},{"type":"Feature","id":"stand-syn-ap-amm-s1","properties":{"airport_id":"SYN-AP-AMM","terminal_id":"SYN-AP-AMM-T1","gate_id":"SYN-AP-AMM-G1","stand_id":"SYN-AP-AMM-S1","feature_type":"Stand","is_synthetic":true,"data_classification":"Synthetic master data","geometry_disclaimer":"Illustrative synthetic geometry; not a real airport layout, boundary, route, or operational location.","generator_version":"4.0.0","random_seed":42},"geometry":{"type":"Point","coordinates":[35.9916983948,31.7217259369]}},{"type":"Feature","id":"stand-syn-ap-amm-s2","properties":{"airport_id":"SYN-AP-AMM","terminal_id":"SYN-AP-AMM-T1","gate_id":"SYN-AP-AMM-G2","stand_id":"SYN-AP-AMM-S2","feature_type":"Stand","is_synthetic":true,"data_classification":"Synthetic master data","geometry_disclaimer":"Illustrative synthetic geometry; not a real airport layout, boundary, route, or operational location.","generator_version":"4.0.0","random_seed":42},"geometry":{"type":"Point","coordinates":[35.9916983948,31.7220759369]}},{"type":"Feature","id":"stand-syn-ap-amm-s3","properties":{"airport_id":"SYN-AP-AMM","terminal_id":"SYN-AP-AMM-T1","gate_id":"SYN-AP-AMM-G3","stand_id":"SYN-AP-AMM-S3","feature_type":"Stand","is_synthetic":true,"data_classification":"Synthetic master data","geometry_disclaimer":"Illustrative synthetic geometry; not a real airport layout, boundary, route, or operational location.","generator_version":"4.0.0","random_seed":42},"geometry":{"type":"Point","coordinates":[35.9916983948,31.722425936900002]}},{"type":"Feature","id":"stand-syn-ap-amm-s4","properties":{"airport_id":"SYN-AP-AMM","terminal_id":"SYN-AP-AMM-T2","gate_id":"SYN-AP-AMM-G4","stand_id":"SYN-AP-AMM-S4","feature_type":"Stand","is_synthetic":true,"data_classification":"Synthetic master data","geometry_disclaimer":"Illustrative synthetic geometry; not a real airport layout, boundary, route, or operational location.","generator_version":"4.0.0","random_seed":42},"geometry":{"type":"Point","coordinates":[35.9976983948,31.7227759369]}},{"type":"Feature","id":"stand-syn-ap-amm-s5","properties":{"airport_id":"SYN-AP-AMM","terminal_id":"SYN-AP-AMM-T2","gate_id":"SYN-AP-AMM-G5","stand_id":"SYN-AP-AMM-S5","feature_type":"Stand","is_synthetic":true,"data_classification":"Synthetic master data","geometry_disclaimer":"Illustrative synthetic geometry; not a real airport layout, boundary, route, or operational location.","generator_version":"4.0.0","random_seed":42},"geometry":{"type":"Point","coordinates":[35.9976983948,31.7231259369]}},{"type":"Feature","id":"stand-syn-ap-amm-s6","properties":{"airport_id":"SYN-AP-AMM","terminal_id":"SYN-AP-AMM-T2","gate_id":"SYN-AP-AMM-G6","stand_id":"SYN-AP-AMM-S6","feature_type":"Stand","is_synthetic":true,"data_classification":"Synthetic master data","geometry_disclaimer":"Illustrative synthetic geometry; not a real airport layout, boundary, route, or operational location.","generator_version":"4.0.0","random_seed":42},"geometry":{"type":"Point","coordinates":[35.9976983948,31.7234759369]}},{"type":"Feature","id":"stand-syn-ap-aqj-s1","properties":{"airport_id":"SYN-AP-AQJ","terminal_id":"SYN-AP-AQJ-T1","gate_id":"SYN-AP-AQJ-G1","stand_id":"SYN-AP-AQJ-S1","feature_type":"Stand","is_synthetic":true,"data_classification":"Synthetic master data","geometry_disclaimer":"Illustrative synthetic geometry; not a real airport layout, boundary, route, or operational location.","generator_version":"4.0.0","random_seed":42},"geometry":{"type":"Point","coordinates":[35.016601,29.610726]}},{"type":"Feature","id":"stand-syn-ap-aqj-s2","properties":{"airport_id":"SYN-AP-AQJ","terminal_id":"SYN-AP-AQJ-T1","gate_id":"SYN-AP-AQJ-G2","stand_id":"SYN-AP-AQJ-S2","feature_type":"Stand","is_synthetic":true,"data_classification":"Synthetic master data","geometry_disclaimer":"Illustrative synthetic geometry; not a real airport layout, boundary, route, or operational location.","generator_version":"4.0.0","random_seed":42},"geometry":{"type":"Point","coordinates":[35.016601,29.611076]}},{"type":"Feature","id":"stand-syn-ap-aqj-s3","properties":{"airport_id":"SYN-AP-AQJ","terminal_id":"SYN-AP-AQJ-T1","gate_id":"SYN-AP-AQJ-G3","stand_id":"SYN-AP-AQJ-S3","feature_type":"Stand","is_synthetic":true,"data_classification":"Synthetic master data","geometry_disclaimer":"Illustrative synthetic geometry; not a real airport layout, boundary, route, or operational location.","generator_version":"4.0.0","random_seed":42},"geometry":{"type":"Point","coordinates":[35.016601,29.611426]}},{"type":"Feature","id":"stand-syn-ap-aqj-s4","properties":{"airport_id":"SYN-AP-AQJ","terminal_id":"SYN-AP-AQJ-T2","gate_id":"SYN-AP-AQJ-G4","stand_id":"SYN-AP-AQJ-S4","feature_type":"Stand","is_synthetic":true,"data_classification":"Synthetic master data","geometry_disclaimer":"Illustrative synthetic geometry; not a real airport layout, boundary, route, or operational location.","generator_version":"4.0.0","random_seed":42},"geometry":{"type":"Point","coordinates":[35.022601,29.611776]}},{"type":"Feature","id":"stand-syn-ap-aqj-s5","properties":{"airport_id":"SYN-AP-AQJ","terminal_id":"SYN-AP-AQJ-T2","gate_id":"SYN-AP-AQJ-G5","stand_id":"SYN-AP-AQJ-S5","feature_type":"Stand","is_synthetic":true,"data_classification":"Synthetic master data","geometry_disclaimer":"Illustrative synthetic geometry; not a real airport layout, boundary, route, or operational location.","generator_version":"4.0.0","random_seed":42},"geometry":{"type":"Point","coordinates":[35.022601,29.612126]}},{"type":"Feature","id":"stand-syn-ap-aqj-s6","properties":{"airport_id":"SYN-AP-AQJ","terminal_id":"SYN-AP-AQJ-T2","gate_id":"SYN-AP-AQJ-G6","stand_id":"SYN-AP-AQJ-S6","feature_type":"Stand","is_synthetic":true,"data_classification":"Synthetic master data","geometry_disclaimer":"Illustrative synthetic geometry; not a real airport layout, boundary, route, or operational location.","generator_version":"4.0.0","random_seed":42},"geometry":{"type":"Point","coordinates":[35.022601,29.612476]}}]}
