{"type":"FeatureCollection","name":"terminals","features":[{"type":"Feature","id":"terminal-syn-ap-cdg-t1","properties":{"airport_id":"SYN-AP-CDG","terminal_id":"SYN-AP-CDG-T1","feature_type":"Terminal","is_synthetic":true,"data_classification":"Synthetic master data","geometry_disclaimer":"Illustrative synthetic geometry; not a real airport layout, boundary, route, or operational location.","generator_version":"4.0.0","random_seed":42},"geometry":{"type":"Polygon","coordinates":[[[2.548617,49.00686],[2.553617,49.00686],[2.553617,49.01106],[2.548617,49.01106],[2.548617,49.00686]]]}},{"type":"Feature","id":"terminal-syn-ap-cdg-t2","properties":{"airport_id":"SYN-AP-CDG","terminal_id":"SYN-AP-CDG-T2","feature_type":"Terminal","is_synthetic":true,"data_classification":"Synthetic master data","geometry_disclaimer":"Illustrative synthetic geometry; not a real airport layout, boundary, route, or operational location.","generator_version":"4.0.0","random_seed":42},"geometry":{"type":"Polygon","coordinates":[[[2.5546170000000004,49.00686],[2.5596170000000003,49.00686],[2.5596170000000003,49.01106],[2.5546170000000004,49.01106],[2.5546170000000004,49.00686]]]}},{"type":"Feature","id":"terminal-syn-ap-ory-t1","properties":{"airport_id":"SYN-AP-ORY","terminal_id":"SYN-AP-ORY-T1","feature_type":"Terminal","is_synthetic":true,"data_classification":"Synthetic master data","geometry_disclaimer":"Illustrative synthetic geometry; not a real airport layout, boundary, route, or operational location.","generator_version":"4.0.0","random_seed":42},"geometry":{"type":"Polygon","coordinates":[[[2.353463,48.727399],[2.358463,48.727399],[2.358463,48.731598999999996],[2.353463,48.731598999999996],[2.353463,48.727399]]]}},{"type":"Feature","id":"terminal-syn-ap-ory-t2","properties":{"airport_id":"SYN-AP-ORY","terminal_id":"SYN-AP-ORY-T2","feature_type":"Terminal","is_synthetic":true,"data_classification":"Synthetic master data","geometry_disclaimer":"Illustrative synthetic geometry; not a real airport layout, boundary, route, or operational location.","generator_version":"4.0.0","random_seed":42},"geometry":{"type":"Polygon","coordinates":[[[2.3594630000000003,48.727399],[2.364463,48.727399],[2.364463,48.731598999999996],[2.3594630000000003,48.731598999999996],[2.3594630000000003,48.727399]]]}},{"type":"Feature","id":"terminal-syn-ap-nce-t1","properties":{"airport_id":"SYN-AP-NCE","terminal_id":"SYN-AP-NCE-T1","feature_type":"Terminal","is_synthetic":true,"data_classification":"Synthetic master data","geometry_disclaimer":"Illustrative synthetic geometry; not a real airport layout, boundary, route, or operational location.","generator_version":"4.0.0","random_seed":42},"geometry":{"type":"Polygon","coordinates":[[[7.210369999999999,43.656301],[7.21537,43.656301],[7.21537,43.660501],[7.210369999999999,43.660501],[7.210369999999999,43.656301]]]}},{"type":"Feature","id":"terminal-syn-ap-nce-t2","properties":{"airport_id":"SYN-AP-NCE","terminal_id":"SYN-AP-NCE-T2","feature_type":"Terminal","is_synthetic":true,"data_classification":"Synthetic master data","geometry_disclaimer":"Illustrative synthetic geometry; not a real airport layout, boundary, route, or operational location.","generator_version":"4.0.0","random_seed":42},"geometry":{"type":"Polygon","coordinates":[[[7.2163699999999995,43.656301],[7.22137,43.656301],[7.22137,43.660501],[7.2163699999999995,43.660501],[7.2163699999999995,43.656301]]]}},{"type":"Feature","id":"terminal-syn-ap-lys-t1","properties":{"airport_id":"SYN-AP-LYS","terminal_id":"SYN-AP-LYS-T1","feature_type":"Terminal","is_synthetic":true,"data_classification":"Synthetic master data","geometry_disclaimer":"Illustrative synthetic geometry; not a real airport layout, boundary, route, or operational location.","generator_version":"4.0.0","random_seed":42},"geometry":{"type":"Polygon","coordinates":[[[5.084638999999999,45.723896],[5.089639,45.723896],[5.089639,45.728096],[5.084638999999999,45.728096],[5.084638999999999,45.723896]]]}},{"type":"Feature","id":"terminal-syn-ap-lys-t2","properties":{"airport_id":"SYN-AP-LYS","terminal_id":"SYN-AP-LYS-T2","feature_type":"Terminal","is_synthetic":true,"data_classification":"Synthetic master data","geometry_disclaimer":"Illustrative synthetic geometry; not a real airport layout, boundary, route, or operational location.","generator_version":"4.0.0","random_seed":42},"geometry":{"type":"Polygon","coordinates":[[[5.0906389999999995,45.723896],[5.095639,45.723896],[5.095639,45.728096],[5.0906389999999995,45.728096],[5.0906389999999995,45.723896]]]}},{"type":"Feature","id":"terminal-syn-ap-mrs-t1","properties":{"airport_id":"SYN-AP-MRS","terminal_id":"SYN-AP-MRS-T1","feature_type":"Terminal","is_synthetic":true,"data_classification":"Synthetic master data","geometry_disclaimer":"Illustrative synthetic geometry; not a real airport layout, boundary, route, or operational location.","generator_version":"4.0.0","random_seed":42},"geometry":{"type":"Polygon","coordinates":[[[5.207,43.435988],[5.212000000000001,43.435988],[5.212000000000001,43.440188],[5.207,43.440188],[5.207,43.435988]]]}},{"type":"Feature","id":"terminal-syn-ap-mrs-t2","properties":{"airport_id":"SYN-AP-MRS","terminal_id":"SYN-AP-MRS-T2","feature_type":"Terminal","is_synthetic":true,"data_classification":"Synthetic master data","geometry_disclaimer":"Illustrative synthetic geometry; not a real airport layout, boundary, route, or operational location.","generator_version":"4.0.0","random_seed":42},"geometry":{"type":"Polygon","coordinates":[[[5.213,43.435988],[5.218000000000001,43.435988],[5.218000000000001,43.440188],[5.213,43.440188],[5.213,43.435988]]]}},{"type":"Feature","id":"terminal-syn-ap-tls-t1","properties":{"airport_id":"SYN-AP-TLS","terminal_id":"SYN-AP-TLS-T1","feature_type":"Terminal","is_synthetic":true,"data_classification":"Synthetic master data","geometry_disclaimer":"Illustrative synthetic geometry; not a real airport layout, boundary, route, or operational location.","generator_version":"4.0.0","random_seed":42},"geometry":{"type":"Polygon","coordinates":[[[1.3583200000000002,43.627001],[1.36332,43.627001],[1.36332,43.631201],[1.3583200000000002,43.631201],[1.3583200000000002,43.627001]]]}},{"type":"Feature","id":"terminal-syn-ap-tls-t2","properties":{"airport_id":"SYN-AP-TLS","terminal_id":"SYN-AP-TLS-T2","feature_type":"Terminal","is_synthetic":true,"data_classification":"Synthetic master data","geometry_disclaimer":"Illustrative synthetic geometry; not a real airport layout, boundary, route, or operational location.","generator_version":"4.0.0","random_seed":42},"geometry":{"type":"Polygon","coordinates":[[[1.36432,43.627001],[1.3693199999999999,43.627001],[1.3693199999999999,43.631201],[1.36432,43.631201],[1.36432,43.627001]]]}},{"type":"Feature","id":"terminal-syn-ap-fco-t1","properties":{"airport_id":"SYN-AP-FCO","terminal_id":"SYN-AP-FCO-T1","feature_type":"Terminal","is_synthetic":true,"data_classification":"Synthetic master data","geometry_disclaimer":"Illustrative synthetic geometry; not a real airport layout, boundary, route, or operational location.","generator_version":"4.0.0","random_seed":42},"geometry":{"type":"Polygon","coordinates":[[[12.246498,41.802432],[12.251498,41.802432],[12.251498,41.806632],[12.246498,41.806632],[12.246498,41.802432]]]}},{"type":"Feature","id":"terminal-syn-ap-fco-t2","properties":{"airport_id":"SYN-AP-FCO","terminal_id":"SYN-AP-FCO-T2","feature_type":"Terminal","is_synthetic":true,"data_classification":"Synthetic master data","geometry_disclaimer":"Illustrative synthetic geometry; not a real airport layout, boundary, route, or operational location.","generator_version":"4.0.0","random_seed":42},"geometry":{"type":"Polygon","coordinates":[[[12.252498000000001,41.802432],[12.257498,41.802432],[12.257498,41.806632],[12.252498000000001,41.806632],[12.252498000000001,41.802432]]]}},{"type":"Feature","id":"terminal-syn-ap-mxp-t1","properties":{"airport_id":"SYN-AP-MXP","terminal_id":"SYN-AP-MXP-T1","feature_type":"Terminal","is_synthetic":true,"data_classification":"Synthetic master data","geometry_disclaimer":"Illustrative synthetic geometry; not a real airport layout, boundary, route, or operational location.","generator_version":"4.0.0","random_seed":42},"geometry":{"type":"Polygon","coordinates":[[[8.72261,45.6285],[8.727609999999999,45.6285],[8.727609999999999,45.6327],[8.72261,45.6327],[8.72261,45.6285]]]}},{"type":"Feature","id":"terminal-syn-ap-mxp-t2","properties":{"airport_id":"SYN-AP-MXP","terminal_id":"SYN-AP-MXP-T2","feature_type":"Terminal","is_synthetic":true,"data_classification":"Synthetic master data","geometry_disclaimer":"Illustrative synthetic geometry; not a real airport layout, boundary, route, or operational location.","generator_version":"4.0.0","random_seed":42},"geometry":{"type":"Polygon","coordinates":[[[8.72861,45.6285],[8.733609999999999,45.6285],[8.733609999999999,45.6327],[8.72861,45.6327],[8.72861,45.6285]]]}},{"type":"Feature","id":"terminal-syn-ap-vce-t1","properties":{"airport_id":"SYN-AP-VCE","terminal_id":"SYN-AP-VCE-T1","feature_type":"Terminal","is_synthetic":true,"data_classification":"Synthetic master data","geometry_disclaimer":"Illustrative synthetic geometry; not a real airport layout, boundary, route, or operational location.","generator_version":"4.0.0","random_seed":42},"geometry":{"type":"Polygon","coordinates":[[[12.346400000000001,45.503199],[12.3514,45.503199],[12.3514,45.507399],[12.346400000000001,45.507399],[12.346400000000001,45.503199]]]}},{"type":"Feature","id":"terminal-syn-ap-vce-t2","properties":{"airport_id":"SYN-AP-VCE","terminal_id":"SYN-AP-VCE-T2","feature_type":"Terminal","is_synthetic":true,"data_classification":"Synthetic master data","geometry_disclaimer":"Illustrative synthetic geometry; not a real airport layout, boundary, route, or operational location.","generator_version":"4.0.0","random_seed":42},"geometry":{"type":"Polygon","coordinates":[[[12.352400000000001,45.503199],[12.3574,45.503199],[12.3574,45.507399],[12.352400000000001,45.507399],[12.352400000000001,45.503199]]]}},{"type":"Feature","id":"terminal-syn-ap-nap-t1","properties":{"airport_id":"SYN-AP-NAP","terminal_id":"SYN-AP-NAP-T1","feature_type":"Terminal","is_synthetic":true,"data_classification":"Synthetic master data","geometry_disclaimer":"Illustrative synthetic geometry; not a real airport layout, boundary, route, or operational location.","generator_version":"4.0.0","random_seed":42},"geometry":{"type":"Polygon","coordinates":[[[14.285300000000001,40.883902],[14.2903,40.883902],[14.2903,40.888101999999996],[14.285300000000001,40.888101999999996],[14.285300000000001,40.883902]]]}},{"type":"Feature","id":"terminal-syn-ap-nap-t2","properties":{"airport_id":"SYN-AP-NAP","terminal_id":"SYN-AP-NAP-T2","feature_type":"Terminal","is_synthetic":true,"data_classification":"Synthetic master data","geometry_disclaimer":"Illustrative synthetic geometry; not a real airport layout, boundary, route, or operational location.","generator_version":"4.0.0","random_seed":42},"geometry":{"type":"Polygon","coordinates":[[[14.291300000000001,40.883902],[14.2963,40.883902],[14.2963,40.888101999999996],[14.291300000000001,40.888101999999996],[14.291300000000001,40.883902]]]}},{"type":"Feature","id":"terminal-syn-ap-blq-t1","properties":{"airport_id":"SYN-AP-BLQ","terminal_id":"SYN-AP-BLQ-T1","feature_type":"Terminal","is_synthetic":true,"data_classification":"Synthetic master data","geometry_disclaimer":"Illustrative synthetic geometry; not a real airport layout, boundary, route, or operational location.","generator_version":"4.0.0","random_seed":42},"geometry":{"type":"Polygon","coordinates":[[[11.2832,44.533300000000004],[11.2882,44.533300000000004],[11.2882,44.5375],[11.2832,44.5375],[11.2832,44.533300000000004]]]}},{"type":"Feature","id":"terminal-syn-ap-blq-t2","properties":{"airport_id":"SYN-AP-BLQ","terminal_id":"SYN-AP-BLQ-T2","feature_type":"Terminal","is_synthetic":true,"data_classification":"Synthetic master data","geometry_disclaimer":"Illustrative synthetic geometry; not a real airport layout, boundary, route, or operational location.","generator_version":"4.0.0","random_seed":42},"geometry":{"type":"Polygon","coordinates":[[[11.289200000000001,44.533300000000004],[11.2942,44.533300000000004],[11.2942,44.5375],[11.289200000000001,44.5375],[11.289200000000001,44.533300000000004]]]}},{"type":"Feature","id":"terminal-syn-ap-lis-t1","properties":{"airport_id":"SYN-AP-LIS","terminal_id":"SYN-AP-LIS-T1","feature_type":"Terminal","is_synthetic":true,"data_classification":"Synthetic master data","geometry_disclaimer":"Illustrative synthetic geometry; not a real airport layout, boundary, route, or operational location.","generator_version":"4.0.0","random_seed":42},"geometry":{"type":"Polygon","coordinates":[[[-9.14142,38.7792],[-9.136420000000001,38.7792],[-9.136420000000001,38.7834],[-9.14142,38.7834],[-9.14142,38.7792]]]}},{"type":"Feature","id":"terminal-syn-ap-lis-t2","properties":{"airport_id":"SYN-AP-LIS","terminal_id":"SYN-AP-LIS-T2","feature_type":"Terminal","is_synthetic":true,"data_classification":"Synthetic master data","geometry_disclaimer":"Illustrative synthetic geometry; not a real airport layout, boundary, route, or operational location.","generator_version":"4.0.0","random_seed":42},"geometry":{"type":"Polygon","coordinates":[[[-9.13542,38.7792],[-9.13042,38.7792],[-9.13042,38.7834],[-9.13542,38.7834],[-9.13542,38.7792]]]}},{"type":"Feature","id":"terminal-syn-ap-opo-t1","properties":{"airport_id":"SYN-AP-OPO","terminal_id":"SYN-AP-OPO-T1","feature_type":"Terminal","is_synthetic":true,"data_classification":"Synthetic master data","geometry_disclaimer":"Illustrative synthetic geometry; not a real airport layout, boundary, route, or operational location.","generator_version":"4.0.0","random_seed":42},"geometry":{"type":"Polygon","coordinates":[[[-8.68688980865,41.246000280800004],[-8.68188980865,41.246000280800004],[-8.68188980865,41.2502002808],[-8.68688980865,41.2502002808],[-8.68688980865,41.246000280800004]]]}},{"type":"Feature","id":"terminal-syn-ap-opo-t2","properties":{"airport_id":"SYN-AP-OPO","terminal_id":"SYN-AP-OPO-T2","feature_type":"Terminal","is_synthetic":true,"data_classification":"Synthetic master data","geometry_disclaimer":"Illustrative synthetic geometry; not a real airport layout, boundary, route, or operational location.","generator_version":"4.0.0","random_seed":42},"geometry":{"type":"Polygon","coordinates":[[[-8.680889808649999,41.246000280800004],[-8.67588980865,41.246000280800004],[-8.67588980865,41.2502002808],[-8.680889808649999,41.2502002808],[-8.680889808649999,41.246000280800004]]]}},{"type":"Feature","id":"terminal-syn-ap-fao-t1","properties":{"airport_id":"SYN-AP-FAO","terminal_id":"SYN-AP-FAO-T1","feature_type":"Terminal","is_synthetic":true,"data_classification":"Synthetic master data","geometry_disclaimer":"Illustrative synthetic geometry; not a real airport layout, boundary, route, or operational location.","generator_version":"4.0.0","random_seed":42},"geometry":{"type":"Polygon","coordinates":[[[-7.976439000000001,37.013809],[-7.971439,37.013809],[-7.971439,37.018009],[-7.976439000000001,37.018009],[-7.976439000000001,37.013809]]]}},{"type":"Feature","id":"terminal-syn-ap-fao-t2","properties":{"airport_id":"SYN-AP-FAO","terminal_id":"SYN-AP-FAO-T2","feature_type":"Terminal","is_synthetic":true,"data_classification":"Synthetic master data","geometry_disclaimer":"Illustrative synthetic geometry; not a real airport layout, boundary, route, or operational location.","generator_version":"4.0.0","random_seed":42},"geometry":{"type":"Polygon","coordinates":[[[-7.970439000000001,37.013809],[-7.965439,37.013809],[-7.965439,37.018009],[-7.970439000000001,37.018009],[-7.970439000000001,37.013809]]]}},{"type":"Feature","id":"terminal-syn-ap-fnc-t1","properties":{"airport_id":"SYN-AP-FNC","terminal_id":"SYN-AP-FNC-T1","feature_type":"Terminal","is_synthetic":true,"data_classification":"Synthetic master data","geometry_disclaimer":"Illustrative synthetic geometry; not a real airport layout, boundary, route, or operational location.","generator_version":"4.0.0","random_seed":42},"geometry":{"type":"Polygon","coordinates":[[[-16.780113,32.695712],[-16.775112999999997,32.695712],[-16.775112999999997,32.699912],[-16.780113,32.699912],[-16.780113,32.695712]]]}},{"type":"Feature","id":"terminal-syn-ap-fnc-t2","properties":{"airport_id":"SYN-AP-FNC","terminal_id":"SYN-AP-FNC-T2","feature_type":"Terminal","is_synthetic":true,"data_classification":"Synthetic master data","geometry_disclaimer":"Illustrative synthetic geometry; not a real airport layout, boundary, route, or operational location.","generator_version":"4.0.0","random_seed":42},"geometry":{"type":"Polygon","coordinates":[[[-16.774113,32.695712],[-16.769112999999997,32.695712],[-16.769112999999997,32.699912],[-16.774113,32.699912],[-16.774113,32.695712]]]}},{"type":"Feature","id":"terminal-syn-ap-pdl-t1","properties":{"airport_id":"SYN-AP-PDL","terminal_id":"SYN-AP-PDL-T1","feature_type":"Terminal","is_synthetic":true,"data_classification":"Synthetic master data","geometry_disclaimer":"Illustrative synthetic geometry; not a real airport layout, boundary, route, or operational location.","generator_version":"4.0.0","random_seed":42},"geometry":{"type":"Polygon","coordinates":[[[-25.7034007721,37.739099493400005],[-25.698400772099998,37.739099493400005],[-25.698400772099998,37.7432994934],[-25.7034007721,37.7432994934],[-25.7034007721,37.739099493400005]]]}},{"type":"Feature","id":"terminal-syn-ap-pdl-t2","properties":{"airport_id":"SYN-AP-PDL","terminal_id":"SYN-AP-PDL-T2","feature_type":"Terminal","is_synthetic":true,"data_classification":"Synthetic master data","geometry_disclaimer":"Illustrative synthetic geometry; not a real airport layout, boundary, route, or operational location.","generator_version":"4.0.0","random_seed":42},"geometry":{"type":"Polygon","coordinates":[[[-25.6974007721,37.739099493400005],[-25.692400772099997,37.739099493400005],[-25.692400772099997,37.7432994934],[-25.6974007721,37.7432994934],[-25.6974007721,37.739099493400005]]]}},{"type":"Feature","id":"terminal-syn-ap-amm-t1","properties":{"airport_id":"SYN-AP-AMM","terminal_id":"SYN-AP-AMM-T1","feature_type":"Terminal","is_synthetic":true,"data_classification":"Synthetic master data","geometry_disclaimer":"Illustrative synthetic geometry; not a real airport layout, boundary, route, or operational location.","generator_version":"4.0.0","random_seed":42},"geometry":{"type":"Polygon","coordinates":[[[35.9876983948,31.720500936900002],[35.992698394799994,31.720500936900002],[35.992698394799994,31.7247009369],[35.9876983948,31.7247009369],[35.9876983948,31.720500936900002]]]}},{"type":"Feature","id":"terminal-syn-ap-amm-t2","properties":{"airport_id":"SYN-AP-AMM","terminal_id":"SYN-AP-AMM-T2","feature_type":"Terminal","is_synthetic":true,"data_classification":"Synthetic master data","geometry_disclaimer":"Illustrative synthetic geometry; not a real airport layout, boundary, route, or operational location.","generator_version":"4.0.0","random_seed":42},"geometry":{"type":"Polygon","coordinates":[[[35.9936983948,31.720500936900002],[35.998698394799995,31.720500936900002],[35.998698394799995,31.7247009369],[35.9936983948,31.7247009369],[35.9936983948,31.720500936900002]]]}},{"type":"Feature","id":"terminal-syn-ap-aqj-t1","properties":{"airport_id":"SYN-AP-AQJ","terminal_id":"SYN-AP-AQJ-T1","feature_type":"Terminal","is_synthetic":true,"data_classification":"Synthetic master data","geometry_disclaimer":"Illustrative synthetic geometry; not a real airport layout, boundary, route, or operational location.","generator_version":"4.0.0","random_seed":42},"geometry":{"type":"Polygon","coordinates":[[[35.012601000000004,29.609501],[35.017601,29.609501],[35.017601,29.613701],[35.012601000000004,29.613701],[35.012601000000004,29.609501]]]}},{"type":"Feature","id":"terminal-syn-ap-aqj-t2","properties":{"airport_id":"SYN-AP-AQJ","terminal_id":"SYN-AP-AQJ-T2","feature_type":"Terminal","is_synthetic":true,"data_classification":"Synthetic master data","geometry_disclaimer":"Illustrative synthetic geometry; not a real airport layout, boundary, route, or operational location.","generator_version":"4.0.0","random_seed":42},"geometry":{"type":"Polygon","coordinates":[[[35.018601000000004,29.609501],[35.023601,29.609501],[35.023601,29.613701],[35.018601000000004,29.613701],[35.018601000000004,29.609501]]]}}]}
